{"type":"FeatureCollection","features":[{"type":"Feature","properties":{"c":"#c8f500","v0":0.2,"v1":0.25},"geometry":{"type":"Polygon","coordinates":[[[-110.0326,46.6956],[-110.0175,46.7119],[-110.0,46.7212],[-109.98,46.7234],[-109.9545,46.7187],[-109.9234,46.707],[-109.9004,46.6909],[-109.8856,46.6703],[-109.8962,46.6554],[-109.9321,46.6462],[-109.965,46.6453],[-109.995,46.6526],[-110.0175,46.6641],[-110.0326,46.6797],[-110.0326,46.6956]],[[-110.0296,46.6948],[-110.0165,46.7095],[-110.0,46.7181],[-109.98,46.7207],[-109.955,46.7162],[-109.925,46.7047],[-109.9034,46.6893],[-109.8902,46.6698],[-109.9002,46.6562],[-109.9334,46.6486],[-109.965,46.6485],[-109.995,46.656],[-110.0165,46.6666],[-110.0296,46.6805],[-110.0296,46.6948]]]}},{"type":"Feature","properties":{"c":"#c8f500","v0":0.2,"v1":0.25},"geometry":{"type":"Polygon","coordinates":[[[-100.6621,40.5573],[-100.614,40.5587],[-100.5805,40.5549],[-100.5615,40.5459],[-100.5518,40.5337],[-100.5514,40.5185],[-100.5709,40.5042],[-100.6103,40.4907],[-100.644,40.5021],[-100.6721,40.5384],[-100.6621,40.5573]],[[-100.6455,40.5547],[-100.5952,40.5509],[-100.5665,40.5395],[-100.5596,40.5205],[-100.5746,40.505],[-100.6115,40.493],[-100.6402,40.5044],[-100.6605,40.5392],[-100.6455,40.5547]]]}},{"type":"Feature","properties":{"c":"#c8f500","v0":0.2,"v1":0.25},"geometry":{"type":"Polygon","coordinates":[[[-86.9671,40.272],[-86.9557,40.2817],[-86.9424,40.2817],[-86.9273,40.272],[-86.9273,40.2635],[-86.9424,40.2562],[-86.9557,40.2562],[-86.9671,40.2635],[-86.9671,40.272]],[[-86.9595,40.2706],[-86.9532,40.2774],[-86.9447,40.2774],[-86.9341,40.2706],[-86.9372,40.2672],[-86.9542,40.2672],[-86.9595,40.2706]]]}},{"type":"Feature","properties":{"c":"#c8f500","v0":0.2,"v1":0.25},"geometry":{"type":"Polygon","coordinates":[[[-87.7972,39.9526],[-87.7791,39.9661],[-87.7578,39.9661],[-87.7334,39.9526],[-87.7334,39.939],[-87.7578,39.9252],[-87.7791,39.9252],[-87.7972,39.939],[-87.7972,39.9526]],[[-87.7938,39.9519],[-87.7779,39.9638],[-87.759,39.9638],[-87.7369,39.9519],[-87.7369,39.9398],[-87.759,39.9275],[-87.7779,39.9275],[-87.7938,39.9398],[-87.7938,39.9519]]]}},{"type":"Feature","properties":{"c":"#c8f500","v0":0.2,"v1":0.25},"geometry":{"type":"Polygon","coordinates":[[[-104.8561,39.2008],[-104.8387,39.2217],[-104.8139,39.2294],[-104.7817,39.2241],[-104.7767,39.2085],[-104.7989,39.1827],[-104.8237,39.1749],[-104.8511,39.1852],[-104.8561,39.2008]],[[-104.8527,39.2001],[-104.8376,39.2194],[-104.8153,39.2271],[-104.7858,39.2233],[-104.7808,39.2094],[-104.8003,39.1854],[-104.8226,39.1776],[-104.8477,39.1861],[-104.8527,39.2001]]]}},{"type":"Feature","properties":{"c":"#c8f500","v0":0.2,"v1":0.25},"geometry":{"type":"Polygon","coordinates":[[[-105.1045,38.717],[-105.0948,38.7346],[-105.08,38.7448],[-105.06,38.7476],[-105.0363,38.731],[-105.0088,38.695],[-105.0088,38.6721],[-105.0363,38.6624],[-105.0648,38.6702],[-105.0945,38.6955],[-105.1045,38.717]],[[-105.1009,38.7157],[-105.0936,38.7307],[-105.08,38.7393],[-105.06,38.7415],[-105.0376,38.7262],[-105.0129,38.6934],[-105.0129,38.6731],[-105.0376,38.6652],[-105.0636,38.673],[-105.0909,38.6965],[-105.1009,38.7157]]]}},{"type":"Feature","properties":{"c":"#c8f500","v0":0.2,"v1":0.25},"geometry":{"type":"Polygon","coordinates":[[[-102.0906,38.7286],[-102.0769,38.7383],[-102.065,38.7383],[-102.0549,38.7286],[-102.0549,38.7192],[-102.065,38.71],[-102.0769,38.71],[-102.0906,38.7192],[-102.0906,38.7286]],[[-102.0864,38.7273],[-102.0755,38.7342],[-102.067,38.7342],[-102.061,38.7273],[-102.061,38.7207],[-102.067,38.7146],[-102.0755,38.7146],[-102.0864,38.7207],[-102.0864,38.7273]]]}},{"type":"Feature","properties":{"c":"#c8f500","v0":0.2,"v1":0.25},"geometry":{"type":"Polygon","coordinates":[[[-105.6796,38.6368],[-105.6732,38.65],[-105.66,38.6563],[-105.64,38.6556],[-105.6239,38.6412],[-105.6118,38.613],[-105.6168,38.5926],[-105.6389,38.5801],[-105.6582,38.588],[-105.6746,38.6161],[-105.6796,38.6368]],[[-105.6715,38.6252],[-105.6572,38.6466],[-105.639,38.6466],[-105.617,38.6252],[-105.617,38.6055],[-105.639,38.5876],[-105.6572,38.5876],[-105.6715,38.6055],[-105.6715,38.6252]]]}},{"type":"Feature","properties":{"c":"#c8f500","v0":0.2,"v1":0.25},"geometry":{"type":"Polygon","coordinates":[[[-111.6978,38.1166],[-111.6899,38.1244],[-111.687,38.1208],[-111.689,38.1055],[-111.6929,38.1016],[-111.6988,38.109],[-111.6978,38.1166]]]}},{"type":"Feature","properties":{"c":"#c8f500","v0":0.2,"v1":0.25},"geometry":{"type":"Polygon","coordinates":[[[-104.953,37.4381],[-104.9377,37.4487],[-104.9233,37.4487],[-104.9099,37.4381],[-104.9099,37.4273],[-104.9233,37.4162],[-104.9377,37.4162],[-104.953,37.4273],[-104.953,37.4381]],[[-104.9491,37.437],[-104.9364,37.4453],[-104.9252,37.4453],[-104.9156,37.437],[-104.9156,37.4284],[-104.9252,37.4195],[-104.9364,37.4195],[-104.9491,37.4284],[-104.9491,37.437]]]}},{"type":"Feature","properties":{"c":"#c8f500","v0":0.2,"v1":0.25},"geometry":{"type":"Polygon","coordinates":[[[-105.0369,37.3596],[-105.019,37.3722],[-104.9992,37.3722],[-104.9777,37.3596],[-104.9777,37.3476],[-104.9992,37.3361],[-105.019,37.3361],[-105.0369,37.3476],[-105.0369,37.3596]],[[-105.0321,37.3587],[-105.0174,37.3694],[-105.0007,37.3694],[-104.9821,37.3587],[-104.9821,37.3485],[-105.0007,37.3389],[-105.0174,37.3389],[-105.0321,37.3485],[-105.0321,37.3587]]]}},{"type":"Feature","properties":{"c":"#c8f500","v0":0.2,"v1":0.25},"geometry":{"type":"Polygon","coordinates":[[[-104.912,36.8428],[-104.8891,36.8428],[-104.8857,36.838],[-104.9019,36.8284],[-104.9134,36.8284],[-104.9201,36.838],[-104.912,36.8428]]]}},{"type":"Feature","properties":{"c":"#c8f500","v0":0.2,"v1":0.25},"geometry":{"type":"Polygon","coordinates":[[[-91.864,36.7822],[-91.828,36.789],[-91.8005,36.785],[-91.7814,36.7702],[-91.7864,36.755],[-91.8155,36.7396],[-91.843,36.7436],[-91.869,36.7671],[-91.864,36.7822]],[[-91.8582,36.7814],[-91.8261,36.7867],[-91.8017,36.7827],[-91.785,36.7694],[-91.79,36.7558],[-91.8167,36.7419],[-91.8411,36.7459],[-91.8632,36.7678],[-91.8582,36.7814]]]}},{"type":"Feature","properties":{"c":"#c8f500","v0":0.2,"v1":0.25},"geometry":{"type":"Polygon","coordinates":[[[-91.5317,36.6532],[-91.5039,36.6908],[-91.475,36.7097],[-91.445,36.7099],[-91.427,36.6992],[-91.4209,36.6774],[-91.4259,36.6543],[-91.442,36.6298],[-91.46,36.6145],[-91.48,36.6082],[-91.5039,36.6124],[-91.5317,36.6271],[-91.5317,36.6532]],[[-91.5185,36.664],[-91.4995,36.691],[-91.48,36.707],[-91.46,36.7121],[-91.445,36.7111],[-91.435,36.7039],[-91.4282,36.6919],[-91.4245,36.675],[-91.4345,36.653],[-91.4582,36.6258],[-91.4796,36.6138],[-91.4987,36.6169],[-91.5132,36.6264],[-91.523,36.6425],[-91.5185,36.664]]]}},{"type":"Feature","properties":{"c":"#c8f500","v0":0.2,"v1":0.25},"geometry":{"type":"Polygon","coordinates":[[[-104.1347,36.6418],[-104.1182,36.6565],[-104.1017,36.6565],[-104.085,36.6418],[-104.0771,36.6264],[-104.0782,36.6104],[-104.0891,36.6023],[-104.11,36.6023],[-104.126,36.6104],[-104.1373,36.6264],[-104.1347,36.6418]],[[-104.1314,36.6407],[-104.1171,36.6532],[-104.1017,36.6492],[-104.0852,36.6287],[-104.0852,36.6142],[-104.1017,36.6057],[-104.1171,36.6097],[-104.1314,36.6262],[-104.1314,36.6407]]]}},{"type":"Feature","properties":{"c":"#c8f500","v0":0.2,"v1":0.25},"geometry":{"type":"Polygon","coordinates":[[[-104.2335,36.5938],[-104.2178,36.6089],[-104.2039,36.6129],[-104.1916,36.6059],[-104.1916,36.5925],[-104.2039,36.5728],[-104.2178,36.5688],[-104.2335,36.5804],[-104.2335,36.5938]],[[-104.2302,36.5927],[-104.2167,36.6056],[-104.2044,36.6056],[-104.1932,36.5927],[-104.1932,36.5814],[-104.2044,36.5717],[-104.2167,36.5717],[-104.2302,36.5814],[-104.2302,36.5927]]]}},{"type":"Feature","properties":{"c":"#c8f500","v0":0.2,"v1":0.25},"geometry":{"type":"Polygon","coordinates":[[[-104.8336,36.2704],[-104.8179,36.2824],[-104.7983,36.2824],[-104.7749,36.2704],[-104.7749,36.256],[-104.7983,36.2393],[-104.8179,36.2393],[-104.8336,36.256],[-104.8336,36.2704]],[[-104.8305,36.2696],[-104.8168,36.2799],[-104.7995,36.2799],[-104.7784,36.2696],[-104.7784,36.2569],[-104.7995,36.2418],[-104.8168,36.2418],[-104.8305,36.2569],[-104.8305,36.2696]]]}},{"type":"Feature","properties":{"c":"#c8f500","v0":0.2,"v1":0.25},"geometry":{"type":"Polygon","coordinates":[[[-104.2468,36.2391],[-104.2223,36.2529],[-104.2006,36.2529],[-104.1819,36.2391],[-104.1819,36.2251],[-104.2006,36.2109],[-104.2223,36.2109],[-104.2468,36.2251],[-104.2468,36.2391]],[[-104.2437,36.2384],[-104.2212,36.2509],[-104.2016,36.2509],[-104.1848,36.2384],[-104.1848,36.2257],[-104.2016,36.2128],[-104.2212,36.2128],[-104.2437,36.2257],[-104.2437,36.2384]]]}},{"type":"Feature","properties":{"c":"#c8f500","v0":0.2,"v1":0.25},"geometry":{"type":"Polygon","coordinates":[[[-92.1638,36.0915],[-92.1546,36.1008],[-92.143,36.1008],[-92.1291,36.0915],[-92.1291,36.0827],[-92.143,36.0746],[-92.1546,36.0746],[-92.1638,36.0827],[-92.1638,36.0915]]]}},{"type":"Feature","properties":{"c":"#c8f500","v0":0.2,"v1":0.25},"geometry":{"type":"Polygon","coordinates":[[[-92.3376,35.9938],[-92.3321,36.0019],[-92.3145,36.0066],[-92.2848,36.0079],[-92.23,35.9897],[-92.15,35.952],[-92.095,35.9354],[-92.065,35.9398],[-92.047,35.9256],[-92.0411,35.8928],[-92.0461,35.8701],[-92.062,35.8576],[-92.08,35.8536],[-92.0999,35.858],[-92.1199,35.8793],[-92.14,35.9174],[-92.17,35.928],[-92.21,35.9111],[-92.2576,35.9245],[-92.3128,35.968],[-92.3376,35.9938]],[[-92.1296,35.9129],[-92.1254,35.921],[-92.1049,35.9241],[-92.0683,35.9224],[-92.0483,35.9103],[-92.045,35.8877],[-92.055,35.8711],[-92.0783,35.8605],[-92.1004,35.8686],[-92.1213,35.8954],[-92.1296,35.9129]],[[-92.3271,35.9934],[-92.3157,36.0008],[-92.295,36.0031],[-92.265,36.0002],[-92.2308,35.9844],[-92.1925,35.9556],[-92.1875,35.9326],[-92.2158,35.9153],[-92.2557,35.9274],[-92.3071,35.969],[-92.3271,35.9934]]]}},{"type":"Feature","properties":{"c":"#c8f500","v0":0.2,"v1":0.25},"geometry":{"type":"Polygon","coordinates":[[[-93.9787,35.7276],[-93.9196,35.7546],[-93.88,35.7662],[-93.86,35.7623],[-93.8438,35.7529],[-93.8313,35.7379],[-93.8313,35.7187],[-93.8438,35.6954],[-93.865,35.6787],[-93.895,35.6688],[-93.9296,35.6683],[-93.9689,35.6772],[-93.9934,35.6898],[-94.0033,35.706],[-93.9787,35.7276]],[[-93.974,35.7267],[-93.918,35.7518],[-93.875,35.7559],[-93.8451,35.7389],[-93.8351,35.7199],[-93.845,35.6988],[-93.865,35.6828],[-93.895,35.672],[-93.9273,35.6704],[-93.9619,35.6779],[-93.9849,35.6898],[-93.9963,35.706],[-93.974,35.7267]]]}},{"type":"Feature","properties":{"c":"#c8f500","v0":0.2,"v1":0.25},"geometry":{"type":"Polygon","coordinates":[[[-95.1198,35.7075],[-95.1133,35.7265],[-95.1,35.7401],[-95.08,35.7481],[-95.065,35.7344],[-95.055,35.6988],[-95.033,35.665],[-94.999,35.6328],[-94.994,35.6133],[-95.018,35.6067],[-95.0533,35.627],[-95.0998,35.6743],[-95.1198,35.7075]],[[-95.1113,35.7101],[-95.0978,35.7345],[-95.0858,35.7458],[-95.0753,35.744],[-95.065,35.7239],[-95.055,35.6853],[-95.035,35.6579],[-95.005,35.6416],[-94.9909,35.6292],[-94.9928,35.6209],[-95.0028,35.6155],[-95.0209,35.6132],[-95.052,35.6335],[-95.096,35.6765],[-95.1113,35.7101]]]}},{"type":"Feature","properties":{"c":"#c8f500","v0":0.2,"v1":0.25},"geometry":{"type":"Polygon","coordinates":[[[-107.2587,35.7203],[-107.2529,35.7325],[-107.2432,35.7366],[-107.2295,35.7325],[-107.2295,35.7204],[-107.2432,35.7005],[-107.2529,35.6964],[-107.2587,35.7082],[-107.2587,35.7203]]]}},{"type":"Feature","properties":{"c":"#c8f500","v0":0.2,"v1":0.25},"geometry":{"type":"Polygon","coordinates":[[[-106.6309,35.7142],[-106.6081,35.7142],[-106.6,35.7103],[-106.6067,35.7025],[-106.6181,35.7025],[-106.6342,35.7103],[-106.6309,35.7142]]]}},{"type":"Feature","properties":{"c":"#c8f500","v0":0.2,"v1":0.25},"geometry":{"type":"Polygon","coordinates":[[[-93.4581,35.6408],[-93.4394,35.6566],[-93.4184,35.6606],[-93.3952,35.653],[-93.3902,35.6391],[-93.4034,35.6189],[-93.4244,35.6149],[-93.4531,35.6269],[-93.4581,35.6408]],[[-93.4529,35.6397],[-93.4376,35.6531],[-93.42,35.6572],[-93.4,35.6518],[-93.395,35.6403],[-93.405,35.6226],[-93.4226,35.6185],[-93.4479,35.6281],[-93.4529,35.6397]]]}},{"type":"Feature","properties":{"c":"#c8f500","v0":0.2,"v1":0.25},"geometry":{"type":"Polygon","coordinates":[[[-92.0657,35.6233],[-92.0419,35.6365],[-92.0223,35.6365],[-92.007,35.6233],[-92.007,35.6101],[-92.0223,35.5969],[-92.0419,35.5969],[-92.0657,35.6101],[-92.0657,35.6233]],[[-92.0619,35.6224],[-92.0406,35.6338],[-92.0235,35.6338],[-92.0105,35.6224],[-92.0105,35.611],[-92.0235,35.5997],[-92.0406,35.5997],[-92.0619,35.611],[-92.0619,35.6224]]]}},{"type":"Feature","properties":{"c":"#c8f500","v0":0.2,"v1":0.25},"geometry":{"type":"Polygon","coordinates":[[[-94.5472,35.5532],[-94.5357,35.5563],[-94.5286,35.5522],[-94.5259,35.541],[-94.5317,35.5394],[-94.5458,35.5475],[-94.5472,35.5532]]]}},{"type":"Feature","properties":{"c":"#c8f500","v0":0.2,"v1":0.25},"geometry":{"type":"Polygon","coordinates":[[[-94.28,35.5229],[-94.2733,35.5307],[-94.2631,35.5307],[-94.2493,35.5229],[-94.2527,35.519],[-94.2731,35.519],[-94.28,35.5229]]]}},{"type":"Feature","properties":{"c":"#c8f500","v0":0.2,"v1":0.25},"geometry":{"type":"Polygon","coordinates":[[[-105.1643,35.4262],[-105.1548,35.4358],[-105.145,35.4388],[-105.135,35.4351],[-105.12,35.416],[-105.1,35.3814],[-105.1034,35.3661],[-105.1301,35.3703],[-105.1499,35.3846],[-105.1626,35.4091],[-105.1643,35.4262]],[[-105.1518,35.4223],[-105.1373,35.4243],[-105.1206,35.4121],[-105.1017,35.3856],[-105.1025,35.3724],[-105.123,35.3724],[-105.1397,35.3846],[-105.1526,35.4091],[-105.1518,35.4223]]]}},{"type":"Feature","properties":{"c":"#c8f500","v0":0.2,"v1":0.25},"geometry":{"type":"Polygon","coordinates":[[[-92.2681,35.1833],[-92.256,35.1971],[-92.2358,35.1971],[-92.2074,35.1833],[-92.2024,35.1695],[-92.2208,35.1557],[-92.241,35.1557],[-92.2631,35.1695],[-92.2681,35.1833]],[[-92.2641,35.1824],[-92.2547,35.1943],[-92.2372,35.1943],[-92.2115,35.1824],[-92.2065,35.1704],[-92.2222,35.1584],[-92.2397,35.1584],[-92.2591,35.1704],[-92.2641,35.1824]]]}},{"type":"Feature","properties":{"c":"#c8f500","v0":0.2,"v1":0.25},"geometry":{"type":"Polygon","coordinates":[[[-91.827,34.857],[-91.8164,34.8734],[-91.8008,34.8851],[-91.7803,34.8922],[-91.7606,34.8922],[-91.7419,34.8851],[-91.7285,34.8734],[-91.7205,34.857],[-91.7299,34.8391],[-91.7566,34.8197],[-91.78,34.8121],[-91.8,34.8164],[-91.8156,34.8261],[-91.8267,34.8412],[-91.827,34.857]],[[-91.8131,34.8596],[-91.7844,34.8812],[-91.7584,34.8812],[-91.7353,34.8596],[-91.7353,34.8401],[-91.7584,34.8226],[-91.7844,34.8226],[-91.8131,34.8401],[-91.8131,34.8596]]]}},{"type":"Feature","properties":{"c":"#c8f500","v0":0.2,"v1":0.25},"geometry":{"type":"Polygon","coordinates":[[[-92.7251,34.5816],[-92.7074,34.5734],[-92.7064,34.5685],[-92.7221,34.567],[-92.731,34.5711],[-92.733,34.5809],[-92.7251,34.5816]]]}},{"type":"Feature","properties":{"c":"#c8f500","v0":0.2,"v1":0.25},"geometry":{"type":"Polygon","coordinates":[[[-94.8455,34.5299],[-94.8218,34.5499],[-94.7977,34.5499],[-94.773,34.5299],[-94.773,34.5124],[-94.7977,34.4974],[-94.8218,34.4974],[-94.8455,34.5124],[-94.8455,34.5299]],[[-94.8422,34.529],[-94.8207,34.5473],[-94.7987,34.5473],[-94.7761,34.529],[-94.7761,34.513],[-94.7987,34.4994],[-94.8207,34.4994],[-94.8422,34.513],[-94.8422,34.529]]]}},{"type":"Feature","properties":{"c":"#c8f500","v0":0.2,"v1":0.25},"geometry":{"type":"Polygon","coordinates":[[[-88.5275,33.991],[-88.5158,33.9913],[-88.5065,33.983],[-88.4996,33.9661],[-88.5025,33.9577],[-88.5152,33.9577],[-88.5245,33.966],[-88.5304,33.9825],[-88.5275,33.991]]]}},{"type":"Feature","properties":{"c":"#c8f500","v0":0.2,"v1":0.25},"geometry":{"type":"Polygon","coordinates":[[[-88.6352,33.896],[-88.6317,33.9055],[-88.624,33.9096],[-88.6121,33.9085],[-88.6071,33.9036],[-88.609,33.8951],[-88.6167,33.891],[-88.6302,33.8912],[-88.6352,33.896]]]}},{"type":"Feature","properties":{"c":"#c8f500","v0":0.2,"v1":0.25},"geometry":{"type":"Polygon","coordinates":[[[-87.9177,33.8323],[-87.8992,33.8473],[-87.8779,33.8473],[-87.8536,33.8323],[-87.8536,33.8155],[-87.8779,33.797],[-87.8992,33.797],[-87.9177,33.8155],[-87.9177,33.8323]],[[-87.9153,33.8316],[-87.8984,33.8452],[-87.879,33.8452],[-87.8569,33.8316],[-87.8569,33.8165],[-87.879,33.7999],[-87.8984,33.7999],[-87.9153,33.8165],[-87.9153,33.8316]]]}},{"type":"Feature","properties":{"c":"#c8f500","v0":0.2,"v1":0.25},"geometry":{"type":"Polygon","coordinates":[[[-89.3585,33.7811],[-89.3528,33.7935],[-89.34,33.8017],[-89.32,33.8058],[-89.2982,33.7955],[-89.2747,33.7707],[-89.2747,33.7521],[-89.2982,33.7396],[-89.3228,33.7438],[-89.3485,33.7646],[-89.3585,33.7811]],[[-89.3451,33.7822],[-89.3217,33.7967],[-89.2995,33.7926],[-89.2785,33.7697],[-89.2785,33.7531],[-89.2995,33.7426],[-89.3217,33.7468],[-89.3451,33.7656],[-89.3451,33.7822]]]}},{"type":"Feature","properties":{"c":"#c8f500","v0":0.2,"v1":0.25},"geometry":{"type":"Polygon","coordinates":[[[-89.0533,33.7874],[-89.0111,33.8122],[-88.9724,33.8205],[-88.9372,33.8123],[-88.9241,33.7957],[-88.9331,33.7708],[-88.9507,33.7511],[-88.9769,33.7365],[-89.005,33.7317],[-89.035,33.7368],[-89.0561,33.7482],[-89.0683,33.766],[-89.0533,33.7874]],[[-89.0492,33.7865],[-89.0097,33.8096],[-88.975,33.818],[-88.945,33.8118],[-88.9284,33.8044],[-88.9253,33.7959],[-88.9403,33.7767],[-88.9734,33.7468],[-89.0045,33.7344],[-89.0335,33.7393],[-89.0532,33.75],[-89.0637,33.7667],[-89.0492,33.7865]]]}},{"type":"Feature","properties":{"c":"#c8f500","v0":0.2,"v1":0.25},"geometry":{"type":"Polygon","coordinates":[[[-89.4057,33.6813],[-89.3819,33.6936],[-89.3613,33.6894],[-89.3439,33.6688],[-89.3489,33.6534],[-89.3763,33.6431],[-89.3969,33.6473],[-89.4107,33.6659],[-89.4057,33.6813]],[[-89.4022,33.6802],[-89.3807,33.6904],[-89.3625,33.6862],[-89.3475,33.6678],[-89.3525,33.6544],[-89.3775,33.6463],[-89.3957,33.6504],[-89.4072,33.6669],[-89.4022,33.6802]]]}},{"type":"Feature","properties":{"c":"#c8f500","v0":0.2,"v1":0.25},"geometry":{"type":"Polygon","coordinates":[[[-89.4672,33.4641],[-89.4557,33.4754],[-89.4427,33.4713],[-89.428,33.4516],[-89.428,33.4403],[-89.4427,33.4373],[-89.4557,33.4415],[-89.4672,33.4528],[-89.4672,33.4641]],[[-89.4607,33.4626],[-89.4536,33.4707],[-89.445,33.4707],[-89.4349,33.4626],[-89.4349,33.4542],[-89.445,33.4457],[-89.4536,33.4457],[-89.4607,33.4542],[-89.4607,33.4626]]]}},{"type":"Feature","properties":{"c":"#c8f500","v0":0.2,"v1":0.25},"geometry":{"type":"Polygon","coordinates":[[[-88.675,33.166],[-88.6435,33.1827],[-88.6271,33.1869],[-88.6257,33.1785],[-88.6363,33.1682],[-88.6588,33.1558],[-88.6752,33.1516],[-88.6855,33.1556],[-88.675,33.166]]]}},{"type":"Feature","properties":{"c":"#c8f500","v0":0.2,"v1":0.25},"geometry":{"type":"Polygon","coordinates":[[[-90.4669,29.4047],[-90.4556,29.4181],[-90.4425,29.4225],[-90.4276,29.4177],[-90.4226,29.4058],[-90.4275,29.3866],[-90.4406,29.3822],[-90.4619,29.3927],[-90.4669,29.4047]],[[-90.4568,29.4023],[-90.437,29.411],[-90.4295,29.4067],[-90.4344,29.3893],[-90.4443,29.3849],[-90.4592,29.3936],[-90.4568,29.4023]]]}},{"type":"Feature","properties":{"c":"#c8f500","v0":0.2,"v1":0.25},"geometry":{"type":"Polygon","coordinates":[[[-81.2586,28.8646],[-81.2262,28.8813],[-81.1943,28.8725],[-81.1629,28.8384],[-81.1529,28.8157],[-81.1643,28.8045],[-81.19,28.8044],[-81.23,28.8151],[-81.2562,28.8295],[-81.2686,28.8474],[-81.2586,28.8646]],[[-81.2549,28.8639],[-81.225,28.8791],[-81.198,28.8703],[-81.174,28.8376],[-81.184,28.8221],[-81.228,28.8236],[-81.255,28.8323],[-81.2649,28.8483],[-81.2549,28.8639]]]}},{"type":"Feature","properties":{"c":"#c8f500","v0":0.2,"v1":0.25},"geometry":{"type":"Polygon","coordinates":[[[-81.8054,28.5105],[-81.7818,28.5206],[-81.759,28.5206],[-81.737,28.5105],[-81.742,28.4968],[-81.774,28.4797],[-81.7968,28.4797],[-81.8104,28.4968],[-81.8054,28.5105]],[[-81.8018,28.5094],[-81.7806,28.5176],[-81.7606,28.5176],[-81.7419,28.5094],[-81.7469,28.4977],[-81.7756,28.4824],[-81.7956,28.4824],[-81.8068,28.4977],[-81.8018,28.5094]]]}},{"type":"Feature","properties":{"c":"#c8f500","v0":0.2,"v1":0.25},"geometry":{"type":"Polygon","coordinates":[[[-81.3204,27.823],[-81.3135,27.8336],[-81.3028,27.8336],[-81.2884,27.823],[-81.2884,27.8121],[-81.3028,27.8011],[-81.3135,27.8011],[-81.3204,27.8121],[-81.3204,27.823]],[[-81.316,27.8212],[-81.312,27.8283],[-81.3041,27.8283],[-81.2924,27.8212],[-81.2924,27.8137],[-81.3041,27.8058],[-81.312,27.8058],[-81.316,27.8137],[-81.316,27.8212]]]}},{"type":"Feature","properties":{"c":"#c8f500","v0":0.2,"v1":0.25},"geometry":{"type":"Polygon","coordinates":[[[-81.2956,26.8796],[-81.2785,26.8867],[-81.27,26.8787],[-81.27,26.8556],[-81.2575,26.8386],[-81.2325,26.8279],[-81.2225,26.8097],[-81.2275,26.784],[-81.2417,26.7751],[-81.2651,26.7829],[-81.2766,26.8002],[-81.2764,26.827],[-81.2832,26.8493],[-81.2971,26.8671],[-81.2956,26.8796]],[[-81.2737,26.8121],[-81.2579,26.827],[-81.2417,26.827],[-81.225,26.8121],[-81.225,26.7979],[-81.2417,26.7844],[-81.2579,26.7844],[-81.2737,26.7979],[-81.2737,26.8121]]]}},{"type":"Feature","properties":{"c":"#c8f500","v0":0.2,"v1":0.25},"geometry":{"type":"Polygon","coordinates":[[[-80.951,22.5268],[-80.9237,22.548],[-80.9,22.5527],[-80.8801,22.5407],[-80.8801,22.5236],[-80.9,22.5015],[-80.9237,22.4969],[-80.951,22.5098],[-80.951,22.5268]],[[-80.9527,22.525],[-80.9376,22.5427],[-80.9158,22.5473],[-80.8874,22.5389],[-80.8824,22.5244],[-80.9008,22.5039],[-80.9226,22.4993],[-80.9477,22.5106],[-80.9527,22.525]]]}},{"type":"Feature","properties":{"c":"#c8f500","v0":0.2,"v1":0.25},"geometry":{"type":"Polygon","coordinates":[[[-79.8225,22.3455],[-79.8008,22.3737],[-79.78,22.3865],[-79.76,22.3838],[-79.7438,22.3743],[-79.7314,22.358],[-79.7364,22.3381],[-79.7588,22.3146],[-79.78,22.3032],[-79.8,22.3038],[-79.8158,22.3109],[-79.8275,22.3245],[-79.8225,22.3455]],[[-79.8189,22.3444],[-79.7996,22.3706],[-79.78,22.3823],[-79.76,22.3794],[-79.7451,22.371],[-79.7352,22.3569],[-79.7402,22.339],[-79.7601,22.3175],[-79.7846,22.3128],[-79.8139,22.3252],[-79.8189,22.3444]]]}},{"type":"Feature","properties":{"c":"#c8f500","v0":0.2,"v1":0.25},"geometry":{"type":"Polygon","coordinates":[[[-79.5132,22.2504],[-79.4844,22.2735],[-79.4607,22.2781],[-79.442,22.2642],[-79.442,22.2457],[-79.4607,22.2224],[-79.48,22.2108],[-79.5,22.2107],[-79.5144,22.2177],[-79.5232,22.2318],[-79.5132,22.2504]],[[-79.5135,22.2481],[-79.4978,22.2666],[-79.4773,22.2713],[-79.4518,22.262],[-79.4468,22.2474],[-79.4623,22.2275],[-79.48,22.2173],[-79.5,22.2167],[-79.5128,22.222],[-79.5185,22.2332],[-79.5135,22.2481]]]}},{"type":"Feature","properties":{"c":"#c8f500","v0":0.2,"v1":0.25},"geometry":{"type":"Polygon","coordinates":[[[-78.745,21.9646],[-78.735,21.9722],[-78.7273,21.9722],[-78.7218,21.9646],[-78.7268,21.9608],[-78.7423,21.9608],[-78.745,21.9646]]]}},{"type":"Feature","properties":{"c":"#c8f500","v0":0.25,"v1":0.5},"geometry":{"type":"Polygon","coordinates":[[[-110.0296,46.6948],[-110.0165,46.7095],[-110.0,46.7181],[-109.98,46.7207],[-109.955,46.7162],[-109.925,46.7047],[-109.9034,46.6893],[-109.8902,46.6698],[-109.9002,46.6562],[-109.9334,46.6486],[-109.965,46.6485],[-109.995,46.656],[-110.0165,46.6666],[-110.0296,46.6805],[-110.0296,46.6948]],[[-110.0072,46.6931],[-109.9824,46.7044],[-109.9544,46.7009],[-109.9232,46.6828],[-109.9232,46.6704],[-109.9544,46.6636],[-109.9824,46.667],[-110.0072,46.6807],[-110.0072,46.6931]]]}},{"type":"Feature","properties":{"c":"#c8f500","v0":0.25,"v1":0.5},"geometry":{"type":"Polygon","coordinates":[[[-100.6455,40.5547],[-100.5952,40.5509],[-100.5665,40.5395],[-100.5596,40.5205],[-100.5746,40.505],[-100.6115,40.493],[-100.6402,40.5044],[-100.6605,40.5392],[-100.6455,40.5547]],[[-100.6336,40.531],[-100.6179,40.5408],[-100.6004,40.5408],[-100.5811,40.531],[-100.5811,40.5197],[-100.6004,40.507],[-100.6179,40.507],[-100.6336,40.5197],[-100.6336,40.531]]]}},{"type":"Feature","properties":{"c":"#c8f500","v0":0.25,"v1":0.5},"geometry":{"type":"Polygon","coordinates":[[[-86.9595,40.2706],[-86.9532,40.2774],[-86.9447,40.2774],[-86.9341,40.2706],[-86.9372,40.2672],[-86.9542,40.2672],[-86.9595,40.2706]]]}},{"type":"Feature","properties":{"c":"#c8f500","v0":0.25,"v1":0.5},"geometry":{"type":"Polygon","coordinates":[[[-87.7938,39.9519],[-87.7779,39.9638],[-87.759,39.9638],[-87.7369,39.9519],[-87.7369,39.9398],[-87.759,39.9275],[-87.7779,39.9275],[-87.7938,39.9398],[-87.7938,39.9519]]]}},{"type":"Feature","properties":{"c":"#c8f500","v0":0.25,"v1":0.5},"geometry":{"type":"Polygon","coordinates":[[[-104.8527,39.2001],[-104.8376,39.2194],[-104.8153,39.2271],[-104.7858,39.2233],[-104.7808,39.2094],[-104.8003,39.1854],[-104.8226,39.1776],[-104.8477,39.1861],[-104.8527,39.2001]],[[-104.8294,39.2093],[-104.8165,39.2161],[-104.8048,39.2161],[-104.7945,39.2093],[-104.7995,39.2014],[-104.8198,39.1925],[-104.8315,39.1925],[-104.8344,39.2014],[-104.8294,39.2093]]]}},{"type":"Feature","properties":{"c":"#c8f500","v0":0.25,"v1":0.5},"geometry":{"type":"Polygon","coordinates":[[[-105.1009,38.7157],[-105.0936,38.7307],[-105.08,38.7393],[-105.06,38.7415],[-105.0376,38.7262],[-105.0129,38.6934],[-105.0129,38.6731],[-105.0376,38.6652],[-105.0636,38.673],[-105.0909,38.6965],[-105.1009,38.7157]],[[-105.0616,38.7041],[-105.0405,38.6959],[-105.035,38.6885],[-105.045,38.682],[-105.0555,38.6861],[-105.0666,38.7008],[-105.0616,38.7041]]]}},{"type":"Feature","properties":{"c":"#c8f500","v0":0.25,"v1":0.5},"geometry":{"type":"Polygon","coordinates":[[[-102.0864,38.7273],[-102.0755,38.7342],[-102.067,38.7342],[-102.061,38.7273],[-102.061,38.7207],[-102.067,38.7146],[-102.0755,38.7146],[-102.0864,38.7207],[-102.0864,38.7273]]]}},{"type":"Feature","properties":{"c":"#c8f500","v0":0.25,"v1":0.5},"geometry":{"type":"Polygon","coordinates":[[[-105.6715,38.6252],[-105.6572,38.6466],[-105.639,38.6466],[-105.617,38.6252],[-105.617,38.6055],[-105.639,38.5876],[-105.6572,38.5876],[-105.6715,38.6055],[-105.6715,38.6252]]]}},{"type":"Feature","properties":{"c":"#c8f500","v0":0.25,"v1":0.5},"geometry":{"type":"Polygon","coordinates":[[[-104.9491,37.437],[-104.9364,37.4453],[-104.9252,37.4453],[-104.9156,37.437],[-104.9156,37.4284],[-104.9252,37.4195],[-104.9364,37.4195],[-104.9491,37.4284],[-104.9491,37.437]]]}},{"type":"Feature","properties":{"c":"#c8f500","v0":0.25,"v1":0.5},"geometry":{"type":"Polygon","coordinates":[[[-105.0321,37.3587],[-105.0174,37.3694],[-105.0007,37.3694],[-104.9821,37.3587],[-104.9821,37.3485],[-105.0007,37.3389],[-105.0174,37.3389],[-105.0321,37.3485],[-105.0321,37.3587]]]}},{"type":"Feature","properties":{"c":"#c8f500","v0":0.25,"v1":0.5},"geometry":{"type":"Polygon","coordinates":[[[-91.8582,36.7814],[-91.8261,36.7867],[-91.8017,36.7827],[-91.785,36.7694],[-91.79,36.7558],[-91.8167,36.7419],[-91.8411,36.7459],[-91.8632,36.7678],[-91.8582,36.7814]]]}},{"type":"Feature","properties":{"c":"#c8f500","v0":0.25,"v1":0.5},"geometry":{"type":"Polygon","coordinates":[[[-91.5185,36.664],[-91.4995,36.691],[-91.48,36.707],[-91.46,36.7121],[-91.445,36.7111],[-91.435,36.7039],[-91.4282,36.6919],[-91.4245,36.675],[-91.4345,36.653],[-91.4582,36.6258],[-91.4796,36.6138],[-91.4987,36.6169],[-91.5132,36.6264],[-91.523,36.6425],[-91.5185,36.664]],[[-91.4851,36.671],[-91.475,36.68],[-91.4659,36.68],[-91.4578,36.671],[-91.4628,36.6665],[-91.481,36.6665],[-91.4851,36.671]]]}},{"type":"Feature","properties":{"c":"#c8f500","v0":0.25,"v1":0.5},"geometry":{"type":"Polygon","coordinates":[[[-104.1314,36.6407],[-104.1171,36.6532],[-104.1017,36.6492],[-104.0852,36.6287],[-104.0852,36.6142],[-104.1017,36.6057],[-104.1171,36.6097],[-104.1314,36.6262],[-104.1314,36.6407]]]}},{"type":"Feature","properties":{"c":"#c8f500","v0":0.25,"v1":0.5},"geometry":{"type":"Polygon","coordinates":[[[-104.2302,36.5927],[-104.2167,36.6056],[-104.2044,36.6056],[-104.1932,36.5927],[-104.1932,36.5814],[-104.2044,36.5717],[-104.2167,36.5717],[-104.2302,36.5814],[-104.2302,36.5927]]]}},{"type":"Feature","properties":{"c":"#c8f500","v0":0.25,"v1":0.5},"geometry":{"type":"Polygon","coordinates":[[[-104.8305,36.2696],[-104.8168,36.2799],[-104.7995,36.2799],[-104.7784,36.2696],[-104.7784,36.2569],[-104.7995,36.2418],[-104.8168,36.2418],[-104.8305,36.2569],[-104.8305,36.2696]]]}},{"type":"Feature","properties":{"c":"#c8f500","v0":0.25,"v1":0.5},"geometry":{"type":"Polygon","coordinates":[[[-104.2437,36.2384],[-104.2212,36.2509],[-104.2016,36.2509],[-104.1848,36.2384],[-104.1848,36.2257],[-104.2016,36.2128],[-104.2212,36.2128],[-104.2437,36.2257],[-104.2437,36.2384]]]}},{"type":"Feature","properties":{"c":"#c8f500","v0":0.25,"v1":0.5},"geometry":{"type":"Polygon","coordinates":[[[-92.3271,35.9934],[-92.3157,36.0008],[-92.295,36.0031],[-92.265,36.0002],[-92.2308,35.9844],[-92.1925,35.9556],[-92.1875,35.9326],[-92.2158,35.9153],[-92.2557,35.9274],[-92.3071,35.969],[-92.3271,35.9934]],[[-92.2339,35.9453],[-92.2313,35.9536],[-92.2247,35.9536],[-92.2142,35.9453],[-92.2155,35.9412],[-92.2286,35.9412],[-92.2339,35.9453]]]}},{"type":"Feature","properties":{"c":"#c8f500","v0":0.25,"v1":0.5},"geometry":{"type":"Polygon","coordinates":[[[-92.1296,35.9129],[-92.1254,35.921],[-92.1049,35.9241],[-92.0683,35.9224],[-92.0483,35.9103],[-92.045,35.8877],[-92.055,35.8711],[-92.0783,35.8605],[-92.1004,35.8686],[-92.1213,35.8954],[-92.1296,35.9129]]]}},{"type":"Feature","properties":{"c":"#c8f500","v0":0.25,"v1":0.5},"geometry":{"type":"Polygon","coordinates":[[[-93.974,35.7267],[-93.918,35.7518],[-93.875,35.7559],[-93.8451,35.7389],[-93.8351,35.7199],[-93.845,35.6988],[-93.865,35.6828],[-93.895,35.672],[-93.9273,35.6704],[-93.9619,35.6779],[-93.9849,35.6898],[-93.9963,35.706],[-93.974,35.7267]],[[-93.956,35.7231],[-93.9253,35.7408],[-93.895,35.7449],[-93.8651,35.7352],[-93.8534,35.7223],[-93.8599,35.706],[-93.8748,35.6927],[-93.8983,35.6821],[-93.92,35.6789],[-93.94,35.6829],[-93.9553,35.6923],[-93.966,35.7069],[-93.956,35.7231]]]}},{"type":"Feature","properties":{"c":"#c8f500","v0":0.25,"v1":0.5},"geometry":{"type":"Polygon","coordinates":[[[-95.1113,35.7101],[-95.0978,35.7345],[-95.0858,35.7458],[-95.0753,35.744],[-95.065,35.7239],[-95.055,35.6853],[-95.035,35.6579],[-95.005,35.6416],[-94.9909,35.6292],[-94.9928,35.6209],[-95.0028,35.6155],[-95.0209,35.6132],[-95.052,35.6335],[-95.096,35.6765],[-95.1113,35.7101]]]}},{"type":"Feature","properties":{"c":"#c8f500","v0":0.25,"v1":0.5},"geometry":{"type":"Polygon","coordinates":[[[-93.4529,35.6397],[-93.4376,35.6531],[-93.42,35.6572],[-93.4,35.6518],[-93.395,35.6403],[-93.405,35.6226],[-93.4226,35.6185],[-93.4479,35.6281],[-93.4529,35.6397]]]}},{"type":"Feature","properties":{"c":"#c8f500","v0":0.25,"v1":0.5},"geometry":{"type":"Polygon","coordinates":[[[-92.0619,35.6224],[-92.0406,35.6338],[-92.0235,35.6338],[-92.0105,35.6224],[-92.0105,35.611],[-92.0235,35.5997],[-92.0406,35.5997],[-92.0619,35.611],[-92.0619,35.6224]]]}},{"type":"Feature","properties":{"c":"#c8f500","v0":0.25,"v1":0.5},"geometry":{"type":"Polygon","coordinates":[[[-105.1518,35.4223],[-105.1373,35.4243],[-105.1206,35.4121],[-105.1017,35.3856],[-105.1025,35.3724],[-105.123,35.3724],[-105.1397,35.3846],[-105.1526,35.4091],[-105.1518,35.4223]]]}},{"type":"Feature","properties":{"c":"#c8f500","v0":0.25,"v1":0.5},"geometry":{"type":"Polygon","coordinates":[[[-92.2641,35.1824],[-92.2547,35.1943],[-92.2372,35.1943],[-92.2115,35.1824],[-92.2065,35.1704],[-92.2222,35.1584],[-92.2397,35.1584],[-92.2591,35.1704],[-92.2641,35.1824]]]}},{"type":"Feature","properties":{"c":"#c8f500","v0":0.25,"v1":0.5},"geometry":{"type":"Polygon","coordinates":[[[-91.8131,34.8596],[-91.7844,34.8812],[-91.7584,34.8812],[-91.7353,34.8596],[-91.7353,34.8401],[-91.7584,34.8226],[-91.7844,34.8226],[-91.8131,34.8401],[-91.8131,34.8596]],[[-91.7949,34.8541],[-91.7783,34.8647],[-91.7668,34.8647],[-91.7605,34.8541],[-91.7655,34.8451],[-91.7818,34.8376],[-91.7933,34.8376],[-91.7999,34.8451],[-91.7949,34.8541]]]}},{"type":"Feature","properties":{"c":"#c8f500","v0":0.25,"v1":0.5},"geometry":{"type":"Polygon","coordinates":[[[-94.8422,34.529],[-94.8207,34.5473],[-94.7987,34.5473],[-94.7761,34.529],[-94.7761,34.513],[-94.7987,34.4994],[-94.8207,34.4994],[-94.8422,34.513],[-94.8422,34.529]],[[-94.8281,34.5253],[-94.816,34.536],[-94.8035,34.536],[-94.7906,34.5253],[-94.7906,34.5165],[-94.8035,34.5099],[-94.816,34.5099],[-94.8281,34.5165],[-94.8281,34.5253]]]}},{"type":"Feature","properties":{"c":"#c8f500","v0":0.25,"v1":0.5},"geometry":{"type":"Polygon","coordinates":[[[-87.9153,33.8316],[-87.8984,33.8452],[-87.879,33.8452],[-87.8569,33.8316],[-87.8569,33.8165],[-87.879,33.7999],[-87.8984,33.7999],[-87.9153,33.8165],[-87.9153,33.8316]],[[-87.8957,33.8248],[-87.8763,33.8248],[-87.8725,33.82],[-87.8842,33.8105],[-87.8938,33.8105],[-87.9015,33.82],[-87.8957,33.8248]]]}},{"type":"Feature","properties":{"c":"#c8f500","v0":0.25,"v1":0.5},"geometry":{"type":"Polygon","coordinates":[[[-89.0492,33.7865],[-89.0097,33.8096],[-88.975,33.818],[-88.945,33.8118],[-88.9284,33.8044],[-88.9253,33.7959],[-88.9403,33.7767],[-88.9734,33.7468],[-89.0045,33.7344],[-89.0335,33.7393],[-89.0532,33.75],[-89.0637,33.7667],[-89.0492,33.7865]],[[-89.0423,33.7819],[-89.0208,33.7956],[-88.9972,33.7998],[-88.9715,33.7943],[-88.9609,33.7833],[-88.9652,33.7667],[-88.978,33.7541],[-88.9993,33.7455],[-89.0208,33.7497],[-89.0423,33.7665],[-89.0423,33.7819]]]}},{"type":"Feature","properties":{"c":"#c8f500","v0":0.25,"v1":0.5},"geometry":{"type":"Polygon","coordinates":[[[-89.3451,33.7822],[-89.3217,33.7967],[-89.2995,33.7926],[-89.2785,33.7697],[-89.2785,33.7531],[-89.2995,33.7426],[-89.3217,33.7468],[-89.3451,33.7656],[-89.3451,33.7822]]]}},{"type":"Feature","properties":{"c":"#c8f500","v0":0.25,"v1":0.5},"geometry":{"type":"Polygon","coordinates":[[[-89.4022,33.6802],[-89.3807,33.6904],[-89.3625,33.6862],[-89.3475,33.6678],[-89.3525,33.6544],[-89.3775,33.6463],[-89.3957,33.6504],[-89.4072,33.6669],[-89.4022,33.6802]]]}},{"type":"Feature","properties":{"c":"#c8f500","v0":0.25,"v1":0.5},"geometry":{"type":"Polygon","coordinates":[[[-89.4607,33.4626],[-89.4536,33.4707],[-89.445,33.4707],[-89.4349,33.4626],[-89.4349,33.4542],[-89.445,33.4457],[-89.4536,33.4457],[-89.4607,33.4542],[-89.4607,33.4626]]]}},{"type":"Feature","properties":{"c":"#c8f500","v0":0.25,"v1":0.5},"geometry":{"type":"Polygon","coordinates":[[[-90.4568,29.4023],[-90.437,29.411],[-90.4295,29.4067],[-90.4344,29.3893],[-90.4443,29.3849],[-90.4592,29.3936],[-90.4568,29.4023]]]}},{"type":"Feature","properties":{"c":"#c8f500","v0":0.25,"v1":0.5},"geometry":{"type":"Polygon","coordinates":[[[-81.2549,28.8639],[-81.225,28.8791],[-81.198,28.8703],[-81.174,28.8376],[-81.184,28.8221],[-81.228,28.8236],[-81.255,28.8323],[-81.2649,28.8483],[-81.2549,28.8639]],[[-81.2454,28.8606],[-81.2351,28.8692],[-81.2224,28.8692],[-81.2071,28.8606],[-81.2071,28.8511],[-81.2224,28.8406],[-81.2351,28.8406],[-81.2454,28.8511],[-81.2454,28.8606]]]}},{"type":"Feature","properties":{"c":"#c8f500","v0":0.25,"v1":0.5},"geometry":{"type":"Polygon","coordinates":[[[-81.8018,28.5094],[-81.7806,28.5176],[-81.7606,28.5176],[-81.7419,28.5094],[-81.7469,28.4977],[-81.7756,28.4824],[-81.7956,28.4824],[-81.8068,28.4977],[-81.8018,28.5094]]]}},{"type":"Feature","properties":{"c":"#c8f500","v0":0.25,"v1":0.5},"geometry":{"type":"Polygon","coordinates":[[[-81.316,27.8212],[-81.312,27.8283],[-81.3041,27.8283],[-81.2924,27.8212],[-81.2924,27.8137],[-81.3041,27.8058],[-81.312,27.8058],[-81.316,27.8137],[-81.316,27.8212]]]}},{"type":"Feature","properties":{"c":"#c8f500","v0":0.25,"v1":0.5},"geometry":{"type":"Polygon","coordinates":[[[-81.2737,26.8121],[-81.2579,26.827],[-81.2417,26.827],[-81.225,26.8121],[-81.225,26.7979],[-81.2417,26.7844],[-81.2579,26.7844],[-81.2737,26.7979],[-81.2737,26.8121]]]}},{"type":"Feature","properties":{"c":"#c8f500","v0":0.25,"v1":0.5},"geometry":{"type":"Polygon","coordinates":[[[-80.9527,22.525],[-80.9376,22.5427],[-80.9158,22.5473],[-80.8874,22.5389],[-80.8824,22.5244],[-80.9008,22.5039],[-80.9226,22.4993],[-80.9477,22.5106],[-80.9527,22.525]],[[-80.937,22.5217],[-80.9323,22.5328],[-80.9196,22.5374],[-80.8988,22.5356],[-80.8938,22.5276],[-80.9046,22.5134],[-80.9173,22.5088],[-80.932,22.5137],[-80.937,22.5217]]]}},{"type":"Feature","properties":{"c":"#c8f500","v0":0.25,"v1":0.5},"geometry":{"type":"Polygon","coordinates":[[[-79.8189,22.3444],[-79.7996,22.3706],[-79.78,22.3823],[-79.76,22.3794],[-79.7451,22.371],[-79.7352,22.3569],[-79.7402,22.339],[-79.7601,22.3175],[-79.7846,22.3128],[-79.8139,22.3252],[-79.8189,22.3444]],[[-79.8018,22.3392],[-79.7939,22.3549],[-79.781,22.3595],[-79.7629,22.3531],[-79.7579,22.344],[-79.766,22.3322],[-79.7789,22.3276],[-79.7968,22.3301],[-79.8018,22.3392]]]}},{"type":"Feature","properties":{"c":"#c8f500","v0":0.25,"v1":0.5},"geometry":{"type":"Polygon","coordinates":[[[-79.5135,22.2481],[-79.4978,22.2666],[-79.4773,22.2713],[-79.4518,22.262],[-79.4468,22.2474],[-79.4623,22.2275],[-79.48,22.2173],[-79.5,22.2167],[-79.5128,22.222],[-79.5185,22.2332],[-79.5135,22.2481]]]}},{"type":"Feature","properties":{"c":"#ffff00","v0":0.5,"v1":0.75},"geometry":{"type":"Polygon","coordinates":[[[-110.0072,46.6931],[-109.9824,46.7044],[-109.9544,46.7009],[-109.9232,46.6828],[-109.9232,46.6704],[-109.9544,46.6636],[-109.9824,46.667],[-110.0072,46.6807],[-110.0072,46.6931]],[[-109.9982,46.6905],[-109.9927,46.6965],[-109.9793,46.6965],[-109.9578,46.6905],[-109.9528,46.6838],[-109.9643,46.6763],[-109.9777,46.6763],[-109.9932,46.6838],[-109.9982,46.6905]]]}},{"type":"Feature","properties":{"c":"#ffff00","v0":0.5,"v1":0.75},"geometry":{"type":"Polygon","coordinates":[[[-100.6336,40.531],[-100.6179,40.5408],[-100.6004,40.5408],[-100.5811,40.531],[-100.5811,40.5197],[-100.6004,40.507],[-100.6179,40.507],[-100.6336,40.5197],[-100.6336,40.531]]]}},{"type":"Feature","properties":{"c":"#ffff00","v0":0.5,"v1":0.75},"geometry":{"type":"Polygon","coordinates":[[[-104.8294,39.2093],[-104.8165,39.2161],[-104.8048,39.2161],[-104.7945,39.2093],[-104.7995,39.2014],[-104.8198,39.1925],[-104.8315,39.1925],[-104.8344,39.2014],[-104.8294,39.2093]]]}},{"type":"Feature","properties":{"c":"#ffff00","v0":0.5,"v1":0.75},"geometry":{"type":"Polygon","coordinates":[[[-105.0616,38.7041],[-105.0405,38.6959],[-105.035,38.6885],[-105.045,38.682],[-105.0555,38.6861],[-105.0666,38.7008],[-105.0616,38.7041]]]}},{"type":"Feature","properties":{"c":"#ffff00","v0":0.5,"v1":0.75},"geometry":{"type":"Polygon","coordinates":[[[-91.4851,36.671],[-91.475,36.68],[-91.4659,36.68],[-91.4578,36.671],[-91.4628,36.6665],[-91.481,36.6665],[-91.4851,36.671]]]}},{"type":"Feature","properties":{"c":"#ffff00","v0":0.5,"v1":0.75},"geometry":{"type":"Polygon","coordinates":[[[-92.2339,35.9453],[-92.2313,35.9536],[-92.2247,35.9536],[-92.2142,35.9453],[-92.2155,35.9412],[-92.2286,35.9412],[-92.2339,35.9453]]]}},{"type":"Feature","properties":{"c":"#ffff00","v0":0.5,"v1":0.75},"geometry":{"type":"Polygon","coordinates":[[[-93.956,35.7231],[-93.9253,35.7408],[-93.895,35.7449],[-93.8651,35.7352],[-93.8534,35.7223],[-93.8599,35.706],[-93.8748,35.6927],[-93.8983,35.6821],[-93.92,35.6789],[-93.94,35.6829],[-93.9553,35.6923],[-93.966,35.7069],[-93.956,35.7231]],[[-93.9413,35.7205],[-93.9204,35.7332],[-93.9003,35.7373],[-93.881,35.7327],[-93.881,35.7196],[-93.9003,35.6981],[-93.9204,35.694],[-93.9413,35.7075],[-93.9413,35.7205]]]}},{"type":"Feature","properties":{"c":"#ffff00","v0":0.5,"v1":0.75},"geometry":{"type":"Polygon","coordinates":[[[-91.7949,34.8541],[-91.7783,34.8647],[-91.7668,34.8647],[-91.7605,34.8541],[-91.7655,34.8451],[-91.7818,34.8376],[-91.7933,34.8376],[-91.7999,34.8451],[-91.7949,34.8541]]]}},{"type":"Feature","properties":{"c":"#ffff00","v0":0.5,"v1":0.75},"geometry":{"type":"Polygon","coordinates":[[[-94.8281,34.5253],[-94.816,34.536],[-94.8035,34.536],[-94.7906,34.5253],[-94.7906,34.5165],[-94.8035,34.5099],[-94.816,34.5099],[-94.8281,34.5165],[-94.8281,34.5253]]]}},{"type":"Feature","properties":{"c":"#ffff00","v0":0.5,"v1":0.75},"geometry":{"type":"Polygon","coordinates":[[[-87.8957,33.8248],[-87.8763,33.8248],[-87.8725,33.82],[-87.8842,33.8105],[-87.8938,33.8105],[-87.9015,33.82],[-87.8957,33.8248]]]}},{"type":"Feature","properties":{"c":"#ffff00","v0":0.5,"v1":0.75},"geometry":{"type":"Polygon","coordinates":[[[-89.0423,33.7819],[-89.0208,33.7956],[-88.9972,33.7998],[-88.9715,33.7943],[-88.9609,33.7833],[-88.9652,33.7667],[-88.978,33.7541],[-88.9993,33.7455],[-89.0208,33.7497],[-89.0423,33.7665],[-89.0423,33.7819]],[[-89.0302,33.7786],[-89.0167,33.7858],[-89.003,33.7858],[-88.9891,33.7786],[-88.9891,33.7694],[-89.003,33.7583],[-89.0167,33.7583],[-89.0302,33.7694],[-89.0302,33.7786]]]}},{"type":"Feature","properties":{"c":"#ffff00","v0":0.5,"v1":0.75},"geometry":{"type":"Polygon","coordinates":[[[-81.2454,28.8606],[-81.2351,28.8692],[-81.2224,28.8692],[-81.2071,28.8606],[-81.2071,28.8511],[-81.2224,28.8406],[-81.2351,28.8406],[-81.2454,28.8511],[-81.2454,28.8606]]]}},{"type":"Feature","properties":{"c":"#ffff00","v0":0.5,"v1":0.75},"geometry":{"type":"Polygon","coordinates":[[[-80.937,22.5217],[-80.9323,22.5328],[-80.9196,22.5374],[-80.8988,22.5356],[-80.8938,22.5276],[-80.9046,22.5134],[-80.9173,22.5088],[-80.932,22.5137],[-80.937,22.5217]]]}},{"type":"Feature","properties":{"c":"#ffff00","v0":0.5,"v1":0.75},"geometry":{"type":"Polygon","coordinates":[[[-79.8018,22.3392],[-79.7939,22.3549],[-79.781,22.3595],[-79.7629,22.3531],[-79.7579,22.344],[-79.766,22.3322],[-79.7789,22.3276],[-79.7968,22.3301],[-79.8018,22.3392]]]}},{"type":"Feature","properties":{"c":"#ffd700","v0":0.75,"v1":1.0},"geometry":{"type":"Polygon","coordinates":[[[-109.9982,46.6905],[-109.9927,46.6965],[-109.9793,46.6965],[-109.9578,46.6905],[-109.9528,46.6838],[-109.9643,46.6763],[-109.9777,46.6763],[-109.9932,46.6838],[-109.9982,46.6905]]]}},{"type":"Feature","properties":{"c":"#ffd700","v0":0.75,"v1":1.0},"geometry":{"type":"Polygon","coordinates":[[[-93.9413,35.7205],[-93.9204,35.7332],[-93.9003,35.7373],[-93.881,35.7327],[-93.881,35.7196],[-93.9003,35.6981],[-93.9204,35.694],[-93.9413,35.7075],[-93.9413,35.7205]],[[-93.9285,35.7179],[-93.9162,35.7254],[-93.9052,35.7254],[-93.8955,35.7179],[-93.8955,35.7101],[-93.9052,35.7021],[-93.9162,35.7021],[-93.9285,35.7101],[-93.9285,35.7179]]]}},{"type":"Feature","properties":{"c":"#ffd700","v0":0.75,"v1":1.0},"geometry":{"type":"Polygon","coordinates":[[[-89.0302,33.7786],[-89.0167,33.7858],[-89.003,33.7858],[-88.9891,33.7786],[-88.9891,33.7694],[-89.003,33.7583],[-89.0167,33.7583],[-89.0302,33.7694],[-89.0302,33.7786]]]}},{"type":"Feature","properties":{"c":"#ff8c00","v0":1.0,"v1":1.5},"geometry":{"type":"Polygon","coordinates":[[[-93.9285,35.7179],[-93.9162,35.7254],[-93.9052,35.7254],[-93.8955,35.7179],[-93.8955,35.7101],[-93.9052,35.7021],[-93.9162,35.7021],[-93.9285,35.7101],[-93.9285,35.7179]]]}}]}