{"type":"FeatureCollection","features":[{"type":"Feature","properties":{"c":"#c8f500","v0":0.2,"v1":0.25},"geometry":{"type":"Polygon","coordinates":[[[-94.9822,43.7759],[-94.9607,43.7827],[-94.9425,43.7791],[-94.9275,43.7651],[-94.9275,43.7556],[-94.9425,43.7507],[-94.9607,43.7543],[-94.9822,43.7665],[-94.9822,43.7759]],[[-94.9758,43.7751],[-94.9586,43.7801],[-94.9438,43.7765],[-94.9314,43.7642],[-94.9314,43.7564],[-94.9438,43.753],[-94.9586,43.7566],[-94.9758,43.7673],[-94.9758,43.7751]]]}},{"type":"Feature","properties":{"c":"#c8f500","v0":0.2,"v1":0.25},"geometry":{"type":"Polygon","coordinates":[[[-80.0117,40.6076],[-79.9839,40.6187],[-79.9593,40.6225],[-79.9379,40.619],[-79.9429,40.6078],[-79.9743,40.5889],[-79.9989,40.5851],[-80.0167,40.5964],[-80.0117,40.6076]],[[-79.9998,40.6059],[-79.9571,40.6135],[-79.9493,40.6086],[-79.9764,40.5912],[-79.9978,40.5874],[-80.0134,40.5972],[-79.9998,40.6059]]]}},{"type":"Feature","properties":{"c":"#c8f500","v0":0.2,"v1":0.25},"geometry":{"type":"Polygon","coordinates":[[[-94.8619,39.4542],[-94.8406,39.4558],[-94.8297,39.4519],[-94.829,39.4426],[-94.839,39.4375],[-94.8597,39.4366],[-94.8706,39.4404],[-94.8719,39.4491],[-94.8619,39.4542]],[[-94.8566,39.4534],[-94.842,39.4534],[-94.8357,39.4496],[-94.8375,39.4419],[-94.8448,39.4419],[-94.8575,39.4496],[-94.8566,39.4534]]]}},{"type":"Feature","properties":{"c":"#c8f500","v0":0.2,"v1":0.25},"geometry":{"type":"Polygon","coordinates":[[[-100.0887,38.0047],[-100.0762,38.0094],[-100.0672,38.0054],[-100.0615,37.9929],[-100.0677,37.9906],[-100.0859,37.9984],[-100.0887,38.0047]]]}},{"type":"Feature","properties":{"c":"#c8f500","v0":0.2,"v1":0.25},"geometry":{"type":"Polygon","coordinates":[[[-99.1734,37.0455],[-99.1311,37.0671],[-99.1,37.0733],[-99.08,37.0641],[-99.055,37.0629],[-99.025,37.0697],[-99.0,37.0642],[-98.98,37.0463],[-98.9487,37.0407],[-98.9062,37.0473],[-98.9018,37.0307],[-98.9357,36.9908],[-98.972,36.9658],[-99.0107,36.9558],[-99.045,36.9704],[-99.075,37.0095],[-99.11,37.0233],[-99.15,37.0118],[-99.1761,37.0132],[-99.1884,37.0275],[-99.1734,37.0455]],[[-99.1663,37.0437],[-99.1288,37.0618],[-99.105,37.0663],[-99.095,37.0574],[-99.07,37.0564],[-99.03,37.0635],[-99.0,37.0582],[-98.98,37.0405],[-98.955,37.0367],[-98.925,37.0468],[-98.9058,37.0476],[-98.8975,37.039],[-98.9102,37.0187],[-98.944,36.9868],[-98.9781,36.9668],[-99.0127,36.9588],[-99.0369,36.9588],[-99.0508,36.9668],[-99.0658,36.9894],[-99.0819,37.0266],[-99.105,37.0367],[-99.135,37.0195],[-99.1588,37.0169],[-99.1763,37.0287],[-99.1663,37.0437]]]}},{"type":"Feature","properties":{"c":"#c8f500","v0":0.25,"v1":0.5},"geometry":{"type":"Polygon","coordinates":[[[-94.9758,43.7751],[-94.9586,43.7801],[-94.9438,43.7765],[-94.9314,43.7642],[-94.9314,43.7564],[-94.9438,43.753],[-94.9586,43.7566],[-94.9758,43.7673],[-94.9758,43.7751]]]}},{"type":"Feature","properties":{"c":"#c8f500","v0":0.25,"v1":0.5},"geometry":{"type":"Polygon","coordinates":[[[-79.9998,40.6059],[-79.9571,40.6135],[-79.9493,40.6086],[-79.9764,40.5912],[-79.9978,40.5874],[-80.0134,40.5972],[-79.9998,40.6059]]]}},{"type":"Feature","properties":{"c":"#c8f500","v0":0.25,"v1":0.5},"geometry":{"type":"Polygon","coordinates":[[[-94.8566,39.4534],[-94.842,39.4534],[-94.8357,39.4496],[-94.8375,39.4419],[-94.8448,39.4419],[-94.8575,39.4496],[-94.8566,39.4534]]]}},{"type":"Feature","properties":{"c":"#c8f500","v0":0.25,"v1":0.5},"geometry":{"type":"Polygon","coordinates":[[[-99.1663,37.0437],[-99.1288,37.0618],[-99.105,37.0663],[-99.095,37.0574],[-99.07,37.0564],[-99.03,37.0635],[-99.0,37.0582],[-98.98,37.0405],[-98.955,37.0367],[-98.925,37.0468],[-98.9058,37.0476],[-98.8975,37.039],[-98.9102,37.0187],[-98.944,36.9868],[-98.9781,36.9668],[-99.0127,36.9588],[-99.0369,36.9588],[-99.0508,36.9668],[-99.0658,36.9894],[-99.0819,37.0266],[-99.105,37.0367],[-99.135,37.0195],[-99.1588,37.0169],[-99.1763,37.0287],[-99.1663,37.0437]],[[-99.0463,37.0247],[-99.0354,37.0367],[-99.025,37.0407],[-99.015,37.0368],[-99.0012,37.0228],[-98.9835,36.9988],[-98.9885,36.9832],[-99.0162,36.9761],[-99.0354,36.9841],[-99.0463,37.0072],[-99.0463,37.0247]]]}},{"type":"Feature","properties":{"c":"#ffff00","v0":0.5,"v1":0.75},"geometry":{"type":"Polygon","coordinates":[[[-99.0463,37.0247],[-99.0354,37.0367],[-99.025,37.0407],[-99.015,37.0368],[-99.0012,37.0228],[-98.9835,36.9988],[-98.9885,36.9832],[-99.0162,36.9761],[-99.0354,36.9841],[-99.0463,37.0072],[-99.0463,37.0247]]]}}]}