{"type":"FeatureCollection","features":[{"type":"Feature","properties":{"c":"#c8f500","v0":0.2,"v1":0.25},"geometry":{"type":"Polygon","coordinates":[[[-114.7987,52.6128],[-114.7929,52.6207],[-114.7823,52.6237],[-114.7668,52.6219],[-114.7618,52.6157],[-114.7673,52.605],[-114.7779,52.602],[-114.7937,52.6066],[-114.7987,52.6128]],[[-114.7875,52.612],[-114.7745,52.618],[-114.7685,52.6172],[-114.7695,52.6094],[-114.776,52.6064],[-114.788,52.6081],[-114.7875,52.612]]]}},{"type":"Feature","properties":{"c":"#c8f500","v0":0.2,"v1":0.25},"geometry":{"type":"Polygon","coordinates":[[[-112.9005,50.8121],[-112.8899,50.8374],[-112.876,50.8527],[-112.8587,50.858],[-112.8435,50.8548],[-112.8304,50.8432],[-112.8254,50.8273],[-112.8285,50.807],[-112.845,50.7922],[-112.875,50.7829],[-112.8939,50.7836],[-112.9018,50.7942],[-112.9005,50.8121]],[[-112.894,50.8121],[-112.8827,50.8374],[-112.8703,50.8515],[-112.8568,50.8543],[-112.8448,50.8512],[-112.8345,50.842],[-112.8306,50.8279],[-112.833,50.809],[-112.8431,50.7953],[-112.861,50.7868],[-112.8774,50.7868],[-112.8922,50.7953],[-112.894,50.8121]]]}},{"type":"Feature","properties":{"c":"#c8f500","v0":0.2,"v1":0.25},"geometry":{"type":"Polygon","coordinates":[[[-102.9932,43.9688],[-102.9777,43.9864],[-102.96,43.9972],[-102.94,44.0012],[-102.9226,43.9996],[-102.9079,43.9924],[-102.9079,43.9753],[-102.9226,43.9484],[-102.94,43.9348],[-102.96,43.9346],[-102.9777,43.9409],[-102.9932,43.9536],[-102.9932,43.9688]],[[-102.99,43.9679],[-102.9767,43.9837],[-102.9545,43.9909],[-102.9236,43.9895],[-102.9136,43.9761],[-102.9245,43.9507],[-102.94,43.9378],[-102.96,43.9374],[-102.9767,43.9429],[-102.99,43.9543],[-102.99,43.9679]]]}},{"type":"Feature","properties":{"c":"#c8f500","v0":0.2,"v1":0.25},"geometry":{"type":"Polygon","coordinates":[[[-102.8893,43.9045],[-102.8764,43.9088],[-102.8672,43.9052],[-102.8617,43.8937],[-102.8667,43.8875],[-102.8822,43.8866],[-102.8914,43.8903],[-102.8943,43.8984],[-102.8893,43.9045]]]}},{"type":"Feature","properties":{"c":"#c8f500","v0":0.2,"v1":0.25},"geometry":{"type":"Polygon","coordinates":[[[-102.7129,43.759],[-102.6976,43.7607],[-102.6799,43.7535],[-102.6596,43.7373],[-102.6596,43.7272],[-102.6799,43.7233],[-102.6976,43.7305],[-102.7129,43.7489],[-102.7129,43.759]],[[-102.6972,43.7509],[-102.6709,43.7364],[-102.6658,43.7283],[-102.6819,43.7266],[-102.6951,43.7338],[-102.7053,43.75],[-102.6972,43.7509]]]}},{"type":"Feature","properties":{"c":"#c8f500","v0":0.2,"v1":0.25},"geometry":{"type":"Polygon","coordinates":[[[-83.9636,41.9661],[-83.9412,41.9887],[-83.93,41.9903],[-83.93,41.9708],[-83.9412,41.9595],[-83.9636,41.9564],[-83.9636,41.9661]],[[-83.9572,41.9733],[-83.9524,41.9805],[-83.9456,41.9805],[-83.9369,41.9733],[-83.9369,41.9669],[-83.9456,41.9613],[-83.9524,41.9613],[-83.9572,41.9669],[-83.9572,41.9733]]]}},{"type":"Feature","properties":{"c":"#c8f500","v0":0.2,"v1":0.25},"geometry":{"type":"Polygon","coordinates":[[[-84.5518,41.8437],[-84.5373,41.8596],[-84.5235,41.8559],[-84.5106,41.8325],[-84.5106,41.8164],[-84.5235,41.8077],[-84.5373,41.8114],[-84.5518,41.8276],[-84.5518,41.8437]],[[-84.548,41.8421],[-84.536,41.8548],[-84.5249,41.851],[-84.5148,41.8309],[-84.5148,41.8177],[-84.5249,41.8116],[-84.536,41.8153],[-84.548,41.8289],[-84.548,41.8421]]]}},{"type":"Feature","properties":{"c":"#c8f500","v0":0.2,"v1":0.25},"geometry":{"type":"Polygon","coordinates":[[[-94.8695,38.7797],[-94.8565,38.798],[-94.8387,38.8058],[-94.816,38.8031],[-94.806,38.7936],[-94.8087,38.7772],[-94.8265,38.7694],[-94.8595,38.7702],[-94.8695,38.7797]],[[-94.8641,38.7787],[-94.8547,38.795],[-94.84,38.8021],[-94.82,38.8001],[-94.8113,38.7919],[-94.8138,38.7777],[-94.8285,38.7706],[-94.8554,38.7706],[-94.8641,38.7787]]]}},{"type":"Feature","properties":{"c":"#c8f500","v0":0.25,"v1":0.5},"geometry":{"type":"Polygon","coordinates":[[[-114.7875,52.612],[-114.7745,52.618],[-114.7685,52.6172],[-114.7695,52.6094],[-114.776,52.6064],[-114.788,52.6081],[-114.7875,52.612]]]}},{"type":"Feature","properties":{"c":"#c8f500","v0":0.25,"v1":0.5},"geometry":{"type":"Polygon","coordinates":[[[-112.894,50.8121],[-112.8827,50.8374],[-112.8703,50.8515],[-112.8568,50.8543],[-112.8448,50.8512],[-112.8345,50.842],[-112.8306,50.8279],[-112.833,50.809],[-112.8431,50.7953],[-112.861,50.7868],[-112.8774,50.7868],[-112.8922,50.7953],[-112.894,50.8121]]]}},{"type":"Feature","properties":{"c":"#c8f500","v0":0.25,"v1":0.5},"geometry":{"type":"Polygon","coordinates":[[[-102.99,43.9679],[-102.9767,43.9837],[-102.9545,43.9909],[-102.9236,43.9895],[-102.9136,43.9761],[-102.9245,43.9507],[-102.94,43.9378],[-102.96,43.9374],[-102.9767,43.9429],[-102.99,43.9543],[-102.99,43.9679]],[[-102.9685,43.9639],[-102.9562,43.9717],[-102.946,43.9717],[-102.938,43.9639],[-102.938,43.9568],[-102.946,43.9504],[-102.9562,43.9504],[-102.9685,43.9568],[-102.9685,43.9639]]]}},{"type":"Feature","properties":{"c":"#c8f500","v0":0.25,"v1":0.5},"geometry":{"type":"Polygon","coordinates":[[[-102.6972,43.7509],[-102.6709,43.7364],[-102.6658,43.7283],[-102.6819,43.7266],[-102.6951,43.7338],[-102.7053,43.75],[-102.6972,43.7509]]]}},{"type":"Feature","properties":{"c":"#c8f500","v0":0.25,"v1":0.5},"geometry":{"type":"Polygon","coordinates":[[[-83.9572,41.9733],[-83.9524,41.9805],[-83.9456,41.9805],[-83.9369,41.9733],[-83.9369,41.9669],[-83.9456,41.9613],[-83.9524,41.9613],[-83.9572,41.9669],[-83.9572,41.9733]]]}},{"type":"Feature","properties":{"c":"#c8f500","v0":0.25,"v1":0.5},"geometry":{"type":"Polygon","coordinates":[[[-84.548,41.8421],[-84.536,41.8548],[-84.5249,41.851],[-84.5148,41.8309],[-84.5148,41.8177],[-84.5249,41.8116],[-84.536,41.8153],[-84.548,41.8289],[-84.548,41.8421]]]}},{"type":"Feature","properties":{"c":"#c8f500","v0":0.25,"v1":0.5},"geometry":{"type":"Polygon","coordinates":[[[-94.8641,38.7787],[-94.8547,38.795],[-94.84,38.8021],[-94.82,38.8001],[-94.8113,38.7919],[-94.8138,38.7777],[-94.8285,38.7706],[-94.8554,38.7706],[-94.8641,38.7787]]]}},{"type":"Feature","properties":{"c":"#ffff00","v0":0.5,"v1":0.75},"geometry":{"type":"Polygon","coordinates":[[[-102.9685,43.9639],[-102.9562,43.9717],[-102.946,43.9717],[-102.938,43.9639],[-102.938,43.9568],[-102.946,43.9504],[-102.9562,43.9504],[-102.9685,43.9568],[-102.9685,43.9639]]]}}]}