{"type":"FeatureCollection","features":[{"type":"Feature","properties":{"c":"#c8f500","v0":0.2,"v1":0.25},"geometry":{"type":"Polygon","coordinates":[[[-88.0411,43.008],[-88.0337,43.0195],[-88.0248,43.0195],[-88.0143,43.008],[-88.0143,42.9993],[-88.0248,42.9935],[-88.0337,42.9935],[-88.0411,42.9993],[-88.0411,43.008]]]}},{"type":"Feature","properties":{"c":"#c8f500","v0":0.2,"v1":0.25},"geometry":{"type":"Polygon","coordinates":[[[-87.8766,42.7324],[-87.8589,42.7498],[-87.8349,42.7498],[-87.8047,42.7324],[-87.8047,42.7182],[-87.8349,42.7072],[-87.8589,42.7072],[-87.8766,42.7182],[-87.8766,42.7324]],[[-87.8731,42.7315],[-87.8577,42.7472],[-87.8367,42.7472],[-87.81,42.7315],[-87.81,42.719],[-87.8367,42.7097],[-87.8577,42.7097],[-87.8731,42.719],[-87.8731,42.7315]]]}},{"type":"Feature","properties":{"c":"#c8f500","v0":0.2,"v1":0.25},"geometry":{"type":"Polygon","coordinates":[[[-88.3824,42.6666],[-88.3741,42.6702],[-88.3645,42.6665],[-88.3536,42.6556],[-88.3578,42.6538],[-88.3769,42.6611],[-88.3824,42.6666]]]}},{"type":"Feature","properties":{"c":"#c8f500","v0":0.2,"v1":0.25},"geometry":{"type":"Polygon","coordinates":[[[-87.333,42.4274],[-87.3177,42.4535],[-87.295,42.4696],[-87.265,42.4758],[-87.23,42.4731],[-87.19,42.4615],[-87.1624,42.4417],[-87.1471,42.4136],[-87.1471,42.3924],[-87.1624,42.3781],[-87.205,42.3636],[-87.275,42.3491],[-87.3164,42.3451],[-87.3292,42.3518],[-87.3369,42.37],[-87.3394,42.3995],[-87.333,42.4274]],[[-87.3297,42.4263],[-87.3166,42.4502],[-87.295,42.4655],[-87.265,42.4722],[-87.23,42.4694],[-87.19,42.4572],[-87.1638,42.4382],[-87.1514,42.4124],[-87.1514,42.3935],[-87.1638,42.3816],[-87.205,42.3687],[-87.275,42.3549],[-87.3166,42.3646],[-87.3297,42.3977],[-87.3297,42.4263]]]}},{"type":"Feature","properties":{"c":"#c8f500","v0":0.2,"v1":0.25},"geometry":{"type":"Polygon","coordinates":[[[-87.9879,42.1738],[-87.976,42.196],[-87.9523,42.2034],[-87.917,42.1961],[-87.907,42.1795],[-87.9223,42.1536],[-87.946,42.1462],[-87.9779,42.1572],[-87.9879,42.1738]],[[-87.9773,42.1847],[-87.9591,42.199],[-87.9391,42.2027],[-87.9173,42.1958],[-87.9123,42.1812],[-87.9241,42.1588],[-87.94,42.1485],[-87.96,42.1504],[-87.9741,42.1579],[-87.9823,42.171],[-87.9773,42.1847]]]}},{"type":"Feature","properties":{"c":"#c8f500","v0":0.2,"v1":0.25},"geometry":{"type":"Polygon","coordinates":[[[-87.7463,41.9087],[-87.7221,41.9057],[-87.71,41.8962],[-87.71,41.8801],[-87.7192,41.8742],[-87.7375,41.8783],[-87.7496,41.8879],[-87.7555,41.9028],[-87.7463,41.9087]],[[-87.7454,41.8991],[-87.7351,41.9065],[-87.725,41.9028],[-87.715,41.8879],[-87.7201,41.8842],[-87.7404,41.8916],[-87.7454,41.8991]]]}},{"type":"Feature","properties":{"c":"#c8f500","v0":0.2,"v1":0.25},"geometry":{"type":"Polygon","coordinates":[[[-88.9123,41.4203],[-88.8841,41.4267],[-88.8639,41.423],[-88.8518,41.4091],[-88.8568,41.4006],[-88.8789,41.3975],[-88.8991,41.4012],[-88.9173,41.4118],[-88.9123,41.4203]],[[-88.8955,41.4171],[-88.8704,41.4171],[-88.8609,41.413],[-88.867,41.4048],[-88.8795,41.4048],[-88.8985,41.413],[-88.8955,41.4171]]]}},{"type":"Feature","properties":{"c":"#c8f500","v0":0.2,"v1":0.25},"geometry":{"type":"Polygon","coordinates":[[[-88.6396,41.1164],[-88.5845,41.1466],[-88.5564,41.1767],[-88.5553,41.2068],[-88.5485,41.2282],[-88.5362,41.2411],[-88.51,41.2464],[-88.47,41.2442],[-88.4371,41.234],[-88.4112,41.2159],[-88.3962,41.1931],[-88.3921,41.1657],[-88.4031,41.1469],[-88.4292,41.1366],[-88.4542,41.1154],[-88.4781,41.0833],[-88.525,41.0678],[-88.595,41.0688],[-88.6393,41.0774],[-88.6578,41.0934],[-88.6396,41.1164]],[[-88.6336,41.1164],[-88.5785,41.1466],[-88.5458,41.1817],[-88.5353,41.2217],[-88.515,41.242],[-88.485,41.2426],[-88.4535,41.2339],[-88.4204,41.2158],[-88.4012,41.1955],[-88.3959,41.1729],[-88.4079,41.1541],[-88.4371,41.139],[-88.4613,41.1171],[-88.4804,41.0883],[-88.525,41.0737],[-88.595,41.0735],[-88.6378,41.0803],[-88.6533,41.0943],[-88.6336,41.1164]]]}},{"type":"Feature","properties":{"c":"#c8f500","v0":0.2,"v1":0.25},"geometry":{"type":"Polygon","coordinates":[[[-95.1293,40.6696],[-95.1031,40.6833],[-95.0791,40.6871],[-95.0572,40.681],[-95.0425,40.6704],[-95.035,40.6552],[-95.0409,40.6389],[-95.0603,40.6215],[-95.0881,40.6253],[-95.1243,40.6503],[-95.1293,40.6696]],[[-95.1253,40.6687],[-95.1018,40.6805],[-95.08,40.6833],[-95.06,40.6772],[-95.0468,40.6675],[-95.0405,40.6542],[-95.0405,40.6427],[-95.0468,40.6328],[-95.06,40.6264],[-95.08,40.6234],[-95.1018,40.6321],[-95.1253,40.6526],[-95.1253,40.6687]]]}},{"type":"Feature","properties":{"c":"#c8f500","v0":0.2,"v1":0.25},"geometry":{"type":"Polygon","coordinates":[[[-95.0824,40.5643],[-95.0741,40.5799],[-95.055,40.5874],[-95.025,40.5867],[-95.0012,40.5789],[-94.9836,40.564],[-94.9743,40.5489],[-94.9734,40.5337],[-94.9872,40.5235],[-95.0157,40.5181],[-95.0441,40.5257],[-95.0724,40.5463],[-95.0824,40.5643]],[[-95.0787,40.5629],[-95.0729,40.5756],[-95.06,40.583],[-95.04,40.5851],[-95.0201,40.5825],[-95.0003,40.5753],[-94.9862,40.5641],[-94.9778,40.5489],[-94.9777,40.5362],[-94.9859,40.5259],[-95.0,40.5202],[-95.02,40.5191],[-95.0429,40.528],[-95.0687,40.547],[-95.0787,40.5629]]]}},{"type":"Feature","properties":{"c":"#c8f500","v0":0.2,"v1":0.25},"geometry":{"type":"Polygon","coordinates":[[[-95.0028,40.4402],[-94.9943,40.4511],[-94.98,40.4563],[-94.96,40.456],[-94.937,40.4468],[-94.911,40.4287],[-94.916,40.4171],[-94.952,40.4121],[-94.9793,40.4159],[-94.9978,40.4285],[-95.0028,40.4402]],[[-94.9983,40.4392],[-94.9928,40.448],[-94.98,40.4523],[-94.96,40.4521],[-94.9391,40.4439],[-94.9172,40.4277],[-94.9222,40.418],[-94.9541,40.4149],[-94.9778,40.4187],[-94.9933,40.4295],[-94.9983,40.4392]]]}},{"type":"Feature","properties":{"c":"#c8f500","v0":0.2,"v1":0.25},"geometry":{"type":"Polygon","coordinates":[[[-101.389,40.0576],[-101.3763,40.0664],[-101.3588,40.0664],[-101.3364,40.0576],[-101.3314,40.0466],[-101.3438,40.0335],[-101.3613,40.0335],[-101.384,40.0466],[-101.389,40.0576]],[[-101.378,40.0562],[-101.3593,40.0624],[-101.3454,40.0624],[-101.3362,40.0562],[-101.3362,40.0478],[-101.3454,40.037],[-101.3593,40.037],[-101.378,40.0478],[-101.378,40.0562]]]}},{"type":"Feature","properties":{"c":"#c8f500","v0":0.2,"v1":0.25},"geometry":{"type":"Polygon","coordinates":[[[-101.8001,39.9957],[-101.7881,40.0034],[-101.784,40.0006],[-101.788,39.9875],[-101.794,39.9837],[-101.8021,39.9892],[-101.8001,39.9957]]]}},{"type":"Feature","properties":{"c":"#c8f500","v0":0.2,"v1":0.25},"geometry":{"type":"Polygon","coordinates":[[[-112.9181,33.9692],[-112.8994,33.9922],[-112.88,34.0011],[-112.86,33.996],[-112.86,33.9758],[-112.88,33.9406],[-112.8994,33.9317],[-112.9181,33.949],[-112.9181,33.9692]],[[-112.9166,33.966],[-112.9082,33.9825],[-112.8927,33.9908],[-112.87,33.9908],[-112.8665,33.9762],[-112.8822,33.947],[-112.8977,33.9387],[-112.9131,33.9514],[-112.9166,33.966]]]}},{"type":"Feature","properties":{"c":"#c8f500","v0":0.2,"v1":0.25},"geometry":{"type":"Polygon","coordinates":[[[-112.8675,33.581],[-112.8558,33.5925],[-112.835,33.5939],[-112.805,33.5851],[-112.7831,33.571],[-112.7692,33.5516],[-112.7642,33.534],[-112.7681,33.5183],[-112.785,33.5111],[-112.815,33.5124],[-112.8408,33.5286],[-112.8625,33.5597],[-112.8675,33.581]],[[-112.8633,33.5797],[-112.8544,33.5887],[-112.835,33.5889],[-112.805,33.5805],[-112.785,33.5619],[-112.775,33.5329],[-112.785,33.518],[-112.815,33.5171],[-112.8394,33.5313],[-112.8583,33.5606],[-112.8633,33.5797]]]}},{"type":"Feature","properties":{"c":"#c8f500","v0":0.2,"v1":0.25},"geometry":{"type":"Polygon","coordinates":[[[-112.731,33.4025],[-112.717,33.4241],[-112.695,33.4302],[-112.665,33.4208],[-112.6369,33.4016],[-112.6108,33.3728],[-112.5958,33.3434],[-112.5919,33.3135],[-112.5682,33.2927],[-112.5245,33.2807],[-112.5092,33.258],[-112.5221,33.2246],[-112.5343,33.2078],[-112.5456,33.2078],[-112.5956,33.2455],[-112.6842,33.3207],[-112.7309,33.3667],[-112.7356,33.3834],[-112.731,33.4025]],[[-112.7297,33.4001],[-112.7232,33.4168],[-112.7075,33.4249],[-112.6825,33.4243],[-112.6532,33.4077],[-112.6196,33.3748],[-112.6019,33.3416],[-112.6,33.3082],[-112.6068,33.2913],[-112.6223,33.2911],[-112.6483,33.3036],[-112.685,33.3289],[-112.7108,33.3541],[-112.7255,33.3792],[-112.7297,33.4001]],[[-112.5858,33.2787],[-112.5619,33.2867],[-112.54,33.2867],[-112.52,33.2788],[-112.5116,33.2622],[-112.5148,33.2371],[-112.5248,33.2215],[-112.5416,33.2154],[-112.5619,33.2279],[-112.5858,33.2591],[-112.5858,33.2787]]]}},{"type":"Feature","properties":{"c":"#c8f500","v0":0.2,"v1":0.25},"geometry":{"type":"Polygon","coordinates":[[[-84.2292,23.2227],[-84.2164,23.2351],[-84.2007,23.2351],[-84.1821,23.2227],[-84.1821,23.2102],[-84.2007,23.1976],[-84.2164,23.1976],[-84.2292,23.2102],[-84.2292,23.2227]],[[-84.2246,23.2214],[-84.2149,23.2312],[-84.2027,23.2312],[-84.1882,23.2214],[-84.1882,23.2119],[-84.2027,23.2026],[-84.2149,23.2026],[-84.2246,23.2119],[-84.2246,23.2214]]]}},{"type":"Feature","properties":{"c":"#c8f500","v0":0.25,"v1":0.5},"geometry":{"type":"Polygon","coordinates":[[[-87.8731,42.7315],[-87.8577,42.7472],[-87.8367,42.7472],[-87.81,42.7315],[-87.81,42.719],[-87.8367,42.7097],[-87.8577,42.7097],[-87.8731,42.719],[-87.8731,42.7315]]]}},{"type":"Feature","properties":{"c":"#c8f500","v0":0.25,"v1":0.5},"geometry":{"type":"Polygon","coordinates":[[[-87.3297,42.4263],[-87.3166,42.4502],[-87.295,42.4655],[-87.265,42.4722],[-87.23,42.4694],[-87.19,42.4572],[-87.1638,42.4382],[-87.1514,42.4124],[-87.1514,42.3935],[-87.1638,42.3816],[-87.205,42.3687],[-87.275,42.3549],[-87.3166,42.3646],[-87.3297,42.3977],[-87.3297,42.4263]],[[-87.3027,42.4264],[-87.2809,42.4505],[-87.25,42.4582],[-87.21,42.4495],[-87.1849,42.4375],[-87.1747,42.422],[-87.1747,42.4086],[-87.1849,42.3972],[-87.21,42.3885],[-87.25,42.3826],[-87.2809,42.3883],[-87.3027,42.4056],[-87.3027,42.4264]]]}},{"type":"Feature","properties":{"c":"#c8f500","v0":0.25,"v1":0.5},"geometry":{"type":"Polygon","coordinates":[[[-87.9773,42.1847],[-87.9591,42.199],[-87.9391,42.2027],[-87.9173,42.1958],[-87.9123,42.1812],[-87.9241,42.1588],[-87.94,42.1485],[-87.96,42.1504],[-87.9741,42.1579],[-87.9823,42.171],[-87.9773,42.1847]]]}},{"type":"Feature","properties":{"c":"#c8f500","v0":0.25,"v1":0.5},"geometry":{"type":"Polygon","coordinates":[[[-87.7454,41.8991],[-87.7351,41.9065],[-87.725,41.9028],[-87.715,41.8879],[-87.7201,41.8842],[-87.7404,41.8916],[-87.7454,41.8991]]]}},{"type":"Feature","properties":{"c":"#c8f500","v0":0.25,"v1":0.5},"geometry":{"type":"Polygon","coordinates":[[[-88.8955,41.4171],[-88.8704,41.4171],[-88.8609,41.413],[-88.867,41.4048],[-88.8795,41.4048],[-88.8985,41.413],[-88.8955,41.4171]]]}},{"type":"Feature","properties":{"c":"#c8f500","v0":0.25,"v1":0.5},"geometry":{"type":"Polygon","coordinates":[[[-88.6336,41.1164],[-88.5785,41.1466],[-88.5458,41.1817],[-88.5353,41.2217],[-88.515,41.242],[-88.485,41.2426],[-88.4535,41.2339],[-88.4204,41.2158],[-88.4012,41.1955],[-88.3959,41.1729],[-88.4079,41.1541],[-88.4371,41.139],[-88.4613,41.1171],[-88.4804,41.0883],[-88.525,41.0737],[-88.595,41.0735],[-88.6378,41.0803],[-88.6533,41.0943],[-88.6336,41.1164]],[[-88.5977,41.103],[-88.5659,41.1062],[-88.545,41.1185],[-88.535,41.1399],[-88.52,41.1562],[-88.5,41.1673],[-88.495,41.1556],[-88.505,41.1212],[-88.5359,41.1033],[-88.5877,41.102],[-88.5977,41.103]],[[-88.4801,41.183],[-88.4734,41.1957],[-88.4606,41.1994],[-88.4417,41.1943],[-88.4338,41.188],[-88.4368,41.1804],[-88.4496,41.1767],[-88.4722,41.1767],[-88.4801,41.183]]]}},{"type":"Feature","properties":{"c":"#c8f500","v0":0.25,"v1":0.5},"geometry":{"type":"Polygon","coordinates":[[[-95.1253,40.6687],[-95.1018,40.6805],[-95.08,40.6833],[-95.06,40.6772],[-95.0468,40.6675],[-95.0405,40.6542],[-95.0405,40.6427],[-95.0468,40.6328],[-95.06,40.6264],[-95.08,40.6234],[-95.1018,40.6321],[-95.1253,40.6526],[-95.1253,40.6687]]]}},{"type":"Feature","properties":{"c":"#c8f500","v0":0.25,"v1":0.5},"geometry":{"type":"Polygon","coordinates":[[[-95.0787,40.5629],[-95.0729,40.5756],[-95.06,40.583],[-95.04,40.5851],[-95.0201,40.5825],[-95.0003,40.5753],[-94.9862,40.5641],[-94.9778,40.5489],[-94.9777,40.5362],[-94.9859,40.5259],[-95.0,40.5202],[-95.02,40.5191],[-95.0429,40.528],[-95.0687,40.547],[-95.0787,40.5629]],[[-95.0483,40.56],[-95.0361,40.5671],[-95.0228,40.5633],[-95.0085,40.5486],[-95.0085,40.54],[-95.0228,40.5372],[-95.0361,40.541],[-95.0483,40.5513],[-95.0483,40.56]]]}},{"type":"Feature","properties":{"c":"#c8f500","v0":0.25,"v1":0.5},"geometry":{"type":"Polygon","coordinates":[[[-94.9983,40.4392],[-94.9928,40.448],[-94.98,40.4523],[-94.96,40.4521],[-94.9391,40.4439],[-94.9172,40.4277],[-94.9222,40.418],[-94.9541,40.4149],[-94.9778,40.4187],[-94.9933,40.4295],[-94.9983,40.4392]]]}},{"type":"Feature","properties":{"c":"#c8f500","v0":0.25,"v1":0.5},"geometry":{"type":"Polygon","coordinates":[[[-101.378,40.0562],[-101.3593,40.0624],[-101.3454,40.0624],[-101.3362,40.0562],[-101.3362,40.0478],[-101.3454,40.037],[-101.3593,40.037],[-101.378,40.0478],[-101.378,40.0562]]]}},{"type":"Feature","properties":{"c":"#c8f500","v0":0.25,"v1":0.5},"geometry":{"type":"Polygon","coordinates":[[[-112.9166,33.966],[-112.9082,33.9825],[-112.8927,33.9908],[-112.87,33.9908],[-112.8665,33.9762],[-112.8822,33.947],[-112.8977,33.9387],[-112.9131,33.9514],[-112.9166,33.966]]]}},{"type":"Feature","properties":{"c":"#c8f500","v0":0.25,"v1":0.5},"geometry":{"type":"Polygon","coordinates":[[[-112.8633,33.5797],[-112.8544,33.5887],[-112.835,33.5889],[-112.805,33.5805],[-112.785,33.5619],[-112.775,33.5329],[-112.785,33.518],[-112.815,33.5171],[-112.8394,33.5313],[-112.8583,33.5606],[-112.8633,33.5797]],[[-112.8352,33.5613],[-112.8184,33.5668],[-112.805,33.559],[-112.795,33.5379],[-112.7957,33.5268],[-112.8071,33.5257],[-112.8205,33.5336],[-112.8359,33.5502],[-112.8352,33.5613]]]}},{"type":"Feature","properties":{"c":"#c8f500","v0":0.25,"v1":0.5},"geometry":{"type":"Polygon","coordinates":[[[-112.7297,33.4001],[-112.7232,33.4168],[-112.7075,33.4249],[-112.6825,33.4243],[-112.6532,33.4077],[-112.6196,33.3748],[-112.6019,33.3416],[-112.6,33.3082],[-112.6068,33.2913],[-112.6223,33.2911],[-112.6483,33.3036],[-112.685,33.3289],[-112.7108,33.3541],[-112.7255,33.3792],[-112.7297,33.4001]],[[-112.6868,33.3764],[-112.6623,33.379],[-112.645,33.3682],[-112.635,33.3438],[-112.64,33.3331],[-112.66,33.3363],[-112.6773,33.3472],[-112.6918,33.3657],[-112.6868,33.3764]]]}},{"type":"Feature","properties":{"c":"#c8f500","v0":0.25,"v1":0.5},"geometry":{"type":"Polygon","coordinates":[[[-112.5858,33.2787],[-112.5619,33.2867],[-112.54,33.2867],[-112.52,33.2788],[-112.5116,33.2622],[-112.5148,33.2371],[-112.5248,33.2215],[-112.5416,33.2154],[-112.5619,33.2279],[-112.5858,33.2591],[-112.5858,33.2787]]]}},{"type":"Feature","properties":{"c":"#c8f500","v0":0.25,"v1":0.5},"geometry":{"type":"Polygon","coordinates":[[[-84.2246,23.2214],[-84.2149,23.2312],[-84.2027,23.2312],[-84.1882,23.2214],[-84.1882,23.2119],[-84.2027,23.2026],[-84.2149,23.2026],[-84.2246,23.2119],[-84.2246,23.2214]]]}},{"type":"Feature","properties":{"c":"#ffff00","v0":0.5,"v1":0.75},"geometry":{"type":"Polygon","coordinates":[[[-87.3027,42.4264],[-87.2809,42.4505],[-87.25,42.4582],[-87.21,42.4495],[-87.1849,42.4375],[-87.1747,42.422],[-87.1747,42.4086],[-87.1849,42.3972],[-87.21,42.3885],[-87.25,42.3826],[-87.2809,42.3883],[-87.3027,42.4056],[-87.3027,42.4264]],[[-87.2705,42.4322],[-87.2568,42.4386],[-87.24,42.4349],[-87.2201,42.4212],[-87.2201,42.4132],[-87.24,42.411],[-87.2568,42.4147],[-87.2705,42.4243],[-87.2705,42.4322]]]}},{"type":"Feature","properties":{"c":"#ffff00","v0":0.5,"v1":0.75},"geometry":{"type":"Polygon","coordinates":[[[-88.4801,41.183],[-88.4734,41.1957],[-88.4606,41.1994],[-88.4417,41.1943],[-88.4338,41.188],[-88.4368,41.1804],[-88.4496,41.1767],[-88.4722,41.1767],[-88.4801,41.183]]]}},{"type":"Feature","properties":{"c":"#ffff00","v0":0.5,"v1":0.75},"geometry":{"type":"Polygon","coordinates":[[[-88.5977,41.103],[-88.5659,41.1062],[-88.545,41.1185],[-88.535,41.1399],[-88.52,41.1562],[-88.5,41.1673],[-88.495,41.1556],[-88.505,41.1212],[-88.5359,41.1033],[-88.5877,41.102],[-88.5977,41.103]]]}},{"type":"Feature","properties":{"c":"#ffff00","v0":0.5,"v1":0.75},"geometry":{"type":"Polygon","coordinates":[[[-95.0483,40.56],[-95.0361,40.5671],[-95.0228,40.5633],[-95.0085,40.5486],[-95.0085,40.54],[-95.0228,40.5372],[-95.0361,40.541],[-95.0483,40.5513],[-95.0483,40.56]]]}},{"type":"Feature","properties":{"c":"#ffff00","v0":0.5,"v1":0.75},"geometry":{"type":"Polygon","coordinates":[[[-112.8352,33.5613],[-112.8184,33.5668],[-112.805,33.559],[-112.795,33.5379],[-112.7957,33.5268],[-112.8071,33.5257],[-112.8205,33.5336],[-112.8359,33.5502],[-112.8352,33.5613]]]}},{"type":"Feature","properties":{"c":"#ffff00","v0":0.5,"v1":0.75},"geometry":{"type":"Polygon","coordinates":[[[-112.6868,33.3764],[-112.6623,33.379],[-112.645,33.3682],[-112.635,33.3438],[-112.64,33.3331],[-112.66,33.3363],[-112.6773,33.3472],[-112.6918,33.3657],[-112.6868,33.3764]]]}},{"type":"Feature","properties":{"c":"#ffd700","v0":0.75,"v1":1.0},"geometry":{"type":"Polygon","coordinates":[[[-87.2705,42.4322],[-87.2568,42.4386],[-87.24,42.4349],[-87.2201,42.4212],[-87.2201,42.4132],[-87.24,42.411],[-87.2568,42.4147],[-87.2705,42.4243],[-87.2705,42.4322]]]}}]}