{"type":"FeatureCollection","features":[{"type":"Feature","properties":{"c":"#c8f500","v0":0.2,"v1":0.25},"geometry":{"type":"Polygon","coordinates":[[[-88.8651,49.0147],[-88.855,49.0259],[-88.84,49.0325],[-88.82,49.0344],[-88.7966,49.0223],[-88.7697,48.996],[-88.7647,48.9791],[-88.7816,48.9714],[-88.8,48.9686],[-88.82,48.9707],[-88.84,48.9811],[-88.8601,48.9998],[-88.8651,49.0147]],[[-88.8625,49.0139],[-88.8542,49.0235],[-88.84,49.0292],[-88.82,49.0311],[-88.7982,49.0197],[-88.7747,48.9952],[-88.7797,48.9808],[-88.8132,48.9767],[-88.8392,48.9832],[-88.8575,49.0005],[-88.8625,49.0139]]]}},{"type":"Feature","properties":{"c":"#c8f500","v0":0.2,"v1":0.25},"geometry":{"type":"Polygon","coordinates":[[[-101.0141,46.3716],[-100.998,46.3728],[-100.9887,46.3693],[-100.9862,46.3612],[-100.9943,46.3572],[-101.0128,46.3572],[-101.0221,46.3606],[-101.0221,46.3675],[-101.0141,46.3716]]]}},{"type":"Feature","properties":{"c":"#c8f500","v0":0.2,"v1":0.25},"geometry":{"type":"Polygon","coordinates":[[[-101.7861,46.2847],[-101.7375,46.333],[-101.7025,46.3569],[-101.6808,46.3564],[-101.6659,46.3495],[-101.6576,46.3362],[-101.6626,46.3181],[-101.6809,46.295],[-101.71,46.2765],[-101.75,46.2624],[-101.7801,46.2567],[-101.8003,46.2592],[-101.7861,46.2847]],[[-101.7642,46.3048],[-101.7281,46.3381],[-101.7,46.3539],[-101.68,46.3521],[-101.6689,46.3424],[-101.6666,46.3246],[-101.6766,46.3065],[-101.6989,46.288],[-101.725,46.2753],[-101.755,46.2683],[-101.7731,46.2707],[-101.7792,46.2823],[-101.7642,46.3048]]]}},{"type":"Feature","properties":{"c":"#c8f500","v0":0.2,"v1":0.25},"geometry":{"type":"Polygon","coordinates":[[[-101.3885,46.3297],[-101.3628,46.3299],[-101.3475,46.3264],[-101.3424,46.3193],[-101.3524,46.3152],[-101.3775,46.3139],[-101.3928,46.3174],[-101.3985,46.3255],[-101.3885,46.3297]]]}},{"type":"Feature","properties":{"c":"#c8f500","v0":0.2,"v1":0.25},"geometry":{"type":"Polygon","coordinates":[[[-102.3122,45.7778],[-102.289,45.7848],[-102.2712,45.7813],[-102.2588,45.7674],[-102.2619,45.7564],[-102.2806,45.7484],[-102.2985,45.7519],[-102.3154,45.7669],[-102.3122,45.7778]],[[-102.3088,45.777],[-102.2963,45.7824],[-102.2828,45.7789],[-102.2683,45.7666],[-102.2683,45.7578],[-102.2828,45.7526],[-102.2963,45.7561],[-102.3088,45.7683],[-102.3088,45.777]]]}},{"type":"Feature","properties":{"c":"#c8f500","v0":0.2,"v1":0.25},"geometry":{"type":"Polygon","coordinates":[[[-100.8658,45.2417],[-100.8463,45.2417],[-100.8372,45.2382],[-100.8385,45.2311],[-100.8469,45.2274],[-100.8623,45.227],[-100.8714,45.2305],[-100.8742,45.238],[-100.8658,45.2417]]]}},{"type":"Feature","properties":{"c":"#c8f500","v0":0.2,"v1":0.25},"geometry":{"type":"Polygon","coordinates":[[[-111.4169,45.0353],[-111.4123,45.0459],[-111.405,45.0509],[-111.395,45.0503],[-111.3871,45.0415],[-111.3813,45.0244],[-111.3863,45.0141],[-111.4021,45.0105],[-111.4123,45.014],[-111.4169,45.0247],[-111.4169,45.0353]],[[-111.4069,45.0332],[-111.3956,45.0395],[-111.39,45.0353],[-111.39,45.0206],[-111.3956,45.0174],[-111.4069,45.0258],[-111.4069,45.0332]]]}},{"type":"Feature","properties":{"c":"#c8f500","v0":0.2,"v1":0.25},"geometry":{"type":"Polygon","coordinates":[[[-112.3987,44.4511],[-112.3653,44.4582],[-112.354,44.4574],[-112.3647,44.4486],[-112.3813,44.445],[-112.404,44.4467],[-112.3987,44.4511]]]}},{"type":"Feature","properties":{"c":"#c8f500","v0":0.2,"v1":0.25},"geometry":{"type":"Polygon","coordinates":[[[-112.6208,44.3999],[-112.6003,44.4189],[-112.5593,44.4261],[-112.4979,44.4213],[-112.4879,44.3991],[-112.5293,44.3593],[-112.565,44.3425],[-112.595,44.3488],[-112.6153,44.3616],[-112.6258,44.3808],[-112.6208,44.3999]],[[-112.6226,44.3978],[-112.6142,44.4126],[-112.6,44.4199],[-112.58,44.4198],[-112.556,44.4159],[-112.5281,44.4084],[-112.5144,44.394],[-112.5148,44.3725],[-112.5338,44.3575],[-112.5713,44.3489],[-112.5992,44.356],[-112.6176,44.3789],[-112.6226,44.3978]]]}},{"type":"Feature","properties":{"c":"#c8f500","v0":0.2,"v1":0.25},"geometry":{"type":"Polygon","coordinates":[[[-80.4732,44.0072],[-80.4711,44.015],[-80.464,44.0186],[-80.4521,44.0179],[-80.4471,44.0123],[-80.449,44.0016],[-80.4561,43.998],[-80.4682,44.0015],[-80.4732,44.0072]]]}},{"type":"Feature","properties":{"c":"#c8f500","v0":0.2,"v1":0.25},"geometry":{"type":"Polygon","coordinates":[[[-103.7992,43.7096],[-103.7797,43.7282],[-103.76,43.7372],[-103.74,43.7366],[-103.73,43.7232],[-103.73,43.697],[-103.74,43.6816],[-103.76,43.677],[-103.7797,43.6811],[-103.7992,43.6939],[-103.7992,43.7096]],[[-103.7954,43.7086],[-103.7785,43.725],[-103.7602,43.7323],[-103.7406,43.7302],[-103.7294,43.722],[-103.7268,43.7075],[-103.7316,43.6948],[-103.7439,43.6838],[-103.7635,43.6838],[-103.7904,43.6948],[-103.7954,43.7086]]]}},{"type":"Feature","properties":{"c":"#c8f500","v0":0.2,"v1":0.25},"geometry":{"type":"Polygon","coordinates":[[[-103.9714,43.5229],[-103.9578,43.5447],[-103.9357,43.5603],[-103.9052,43.5698],[-103.87,43.5653],[-103.83,43.5468],[-103.8004,43.5275],[-103.7813,43.5075],[-103.7813,43.4874],[-103.8004,43.4672],[-103.835,43.4533],[-103.885,43.4458],[-103.9271,43.4596],[-103.9612,43.4945],[-103.9714,43.5229]],[[-103.9685,43.5225],[-103.9562,43.5434],[-103.935,43.5582],[-103.905,43.5668],[-103.87,43.562],[-103.83,43.5436],[-103.8015,43.5252],[-103.7845,43.5067],[-103.7845,43.4885],[-103.8015,43.4704],[-103.835,43.4571],[-103.885,43.4486],[-103.9262,43.4613],[-103.9585,43.4951],[-103.9685,43.5225]]]}},{"type":"Feature","properties":{"c":"#c8f500","v0":0.2,"v1":0.25},"geometry":{"type":"Polygon","coordinates":[[[-104.2383,43.3304],[-104.2311,43.345],[-104.2131,43.3573],[-104.1844,43.3675],[-104.1571,43.3675],[-104.1312,43.3573],[-104.1095,43.3413],[-104.0921,43.3195],[-104.1,43.2956],[-104.1333,43.2695],[-104.165,43.2625],[-104.195,43.2745],[-104.218,43.2912],[-104.2339,43.3125],[-104.2383,43.3304]],[[-104.2349,43.3304],[-104.2275,43.345],[-104.2104,43.3566],[-104.1835,43.3654],[-104.1583,43.3654],[-104.1348,43.3566],[-104.1143,43.3413],[-104.0968,43.3195],[-104.1035,43.2969],[-104.1345,43.2736],[-104.165,43.2674],[-104.195,43.2786],[-104.2171,43.2939],[-104.2314,43.3134],[-104.2349,43.3304]]]}},{"type":"Feature","properties":{"c":"#c8f500","v0":0.2,"v1":0.25},"geometry":{"type":"Polygon","coordinates":[[[-73.0071,43.226],[-72.9957,43.2356],[-72.985,43.238],[-72.975,43.2334],[-72.9683,43.2214],[-72.9648,43.2018],[-72.9729,43.1921],[-72.9927,43.1921],[-73.0051,43.1993],[-73.0103,43.2139],[-73.0071,43.226]],[[-73.0004,43.2243],[-72.9935,43.2303],[-72.985,43.2309],[-72.975,43.226],[-72.97,43.2168],[-72.97,43.2033],[-72.975,43.1955],[-72.985,43.1932],[-72.9935,43.1994],[-73.0004,43.2139],[-73.0004,43.2243]]]}},{"type":"Feature","properties":{"c":"#c8f500","v0":0.2,"v1":0.25},"geometry":{"type":"Polygon","coordinates":[[[-76.9362,42.044],[-76.9172,42.044],[-76.9133,42.0412],[-76.9244,42.0354],[-76.9339,42.0354],[-76.9417,42.0412],[-76.9362,42.044]]]}},{"type":"Feature","properties":{"c":"#c8f500","v0":0.2,"v1":0.25},"geometry":{"type":"Polygon","coordinates":[[[-76.4274,41.7624],[-76.4158,41.765],[-76.405,41.7613],[-76.395,41.7513],[-76.395,41.7435],[-76.405,41.738],[-76.4158,41.7417],[-76.4274,41.7547],[-76.4274,41.7624]]]}},{"type":"Feature","properties":{"c":"#c8f500","v0":0.2,"v1":0.25},"geometry":{"type":"Polygon","coordinates":[[[-107.4492,39.2098],[-107.4364,39.2177],[-107.4262,39.2177],[-107.4186,39.2098],[-107.4186,39.2004],[-107.4262,39.1895],[-107.4364,39.1895],[-107.4492,39.2004],[-107.4492,39.2098]]]}},{"type":"Feature","properties":{"c":"#c8f500","v0":0.2,"v1":0.25},"geometry":{"type":"Polygon","coordinates":[[[-91.2722,38.8441],[-91.2574,38.8664],[-91.2372,38.8742],[-91.2116,38.8675],[-91.1983,38.8563],[-91.1971,38.8407],[-91.2048,38.8269],[-91.2216,38.8147],[-91.2424,38.8147],[-91.2672,38.8269],[-91.2722,38.8441]],[[-91.2688,38.843],[-91.2563,38.8631],[-91.2385,38.8709],[-91.2156,38.8664],[-91.2074,38.8524],[-91.2141,38.829],[-91.2255,38.816],[-91.2418,38.8134],[-91.2563,38.8173],[-91.2688,38.8277],[-91.2688,38.843]]]}},{"type":"Feature","properties":{"c":"#c8f500","v0":0.2,"v1":0.25},"geometry":{"type":"Polygon","coordinates":[[[-91.7709,38.6779],[-91.7436,38.7109],[-91.685,38.7189],[-91.595,38.7018],[-91.54,38.717],[-91.52,38.7643],[-91.5,38.7903],[-91.48,38.7948],[-91.4635,38.7905],[-91.4506,38.7772],[-91.4556,38.7511],[-91.4785,38.7121],[-91.5,38.69],[-91.52,38.6848],[-91.5405,38.6692],[-91.5614,38.6431],[-91.5964,38.6197],[-91.6455,38.5989],[-91.6889,38.5911],[-91.7267,38.5963],[-91.7554,38.6145],[-91.7748,38.6457],[-91.7709,38.6779]],[[-91.5171,38.7277],[-91.5069,38.7667],[-91.4938,38.7873],[-91.4779,38.7896],[-91.4653,38.7857],[-91.456,38.7756],[-91.4554,38.7589],[-91.4635,38.7355],[-91.4782,38.7161],[-91.4994,38.7006],[-91.513,38.6967],[-91.5191,38.7044],[-91.5171,38.7277]],[[-91.7735,38.6742],[-91.7578,38.6999],[-91.74,38.7162],[-91.72,38.7229],[-91.6701,38.714],[-91.5902,38.6893],[-91.5572,38.6653],[-91.5712,38.6418],[-91.6061,38.6194],[-91.662,38.598],[-91.705,38.5917],[-91.735,38.6005],[-91.7578,38.619],[-91.7735,38.6472],[-91.7735,38.6742]]]}},{"type":"Feature","properties":{"c":"#c8f500","v0":0.2,"v1":0.25},"geometry":{"type":"Polygon","coordinates":[[[-87.7094,38.0868],[-87.6831,38.0981],[-87.6595,38.0981],[-87.6386,38.0868],[-87.6386,38.072],[-87.6595,38.0538],[-87.6831,38.0538],[-87.7094,38.072],[-87.7094,38.0868]],[[-87.7042,38.0858],[-87.6814,38.0951],[-87.6611,38.0951],[-87.6433,38.0858],[-87.6433,38.0731],[-87.6611,38.057],[-87.6814,38.057],[-87.7042,38.0731],[-87.7042,38.0858]]]}},{"type":"Feature","properties":{"c":"#c8f500","v0":0.2,"v1":0.25},"geometry":{"type":"Polygon","coordinates":[[[-89.7782,38.0393],[-89.7727,38.05],[-89.75,38.0635],[-89.71,38.0798],[-89.68,38.0867],[-89.66,38.0841],[-89.6398,38.0745],[-89.6194,38.0579],[-89.6144,38.041],[-89.6248,38.0238],[-89.66,38.0058],[-89.72,37.9871],[-89.7577,37.9918],[-89.7732,38.0199],[-89.7782,38.0393]],[[-89.7525,38.0465],[-89.7108,38.0716],[-89.6711,38.0755],[-89.6332,38.0583],[-89.6182,38.0422],[-89.6261,38.0273],[-89.655,38.0142],[-89.705,38.0031],[-89.7408,38.0067],[-89.7625,38.0248],[-89.7525,38.0465]]]}},{"type":"Feature","properties":{"c":"#c8f500","v0":0.2,"v1":0.25},"geometry":{"type":"Polygon","coordinates":[[[-87.5479,38.0386],[-87.536,38.048],[-87.51,38.0516],[-87.47,38.0494],[-87.43,38.0451],[-87.39,38.0388],[-87.3667,38.0313],[-87.36,38.0225],[-87.365,38.0131],[-87.3817,38.0031],[-87.405,38.0022],[-87.435,38.0103],[-87.465,38.0107],[-87.495,38.0034],[-87.521,38.0083],[-87.5429,38.0254],[-87.5479,38.0386]],[[-87.5198,38.0349],[-87.4733,38.0371],[-87.4295,38.0331],[-87.3884,38.0231],[-87.3934,38.02],[-87.4445,38.0238],[-87.48,38.0219],[-87.5,38.0142],[-87.5183,38.0162],[-87.5348,38.028],[-87.5198,38.0349]]]}},{"type":"Feature","properties":{"c":"#c8f500","v0":0.2,"v1":0.25},"geometry":{"type":"Polygon","coordinates":[[[-91.9209,38.0103],[-91.909,38.026],[-91.8898,38.0364],[-91.8633,38.0414],[-91.8392,38.0296],[-91.8177,38.001],[-91.8127,37.9809],[-91.8242,37.9694],[-91.84,37.9631],[-91.86,37.9619],[-91.8842,37.9715],[-91.9126,37.9921],[-91.9209,38.0103]],[[-91.9144,38.0111],[-91.8981,38.0284],[-91.88,38.0379],[-91.86,38.0395],[-91.8404,38.0268],[-91.8212,38.0],[-91.8262,37.981],[-91.8554,37.9698],[-91.8831,37.9738],[-91.9094,37.9928],[-91.9144,38.0111]]]}},{"type":"Feature","properties":{"c":"#c8f500","v0":0.2,"v1":0.25},"geometry":{"type":"Polygon","coordinates":[[[-90.0031,37.9809],[-89.9944,38.0009],[-89.97,38.015],[-89.93,38.0232],[-89.896,38.0171],[-89.868,37.9968],[-89.8509,37.9748],[-89.8447,37.9511],[-89.8488,37.933],[-89.8629,37.9203],[-89.895,37.9124],[-89.945,37.9092],[-89.9794,37.9234],[-89.9981,37.955],[-90.0031,37.9809]],[[-90.001,37.98],[-89.9937,37.9982],[-89.97,38.0117],[-89.93,38.0204],[-89.897,38.0152],[-89.8711,37.9961],[-89.8553,37.9748],[-89.8495,37.9511],[-89.8524,37.9341],[-89.8641,37.9238],[-89.895,37.9176],[-89.945,37.9155],[-89.9787,37.9286],[-89.996,37.9568],[-90.001,37.98]]]}},{"type":"Feature","properties":{"c":"#c8f500","v0":0.2,"v1":0.25},"geometry":{"type":"Polygon","coordinates":[[[-86.951,37.9948],[-86.9237,38.0111],[-86.89,38.0223],[-86.85,38.0284],[-86.8154,38.0242],[-86.7862,38.0097],[-86.7689,37.9945],[-86.7635,37.9787],[-86.7781,37.9567],[-86.8127,37.9283],[-86.8637,37.9323],[-86.931,37.9685],[-86.951,37.9948]],[[-86.94,37.9939],[-86.92,38.0084],[-86.89,38.0187],[-86.85,38.0249],[-86.8168,38.0216],[-86.7903,38.0088],[-86.7741,37.9945],[-86.7682,37.9787],[-86.7815,37.9579],[-86.8138,37.9319],[-86.86,37.9358],[-86.92,37.9697],[-86.94,37.9939]]]}},{"type":"Feature","properties":{"c":"#c8f500","v0":0.2,"v1":0.25},"geometry":{"type":"Polygon","coordinates":[[[-86.6181,37.8914],[-86.5727,37.9217],[-86.5333,37.9217],[-86.5,37.8914],[-86.49,37.8707],[-86.5033,37.8597],[-86.53,37.8528],[-86.57,37.8502],[-86.6027,37.8557],[-86.6281,37.8693],[-86.6181,37.8914]],[[-86.6147,37.8888],[-86.5716,37.9142],[-86.5347,37.9142],[-86.5042,37.8888],[-86.4942,37.8717],[-86.5047,37.8628],[-86.53,37.8567],[-86.57,37.8535],[-86.6016,37.858],[-86.6247,37.8701],[-86.6147,37.8888]]]}},{"type":"Feature","properties":{"c":"#c8f500","v0":0.2,"v1":0.25},"geometry":{"type":"Polygon","coordinates":[[[-86.4103,37.6444],[-86.3834,37.6552],[-86.3471,37.6473],[-86.3013,37.6206],[-86.2863,37.6017],[-86.3021,37.5906],[-86.33,37.5885],[-86.37,37.5955],[-86.3984,37.609],[-86.4153,37.629],[-86.4103,37.6444]],[[-86.4069,37.6434],[-86.3823,37.6523],[-86.3494,37.6444],[-86.3081,37.6197],[-86.2931,37.603],[-86.3044,37.5945],[-86.33,37.5933],[-86.37,37.5994],[-86.3973,37.6116],[-86.4119,37.6299],[-86.4069,37.6434]]]}},{"type":"Feature","properties":{"c":"#c8f500","v0":0.2,"v1":0.25},"geometry":{"type":"Polygon","coordinates":[[[-114.5286,37.2784],[-114.5162,37.2876],[-114.5067,37.2876],[-114.5002,37.2784],[-114.5002,37.27],[-114.5067,37.2625],[-114.5162,37.2625],[-114.5286,37.27],[-114.5286,37.2784]]]}},{"type":"Feature","properties":{"c":"#c8f500","v0":0.2,"v1":0.25},"geometry":{"type":"Polygon","coordinates":[[[-86.2434,37.1989],[-86.2345,37.2084],[-86.2214,37.2124],[-86.2043,37.2109],[-86.1993,37.2027],[-86.2064,37.1879],[-86.2195,37.184],[-86.2384,37.1908],[-86.2434,37.1989]],[[-86.2315,37.1983],[-86.2172,37.2065],[-86.208,37.2065],[-86.204,37.1983],[-86.2111,37.1942],[-86.2295,37.1942],[-86.2315,37.1983]]]}},{"type":"Feature","properties":{"c":"#c8f500","v0":0.2,"v1":0.25},"geometry":{"type":"Polygon","coordinates":[[[-85.649,37.1663],[-85.6332,37.1743],[-85.6265,37.1735],[-85.6288,37.164],[-85.6367,37.16],[-85.6501,37.1615],[-85.649,37.1663]]]}},{"type":"Feature","properties":{"c":"#c8f500","v0":0.2,"v1":0.25},"geometry":{"type":"Polygon","coordinates":[[[-114.4251,37.1524],[-114.4017,37.1646],[-114.3821,37.1606],[-114.3662,37.1405],[-114.3712,37.1253],[-114.3971,37.1152],[-114.4167,37.1192],[-114.4301,37.1373],[-114.4251,37.1524]],[[-114.4218,37.1516],[-114.4006,37.1621],[-114.3833,37.1581],[-114.3698,37.1396],[-114.3748,37.1263],[-114.3983,37.1181],[-114.4156,37.122],[-114.4268,37.1383],[-114.4218,37.1516]]]}},{"type":"Feature","properties":{"c":"#c8f500","v0":0.2,"v1":0.25},"geometry":{"type":"Polygon","coordinates":[[[-85.868,37.1211],[-85.8427,37.1343],[-85.8234,37.1343],[-85.8101,37.1211],[-85.8151,37.106],[-85.8384,37.0892],[-85.8577,37.0892],[-85.873,37.106],[-85.868,37.1211]],[[-85.8634,37.12],[-85.8411,37.1311],[-85.8246,37.1311],[-85.8139,37.12],[-85.8189,37.1071],[-85.8396,37.0925],[-85.8561,37.0925],[-85.8684,37.1071],[-85.8634,37.12]]]}},{"type":"Feature","properties":{"c":"#c8f500","v0":0.2,"v1":0.25},"geometry":{"type":"Polygon","coordinates":[[[-114.4981,35.7537],[-114.4927,35.7678],[-114.48,35.774],[-114.46,35.7722],[-114.446,35.7651],[-114.4379,35.7528],[-114.4379,35.7362],[-114.446,35.7152],[-114.455,35.7039],[-114.465,35.7024],[-114.4777,35.7129],[-114.4931,35.7354],[-114.4981,35.7537]],[[-114.4945,35.7522],[-114.4915,35.7634],[-114.48,35.7683],[-114.46,35.7669],[-114.45,35.7525],[-114.45,35.7252],[-114.455,35.7109],[-114.465,35.7096],[-114.4765,35.7184],[-114.4895,35.7372],[-114.4945,35.7522]]]}},{"type":"Feature","properties":{"c":"#c8f500","v0":0.2,"v1":0.25},"geometry":{"type":"Polygon","coordinates":[[[-112.7005,34.809],[-112.6802,34.828],[-112.6692,34.8239],[-112.6675,34.7967],[-112.6725,34.7814],[-112.6842,34.778],[-112.6952,34.7821],[-112.7055,34.7937],[-112.7005,34.809]],[[-112.6958,34.8064],[-112.6786,34.82],[-112.67,34.817],[-112.67,34.7972],[-112.675,34.7857],[-112.685,34.7824],[-112.6936,34.7854],[-112.7008,34.7948],[-112.6958,34.8064]]]}},{"type":"Feature","properties":{"c":"#c8f500","v0":0.2,"v1":0.25},"geometry":{"type":"Polygon","coordinates":[[[-115.8667,34.2096],[-115.8556,34.2165],[-115.845,34.2124],[-115.835,34.1972],[-115.835,34.1865],[-115.845,34.1802],[-115.8556,34.1843],[-115.8667,34.1989],[-115.8667,34.2096]],[[-115.8568,34.2062],[-115.8465,34.2062],[-115.8435,34.2006],[-115.8478,34.1895],[-115.853,34.1895],[-115.859,34.2006],[-115.8568,34.2062]]]}},{"type":"Feature","properties":{"c":"#c8f500","v0":0.2,"v1":0.25},"geometry":{"type":"Polygon","coordinates":[[[-115.4707,31.763],[-115.4436,31.7753],[-115.4209,31.7753],[-115.4028,31.763],[-115.3978,31.7517],[-115.4059,31.7414],[-115.4286,31.7414],[-115.4657,31.7517],[-115.4707,31.763]],[[-115.4624,31.7616],[-115.4408,31.7712],[-115.4235,31.7712],[-115.4104,31.7616],[-115.4212,31.7569],[-115.4559,31.7569],[-115.4624,31.7616]]]}},{"type":"Feature","properties":{"c":"#c8f500","v0":0.2,"v1":0.25},"geometry":{"type":"Polygon","coordinates":[[[-115.3575,31.6565],[-115.3392,31.66],[-115.3298,31.6557],[-115.3293,31.6437],[-115.3343,31.6363],[-115.3448,31.6333],[-115.3542,31.6376],[-115.3625,31.649],[-115.3575,31.6565]]]}},{"type":"Feature","properties":{"c":"#c8f500","v0":0.2,"v1":0.25},"geometry":{"type":"Polygon","coordinates":[[[-83.4215,31.4551],[-83.4138,31.4648],[-83.3996,31.4648],[-83.3787,31.4551],[-83.3737,31.4451],[-83.3846,31.4347],[-83.3988,31.4347],[-83.4165,31.4451],[-83.4215,31.4551]]]}},{"type":"Feature","properties":{"c":"#c8f500","v0":0.2,"v1":0.25},"geometry":{"type":"Polygon","coordinates":[[[-82.29,31.3819],[-82.2702,31.3819],[-82.2577,31.3747],[-82.2526,31.3601],[-82.2557,31.3516],[-82.2672,31.3491],[-82.2797,31.3563],[-82.2932,31.3734],[-82.29,31.3819]],[[-82.2797,31.3685],[-82.2732,31.3757],[-82.266,31.3757],[-82.258,31.3685],[-82.2612,31.3649],[-82.2757,31.3649],[-82.2797,31.3685]]]}},{"type":"Feature","properties":{"c":"#c8f500","v0":0.2,"v1":0.25},"geometry":{"type":"Polygon","coordinates":[[[-103.1209,31.1305],[-103.1136,31.1407],[-103.1024,31.145],[-103.0871,31.1434],[-103.0771,31.1304],[-103.0724,31.1059],[-103.08,31.0916],[-103.1,31.0875],[-103.1136,31.0955],[-103.1209,31.1155],[-103.1209,31.1305]],[[-103.1176,31.1158],[-103.1125,31.1308],[-103.0997,31.1351],[-103.0791,31.1287],[-103.0741,31.1157],[-103.0847,31.0961],[-103.0975,31.0918],[-103.1126,31.1028],[-103.1176,31.1158]]]}},{"type":"Feature","properties":{"c":"#c8f500","v0":0.2,"v1":0.25},"geometry":{"type":"Polygon","coordinates":[[[-115.001,30.6405],[-114.982,30.6319],[-114.9813,30.6276],[-114.9988,30.6276],[-115.0083,30.6319],[-115.0097,30.6405],[-115.001,30.6405]]]}},{"type":"Feature","properties":{"c":"#c8f500","v0":0.2,"v1":0.25},"geometry":{"type":"Polygon","coordinates":[[[-83.2469,30.0803],[-83.2356,30.0904],[-83.2228,30.0904],[-83.2084,30.0803],[-83.2084,30.0691],[-83.2228,30.0568],[-83.2356,30.0568],[-83.2469,30.0691],[-83.2469,30.0803]],[[-83.2344,30.0753],[-83.2175,30.0753],[-83.2143,30.0707],[-83.2248,30.0614],[-83.2332,30.0614],[-83.2396,30.0707],[-83.2344,30.0753]]]}},{"type":"Feature","properties":{"c":"#c8f500","v0":0.2,"v1":0.25},"geometry":{"type":"Polygon","coordinates":[[[-102.7025,28.2005],[-102.6808,28.2243],[-102.6581,28.2243],[-102.6344,28.2005],[-102.6344,28.1815],[-102.6581,28.1675],[-102.6808,28.1675],[-102.7025,28.1815],[-102.7025,28.2005]],[[-102.6982,28.1991],[-102.6794,28.2203],[-102.6594,28.2203],[-102.6381,28.1991],[-102.6381,28.1826],[-102.6594,28.1706],[-102.6794,28.1706],[-102.6982,28.1826],[-102.6982,28.1991]]]}},{"type":"Feature","properties":{"c":"#c8f500","v0":0.2,"v1":0.25},"geometry":{"type":"Polygon","coordinates":[[[-81.2108,27.8393],[-81.1969,27.8473],[-81.1849,27.8473],[-81.1748,27.8393],[-81.1748,27.8288],[-81.1849,27.8158],[-81.1969,27.8158],[-81.2108,27.8288],[-81.2108,27.8393]],[[-81.2054,27.8375],[-81.1951,27.8419],[-81.1889,27.8375],[-81.1868,27.8243],[-81.192,27.8221],[-81.2043,27.8309],[-81.2054,27.8375]]]}},{"type":"Feature","properties":{"c":"#c8f500","v0":0.2,"v1":0.25},"geometry":{"type":"Polygon","coordinates":[[[-81.3414,26.4516],[-81.3338,26.4608],[-81.3237,26.4608],[-81.311,26.4516],[-81.311,26.4423],[-81.3237,26.4328],[-81.3338,26.4328],[-81.3414,26.4423],[-81.3414,26.4516]]]}},{"type":"Feature","properties":{"c":"#c8f500","v0":0.2,"v1":0.25},"geometry":{"type":"Polygon","coordinates":[[[-80.2972,26.4176],[-80.2924,26.4302],[-80.2797,26.4392],[-80.2591,26.4444],[-80.2497,26.4381],[-80.2514,26.4202],[-80.2641,26.4112],[-80.2878,26.4112],[-80.2972,26.4176]],[[-80.2908,26.4159],[-80.2903,26.4251],[-80.28,26.431],[-80.26,26.4335],[-80.2603,26.4289],[-80.2808,26.4171],[-80.2908,26.4159]]]}},{"type":"Feature","properties":{"c":"#c8f500","v0":0.2,"v1":0.25},"geometry":{"type":"Polygon","coordinates":[[[-81.1564,26.275],[-81.1521,26.2894],[-81.14,26.3003],[-81.12,26.3077],[-81.1016,26.3005],[-81.0849,26.2787],[-81.0849,26.2565],[-81.1016,26.2337],[-81.1221,26.2337],[-81.1464,26.2565],[-81.1564,26.275]],[[-81.1432,26.2778],[-81.1211,26.2976],[-81.1027,26.2976],[-81.0881,26.2778],[-81.0881,26.2575],[-81.1027,26.2369],[-81.1211,26.2369],[-81.1432,26.2575],[-81.1432,26.2778]]]}},{"type":"Feature","properties":{"c":"#c8f500","v0":0.2,"v1":0.25},"geometry":{"type":"Polygon","coordinates":[[[-81.0362,25.7337],[-81.0321,25.7441],[-81.0239,25.7441],[-81.0118,25.7337],[-81.0118,25.7247],[-81.0239,25.717],[-81.0321,25.717],[-81.0362,25.7247],[-81.0362,25.7337]]]}},{"type":"Feature","properties":{"c":"#c8f500","v0":0.25,"v1":0.5},"geometry":{"type":"Polygon","coordinates":[[[-88.8625,49.0139],[-88.8542,49.0235],[-88.84,49.0292],[-88.82,49.0311],[-88.7982,49.0197],[-88.7747,48.9952],[-88.7797,48.9808],[-88.8132,48.9767],[-88.8392,48.9832],[-88.8575,49.0005],[-88.8625,49.0139]],[[-88.8445,49.0119],[-88.8348,49.0175],[-88.8215,49.0143],[-88.8044,49.0021],[-88.8044,48.9941],[-88.8215,48.9903],[-88.8348,48.9936],[-88.8445,49.004],[-88.8445,49.0119]]]}},{"type":"Feature","properties":{"c":"#c8f500","v0":0.25,"v1":0.5},"geometry":{"type":"Polygon","coordinates":[[[-101.7642,46.3048],[-101.7281,46.3381],[-101.7,46.3539],[-101.68,46.3521],[-101.6689,46.3424],[-101.6666,46.3246],[-101.6766,46.3065],[-101.6989,46.288],[-101.725,46.2753],[-101.755,46.2683],[-101.7731,46.2707],[-101.7792,46.2823],[-101.7642,46.3048]]]}},{"type":"Feature","properties":{"c":"#c8f500","v0":0.25,"v1":0.5},"geometry":{"type":"Polygon","coordinates":[[[-102.3088,45.777],[-102.2963,45.7824],[-102.2828,45.7789],[-102.2683,45.7666],[-102.2683,45.7578],[-102.2828,45.7526],[-102.2963,45.7561],[-102.3088,45.7683],[-102.3088,45.777]]]}},{"type":"Feature","properties":{"c":"#c8f500","v0":0.25,"v1":0.5},"geometry":{"type":"Polygon","coordinates":[[[-111.4069,45.0332],[-111.3956,45.0395],[-111.39,45.0353],[-111.39,45.0206],[-111.3956,45.0174],[-111.4069,45.0258],[-111.4069,45.0332]]]}},{"type":"Feature","properties":{"c":"#c8f500","v0":0.25,"v1":0.5},"geometry":{"type":"Polygon","coordinates":[[[-112.6226,44.3978],[-112.6142,44.4126],[-112.6,44.4199],[-112.58,44.4198],[-112.556,44.4159],[-112.5281,44.4084],[-112.5144,44.394],[-112.5148,44.3725],[-112.5338,44.3575],[-112.5713,44.3489],[-112.5992,44.356],[-112.6176,44.3789],[-112.6226,44.3978]],[[-112.6008,44.3938],[-112.5936,44.4007],[-112.58,44.4008],[-112.56,44.394],[-112.5487,44.3834],[-112.5462,44.369],[-112.5562,44.3613],[-112.5787,44.3603],[-112.5936,44.3675],[-112.6008,44.3827],[-112.6008,44.3938]]]}},{"type":"Feature","properties":{"c":"#c8f500","v0":0.25,"v1":0.5},"geometry":{"type":"Polygon","coordinates":[[[-103.7954,43.7086],[-103.7785,43.725],[-103.7602,43.7323],[-103.7406,43.7302],[-103.7294,43.722],[-103.7268,43.7075],[-103.7316,43.6948],[-103.7439,43.6838],[-103.7635,43.6838],[-103.7904,43.6948],[-103.7954,43.7086]]]}},{"type":"Feature","properties":{"c":"#c8f500","v0":0.25,"v1":0.5},"geometry":{"type":"Polygon","coordinates":[[[-103.9685,43.5225],[-103.9562,43.5434],[-103.935,43.5582],[-103.905,43.5668],[-103.87,43.562],[-103.83,43.5436],[-103.8015,43.5252],[-103.7845,43.5067],[-103.7845,43.4885],[-103.8015,43.4704],[-103.835,43.4571],[-103.885,43.4486],[-103.9262,43.4613],[-103.9585,43.4951],[-103.9685,43.5225]],[[-103.9604,43.5199],[-103.9535,43.5357],[-103.935,43.5479],[-103.905,43.5566],[-103.8666,43.545],[-103.8199,43.5134],[-103.8199,43.4865],[-103.8666,43.4645],[-103.9,43.4565],[-103.92,43.4627],[-103.9385,43.4774],[-103.9554,43.5005],[-103.9604,43.5199]]]}},{"type":"Feature","properties":{"c":"#c8f500","v0":0.25,"v1":0.5},"geometry":{"type":"Polygon","coordinates":[[[-104.2349,43.3304],[-104.2275,43.345],[-104.2104,43.3566],[-104.1835,43.3654],[-104.1583,43.3654],[-104.1348,43.3566],[-104.1143,43.3413],[-104.0968,43.3195],[-104.1035,43.2969],[-104.1345,43.2736],[-104.165,43.2674],[-104.195,43.2786],[-104.2171,43.2939],[-104.2314,43.3134],[-104.2349,43.3304]],[[-104.2208,43.3296],[-104.2136,43.3426],[-104.2,43.3519],[-104.18,43.3574],[-104.1541,43.3473],[-104.1224,43.3215],[-104.1224,43.303],[-104.1541,43.2919],[-104.1836,43.2955],[-104.2108,43.3139],[-104.2208,43.3296]]]}},{"type":"Feature","properties":{"c":"#c8f500","v0":0.25,"v1":0.5},"geometry":{"type":"Polygon","coordinates":[[[-73.0004,43.2243],[-72.9935,43.2303],[-72.985,43.2309],[-72.975,43.226],[-72.97,43.2168],[-72.97,43.2033],[-72.975,43.1955],[-72.985,43.1932],[-72.9935,43.1994],[-73.0004,43.2139],[-73.0004,43.2243]]]}},{"type":"Feature","properties":{"c":"#c8f500","v0":0.25,"v1":0.5},"geometry":{"type":"Polygon","coordinates":[[[-91.2688,38.843],[-91.2563,38.8631],[-91.2385,38.8709],[-91.2156,38.8664],[-91.2074,38.8524],[-91.2141,38.829],[-91.2255,38.816],[-91.2418,38.8134],[-91.2563,38.8173],[-91.2688,38.8277],[-91.2688,38.843]]]}},{"type":"Feature","properties":{"c":"#c8f500","v0":0.25,"v1":0.5},"geometry":{"type":"Polygon","coordinates":[[[-91.5171,38.7277],[-91.5069,38.7667],[-91.4938,38.7873],[-91.4779,38.7896],[-91.4653,38.7857],[-91.456,38.7756],[-91.4554,38.7589],[-91.4635,38.7355],[-91.4782,38.7161],[-91.4994,38.7006],[-91.513,38.6967],[-91.5191,38.7044],[-91.5171,38.7277]]]}},{"type":"Feature","properties":{"c":"#c8f500","v0":0.25,"v1":0.5},"geometry":{"type":"Polygon","coordinates":[[[-91.7735,38.6742],[-91.7578,38.6999],[-91.74,38.7162],[-91.72,38.7229],[-91.6701,38.714],[-91.5902,38.6893],[-91.5572,38.6653],[-91.5712,38.6418],[-91.6061,38.6194],[-91.662,38.598],[-91.705,38.5917],[-91.735,38.6005],[-91.7578,38.619],[-91.7735,38.6472],[-91.7735,38.6742]],[[-91.7523,38.674],[-91.7241,38.6994],[-91.6867,38.7072],[-91.6402,38.6975],[-91.6077,38.6848],[-91.5893,38.6692],[-91.5873,38.6535],[-91.6016,38.6379],[-91.629,38.622],[-91.6697,38.6058],[-91.7035,38.6019],[-91.7306,38.6103],[-91.7497,38.6262],[-91.7608,38.6496],[-91.7523,38.674]]]}},{"type":"Feature","properties":{"c":"#c8f500","v0":0.25,"v1":0.5},"geometry":{"type":"Polygon","coordinates":[[[-87.7042,38.0858],[-87.6814,38.0951],[-87.6611,38.0951],[-87.6433,38.0858],[-87.6433,38.0731],[-87.6611,38.057],[-87.6814,38.057],[-87.7042,38.0731],[-87.7042,38.0858]]]}},{"type":"Feature","properties":{"c":"#c8f500","v0":0.25,"v1":0.5},"geometry":{"type":"Polygon","coordinates":[[[-89.7525,38.0465],[-89.7108,38.0716],[-89.6711,38.0755],[-89.6332,38.0583],[-89.6182,38.0422],[-89.6261,38.0273],[-89.655,38.0142],[-89.705,38.0031],[-89.7408,38.0067],[-89.7625,38.0248],[-89.7525,38.0465]],[[-89.6785,38.0496],[-89.6555,38.0496],[-89.6455,38.0464],[-89.6485,38.04],[-89.66,38.04],[-89.68,38.0464],[-89.6785,38.0496]]]}},{"type":"Feature","properties":{"c":"#c8f500","v0":0.25,"v1":0.5},"geometry":{"type":"Polygon","coordinates":[[[-91.9144,38.0111],[-91.8981,38.0284],[-91.88,38.0379],[-91.86,38.0395],[-91.8404,38.0268],[-91.8212,38.0],[-91.8262,37.981],[-91.8554,37.9698],[-91.8831,37.9738],[-91.9094,37.9928],[-91.9144,38.0111]],[[-91.8873,38.0075],[-91.8624,38.0176],[-91.8455,38.0137],[-91.8366,37.9956],[-91.8416,37.9847],[-91.8605,37.9809],[-91.8774,37.9848],[-91.8923,37.9965],[-91.8873,38.0075]]]}},{"type":"Feature","properties":{"c":"#c8f500","v0":0.25,"v1":0.5},"geometry":{"type":"Polygon","coordinates":[[[-87.5198,38.0349],[-87.4733,38.0371],[-87.4295,38.0331],[-87.3884,38.0231],[-87.3934,38.02],[-87.4445,38.0238],[-87.48,38.0219],[-87.5,38.0142],[-87.5183,38.0162],[-87.5348,38.028],[-87.5198,38.0349]]]}},{"type":"Feature","properties":{"c":"#c8f500","v0":0.25,"v1":0.5},"geometry":{"type":"Polygon","coordinates":[[[-90.001,37.98],[-89.9937,37.9982],[-89.97,38.0117],[-89.93,38.0204],[-89.897,38.0152],[-89.8711,37.9961],[-89.8553,37.9748],[-89.8495,37.9511],[-89.8524,37.9341],[-89.8641,37.9238],[-89.895,37.9176],[-89.945,37.9155],[-89.9787,37.9286],[-89.996,37.9568],[-90.001,37.98]],[[-89.987,37.9787],[-89.9803,37.9945],[-89.9652,38.006],[-89.9417,38.0132],[-89.9203,38.0132],[-89.9008,38.006],[-89.8845,37.9906],[-89.8714,37.9669],[-89.8811,37.9497],[-89.9137,37.939],[-89.9451,37.9429],[-89.9752,37.9615],[-89.987,37.9787]]]}},{"type":"Feature","properties":{"c":"#c8f500","v0":0.25,"v1":0.5},"geometry":{"type":"Polygon","coordinates":[[[-86.94,37.9939],[-86.92,38.0084],[-86.89,38.0187],[-86.85,38.0249],[-86.8168,38.0216],[-86.7903,38.0088],[-86.7741,37.9945],[-86.7682,37.9787],[-86.7815,37.9579],[-86.8138,37.9319],[-86.86,37.9358],[-86.92,37.9697],[-86.94,37.9939]],[[-86.9096,37.9917],[-86.8965,38.0019],[-86.875,38.0081],[-86.845,38.0103],[-86.8191,38.0013],[-86.7972,37.981],[-86.7922,37.9645],[-86.8041,37.9518],[-86.82,37.9441],[-86.84,37.9416],[-86.8665,37.9519],[-86.8996,37.975],[-86.9096,37.9917]]]}},{"type":"Feature","properties":{"c":"#c8f500","v0":0.25,"v1":0.5},"geometry":{"type":"Polygon","coordinates":[[[-86.6147,37.8888],[-86.5716,37.9142],[-86.5347,37.9142],[-86.5042,37.8888],[-86.4942,37.8717],[-86.5047,37.8628],[-86.53,37.8567],[-86.57,37.8535],[-86.6016,37.858],[-86.6247,37.8701],[-86.6147,37.8888]]]}},{"type":"Feature","properties":{"c":"#c8f500","v0":0.25,"v1":0.5},"geometry":{"type":"Polygon","coordinates":[[[-86.4069,37.6434],[-86.3823,37.6523],[-86.3494,37.6444],[-86.3081,37.6197],[-86.2931,37.603],[-86.3044,37.5945],[-86.33,37.5933],[-86.37,37.5994],[-86.3973,37.6116],[-86.4119,37.6299],[-86.4069,37.6434]],[[-86.3832,37.635],[-86.3676,37.6271],[-86.3674,37.6231],[-86.3825,37.623],[-86.3902,37.6269],[-86.3907,37.635],[-86.3832,37.635]]]}},{"type":"Feature","properties":{"c":"#c8f500","v0":0.25,"v1":0.5},"geometry":{"type":"Polygon","coordinates":[[[-86.2315,37.1983],[-86.2172,37.2065],[-86.208,37.2065],[-86.204,37.1983],[-86.2111,37.1942],[-86.2295,37.1942],[-86.2315,37.1983]]]}},{"type":"Feature","properties":{"c":"#c8f500","v0":0.25,"v1":0.5},"geometry":{"type":"Polygon","coordinates":[[[-114.4218,37.1516],[-114.4006,37.1621],[-114.3833,37.1581],[-114.3698,37.1396],[-114.3748,37.1263],[-114.3983,37.1181],[-114.4156,37.122],[-114.4268,37.1383],[-114.4218,37.1516]],[[-114.4068,37.1469],[-114.3956,37.1479],[-114.3897,37.1439],[-114.3892,37.1349],[-114.3948,37.1344],[-114.4065,37.1424],[-114.4068,37.1469]]]}},{"type":"Feature","properties":{"c":"#c8f500","v0":0.25,"v1":0.5},"geometry":{"type":"Polygon","coordinates":[[[-85.8634,37.12],[-85.8411,37.1311],[-85.8246,37.1311],[-85.8139,37.12],[-85.8189,37.1071],[-85.8396,37.0925],[-85.8561,37.0925],[-85.8684,37.1071],[-85.8634,37.12]]]}},{"type":"Feature","properties":{"c":"#c8f500","v0":0.25,"v1":0.5},"geometry":{"type":"Polygon","coordinates":[[[-114.4945,35.7522],[-114.4915,35.7634],[-114.48,35.7683],[-114.46,35.7669],[-114.45,35.7525],[-114.45,35.7252],[-114.455,35.7109],[-114.465,35.7096],[-114.4765,35.7184],[-114.4895,35.7372],[-114.4945,35.7522]]]}},{"type":"Feature","properties":{"c":"#c8f500","v0":0.25,"v1":0.5},"geometry":{"type":"Polygon","coordinates":[[[-112.6958,34.8064],[-112.6786,34.82],[-112.67,34.817],[-112.67,34.7972],[-112.675,34.7857],[-112.685,34.7824],[-112.6936,34.7854],[-112.7008,34.7948],[-112.6958,34.8064]]]}},{"type":"Feature","properties":{"c":"#c8f500","v0":0.25,"v1":0.5},"geometry":{"type":"Polygon","coordinates":[[[-115.8568,34.2062],[-115.8465,34.2062],[-115.8435,34.2006],[-115.8478,34.1895],[-115.853,34.1895],[-115.859,34.2006],[-115.8568,34.2062]]]}},{"type":"Feature","properties":{"c":"#c8f500","v0":0.25,"v1":0.5},"geometry":{"type":"Polygon","coordinates":[[[-115.4624,31.7616],[-115.4408,31.7712],[-115.4235,31.7712],[-115.4104,31.7616],[-115.4212,31.7569],[-115.4559,31.7569],[-115.4624,31.7616]]]}},{"type":"Feature","properties":{"c":"#c8f500","v0":0.25,"v1":0.5},"geometry":{"type":"Polygon","coordinates":[[[-82.2797,31.3685],[-82.2732,31.3757],[-82.266,31.3757],[-82.258,31.3685],[-82.2612,31.3649],[-82.2757,31.3649],[-82.2797,31.3685]]]}},{"type":"Feature","properties":{"c":"#c8f500","v0":0.25,"v1":0.5},"geometry":{"type":"Polygon","coordinates":[[[-103.1176,31.1158],[-103.1125,31.1308],[-103.0997,31.1351],[-103.0791,31.1287],[-103.0741,31.1157],[-103.0847,31.0961],[-103.0975,31.0918],[-103.1126,31.1028],[-103.1176,31.1158]]]}},{"type":"Feature","properties":{"c":"#c8f500","v0":0.25,"v1":0.5},"geometry":{"type":"Polygon","coordinates":[[[-83.2344,30.0753],[-83.2175,30.0753],[-83.2143,30.0707],[-83.2248,30.0614],[-83.2332,30.0614],[-83.2396,30.0707],[-83.2344,30.0753]]]}},{"type":"Feature","properties":{"c":"#c8f500","v0":0.25,"v1":0.5},"geometry":{"type":"Polygon","coordinates":[[[-102.6982,28.1991],[-102.6794,28.2203],[-102.6594,28.2203],[-102.6381,28.1991],[-102.6381,28.1826],[-102.6594,28.1706],[-102.6794,28.1706],[-102.6982,28.1826],[-102.6982,28.1991]]]}},{"type":"Feature","properties":{"c":"#c8f500","v0":0.25,"v1":0.5},"geometry":{"type":"Polygon","coordinates":[[[-81.2054,27.8375],[-81.1951,27.8419],[-81.1889,27.8375],[-81.1868,27.8243],[-81.192,27.8221],[-81.2043,27.8309],[-81.2054,27.8375]]]}},{"type":"Feature","properties":{"c":"#c8f500","v0":0.25,"v1":0.5},"geometry":{"type":"Polygon","coordinates":[[[-80.2908,26.4159],[-80.2903,26.4251],[-80.28,26.431],[-80.26,26.4335],[-80.2603,26.4289],[-80.2808,26.4171],[-80.2908,26.4159]]]}},{"type":"Feature","properties":{"c":"#c8f500","v0":0.25,"v1":0.5},"geometry":{"type":"Polygon","coordinates":[[[-81.1432,26.2778],[-81.1211,26.2976],[-81.1027,26.2976],[-81.0881,26.2778],[-81.0881,26.2575],[-81.1027,26.2369],[-81.1211,26.2369],[-81.1432,26.2575],[-81.1432,26.2778]],[[-81.1276,26.2723],[-81.1139,26.2813],[-81.1078,26.2777],[-81.1093,26.2614],[-81.1161,26.257],[-81.1283,26.2642],[-81.1276,26.2723]]]}},{"type":"Feature","properties":{"c":"#ffff00","v0":0.5,"v1":0.75},"geometry":{"type":"Polygon","coordinates":[[[-88.8445,49.0119],[-88.8348,49.0175],[-88.8215,49.0143],[-88.8044,49.0021],[-88.8044,48.9941],[-88.8215,48.9903],[-88.8348,48.9936],[-88.8445,49.004],[-88.8445,49.0119]]]}},{"type":"Feature","properties":{"c":"#ffff00","v0":0.5,"v1":0.75},"geometry":{"type":"Polygon","coordinates":[[[-112.6008,44.3938],[-112.5936,44.4007],[-112.58,44.4008],[-112.56,44.394],[-112.5487,44.3834],[-112.5462,44.369],[-112.5562,44.3613],[-112.5787,44.3603],[-112.5936,44.3675],[-112.6008,44.3827],[-112.6008,44.3938]]]}},{"type":"Feature","properties":{"c":"#ffff00","v0":0.5,"v1":0.75},"geometry":{"type":"Polygon","coordinates":[[[-103.9604,43.5199],[-103.9535,43.5357],[-103.935,43.5479],[-103.905,43.5566],[-103.8666,43.545],[-103.8199,43.5134],[-103.8199,43.4865],[-103.8666,43.4645],[-103.9,43.4565],[-103.92,43.4627],[-103.9385,43.4774],[-103.9554,43.5005],[-103.9604,43.5199]],[[-103.952,43.5193],[-103.9449,43.5338],[-103.9286,43.544],[-103.9029,43.5499],[-103.8712,43.539],[-103.8335,43.5113],[-103.8385,43.4889],[-103.8862,43.4716],[-103.9214,43.4752],[-103.9441,43.4998],[-103.952,43.5193]]]}},{"type":"Feature","properties":{"c":"#ffff00","v0":0.5,"v1":0.75},"geometry":{"type":"Polygon","coordinates":[[[-104.2208,43.3296],[-104.2136,43.3426],[-104.2,43.3519],[-104.18,43.3574],[-104.1541,43.3473],[-104.1224,43.3215],[-104.1224,43.303],[-104.1541,43.2919],[-104.1836,43.2955],[-104.2108,43.3139],[-104.2208,43.3296]],[[-104.2022,43.3303],[-104.1807,43.3446],[-104.1592,43.3409],[-104.1375,43.3194],[-104.1425,43.3067],[-104.1742,43.303],[-104.1957,43.3067],[-104.2072,43.3177],[-104.2022,43.3303]]]}},{"type":"Feature","properties":{"c":"#ffff00","v0":0.5,"v1":0.75},"geometry":{"type":"Polygon","coordinates":[[[-91.7523,38.674],[-91.7241,38.6994],[-91.6867,38.7072],[-91.6402,38.6975],[-91.6077,38.6848],[-91.5893,38.6692],[-91.5873,38.6535],[-91.6016,38.6379],[-91.629,38.622],[-91.6697,38.6058],[-91.7035,38.6019],[-91.7306,38.6103],[-91.7497,38.6262],[-91.7608,38.6496],[-91.7523,38.674]],[[-91.7379,38.6712],[-91.706,38.691],[-91.6681,38.691],[-91.6243,38.6712],[-91.6243,38.6476],[-91.6681,38.62],[-91.7,38.6084],[-91.72,38.6129],[-91.736,38.6267],[-91.7479,38.6498],[-91.7379,38.6712]]]}},{"type":"Feature","properties":{"c":"#ffff00","v0":0.5,"v1":0.75},"geometry":{"type":"Polygon","coordinates":[[[-89.6785,38.0496],[-89.6555,38.0496],[-89.6455,38.0464],[-89.6485,38.04],[-89.66,38.04],[-89.68,38.0464],[-89.6785,38.0496]]]}},{"type":"Feature","properties":{"c":"#ffff00","v0":0.5,"v1":0.75},"geometry":{"type":"Polygon","coordinates":[[[-91.8873,38.0075],[-91.8624,38.0176],[-91.8455,38.0137],[-91.8366,37.9956],[-91.8416,37.9847],[-91.8605,37.9809],[-91.8774,37.9848],[-91.8923,37.9965],[-91.8873,38.0075]]]}},{"type":"Feature","properties":{"c":"#ffff00","v0":0.5,"v1":0.75},"geometry":{"type":"Polygon","coordinates":[[[-89.987,37.9787],[-89.9803,37.9945],[-89.9652,38.006],[-89.9417,38.0132],[-89.9203,38.0132],[-89.9008,38.006],[-89.8845,37.9906],[-89.8714,37.9669],[-89.8811,37.9497],[-89.9137,37.939],[-89.9451,37.9429],[-89.9752,37.9615],[-89.987,37.9787]],[[-89.9602,37.9913],[-89.9267,38.0006],[-89.905,37.9934],[-89.895,37.9698],[-89.905,37.9562],[-89.935,37.9525],[-89.9567,37.9597],[-89.9702,37.9776],[-89.9602,37.9913]]]}},{"type":"Feature","properties":{"c":"#ffff00","v0":0.5,"v1":0.75},"geometry":{"type":"Polygon","coordinates":[[[-86.9096,37.9917],[-86.8965,38.0019],[-86.875,38.0081],[-86.845,38.0103],[-86.8191,38.0013],[-86.7972,37.981],[-86.7922,37.9645],[-86.8041,37.9518],[-86.82,37.9441],[-86.84,37.9416],[-86.8665,37.9519],[-86.8996,37.975],[-86.9096,37.9917]],[[-86.8801,37.9892],[-86.86,37.9945],[-86.8411,37.9905],[-86.8234,37.9774],[-86.8234,37.9672],[-86.8411,37.96],[-86.86,37.9639],[-86.8801,37.9791],[-86.8801,37.9892]]]}},{"type":"Feature","properties":{"c":"#ffff00","v0":0.5,"v1":0.75},"geometry":{"type":"Polygon","coordinates":[[[-86.3832,37.635],[-86.3676,37.6271],[-86.3674,37.6231],[-86.3825,37.623],[-86.3902,37.6269],[-86.3907,37.635],[-86.3832,37.635]]]}},{"type":"Feature","properties":{"c":"#ffff00","v0":0.5,"v1":0.75},"geometry":{"type":"Polygon","coordinates":[[[-114.4068,37.1469],[-114.3956,37.1479],[-114.3897,37.1439],[-114.3892,37.1349],[-114.3948,37.1344],[-114.4065,37.1424],[-114.4068,37.1469]]]}},{"type":"Feature","properties":{"c":"#ffff00","v0":0.5,"v1":0.75},"geometry":{"type":"Polygon","coordinates":[[[-81.1276,26.2723],[-81.1139,26.2813],[-81.1078,26.2777],[-81.1093,26.2614],[-81.1161,26.257],[-81.1283,26.2642],[-81.1276,26.2723]]]}},{"type":"Feature","properties":{"c":"#ffd700","v0":0.75,"v1":1.0},"geometry":{"type":"Polygon","coordinates":[[[-103.952,43.5193],[-103.9449,43.5338],[-103.9286,43.544],[-103.9029,43.5499],[-103.8712,43.539],[-103.8335,43.5113],[-103.8385,43.4889],[-103.8862,43.4716],[-103.9214,43.4752],[-103.9441,43.4998],[-103.952,43.5193]],[[-103.9432,43.5193],[-103.9344,43.5338],[-103.92,43.5425],[-103.9,43.5454],[-103.8788,43.5418],[-103.8563,43.5316],[-103.8415,43.5193],[-103.8343,43.5048],[-103.8506,43.4908],[-103.8902,43.4774],[-103.9194,43.481],[-103.9382,43.5017],[-103.9432,43.5193]]]}},{"type":"Feature","properties":{"c":"#ffd700","v0":0.75,"v1":1.0},"geometry":{"type":"Polygon","coordinates":[[[-104.2022,43.3303],[-104.1807,43.3446],[-104.1592,43.3409],[-104.1375,43.3194],[-104.1425,43.3067],[-104.1742,43.303],[-104.1957,43.3067],[-104.2072,43.3177],[-104.2022,43.3303]],[[-104.1919,43.3279],[-104.1773,43.3374],[-104.1634,43.3374],[-104.1501,43.3279],[-104.1501,43.3194],[-104.1634,43.312],[-104.1773,43.312],[-104.1919,43.3194],[-104.1919,43.3279]]]}},{"type":"Feature","properties":{"c":"#ffd700","v0":0.75,"v1":1.0},"geometry":{"type":"Polygon","coordinates":[[[-91.7379,38.6712],[-91.706,38.691],[-91.6681,38.691],[-91.6243,38.6712],[-91.6243,38.6476],[-91.6681,38.62],[-91.7,38.6084],[-91.72,38.6129],[-91.736,38.6267],[-91.7479,38.6498],[-91.7379,38.6712]],[[-91.7383,38.6527],[-91.7328,38.6665],[-91.72,38.6776],[-91.7,38.6859],[-91.6728,38.6829],[-91.6383,38.6685],[-91.6383,38.6496],[-91.6728,38.6262],[-91.7028,38.6223],[-91.7283,38.6379],[-91.7383,38.6527]]]}},{"type":"Feature","properties":{"c":"#ffd700","v0":0.75,"v1":1.0},"geometry":{"type":"Polygon","coordinates":[[[-89.9602,37.9913],[-89.9267,38.0006],[-89.905,37.9934],[-89.895,37.9698],[-89.905,37.9562],[-89.935,37.9525],[-89.9567,37.9597],[-89.9702,37.9776],[-89.9602,37.9913]],[[-89.9537,37.9901],[-89.9379,37.9972],[-89.9235,37.9933],[-89.9105,37.9783],[-89.9155,37.9691],[-89.9385,37.9656],[-89.9529,37.9695],[-89.9587,37.9809],[-89.9537,37.9901]]]}},{"type":"Feature","properties":{"c":"#ffd700","v0":0.75,"v1":1.0},"geometry":{"type":"Polygon","coordinates":[[[-86.8801,37.9892],[-86.86,37.9945],[-86.8411,37.9905],[-86.8234,37.9774],[-86.8234,37.9672],[-86.8411,37.96],[-86.86,37.9639],[-86.8801,37.9791],[-86.8801,37.9892]]]}},{"type":"Feature","properties":{"c":"#ff8c00","v0":1.0,"v1":1.5},"geometry":{"type":"Polygon","coordinates":[[[-103.9432,43.5193],[-103.9344,43.5338],[-103.92,43.5425],[-103.9,43.5454],[-103.8788,43.5418],[-103.8563,43.5316],[-103.8415,43.5193],[-103.8343,43.5048],[-103.8506,43.4908],[-103.8902,43.4774],[-103.9194,43.481],[-103.9382,43.5017],[-103.9432,43.5193]],[[-103.9279,43.5179],[-103.916,43.5297],[-103.8956,43.5297],[-103.8667,43.5179],[-103.8617,43.5048],[-103.8806,43.4905],[-103.901,43.4905],[-103.9229,43.5048],[-103.9279,43.5179]]]}},{"type":"Feature","properties":{"c":"#ff8c00","v0":1.0,"v1":1.5},"geometry":{"type":"Polygon","coordinates":[[[-104.1919,43.3279],[-104.1773,43.3374],[-104.1634,43.3374],[-104.1501,43.3279],[-104.1501,43.3194],[-104.1634,43.312],[-104.1773,43.312],[-104.1919,43.3194],[-104.1919,43.3279]]]}},{"type":"Feature","properties":{"c":"#ff8c00","v0":1.0,"v1":1.5},"geometry":{"type":"Polygon","coordinates":[[[-91.7383,38.6527],[-91.7328,38.6665],[-91.72,38.6776],[-91.7,38.6859],[-91.6728,38.6829],[-91.6383,38.6685],[-91.6383,38.6496],[-91.6728,38.6262],[-91.7028,38.6223],[-91.7283,38.6379],[-91.7383,38.6527]],[[-91.6915,38.6496],[-91.6724,38.6574],[-91.6646,38.6566],[-91.6682,38.6471],[-91.6778,38.6432],[-91.6933,38.6449],[-91.6915,38.6496]]]}},{"type":"Feature","properties":{"c":"#ff8c00","v0":1.0,"v1":1.5},"geometry":{"type":"Polygon","coordinates":[[[-89.9537,37.9901],[-89.9379,37.9972],[-89.9235,37.9933],[-89.9105,37.9783],[-89.9155,37.9691],[-89.9385,37.9656],[-89.9529,37.9695],[-89.9587,37.9809],[-89.9537,37.9901]]]}},{"type":"Feature","properties":{"c":"#ff4500","v0":1.5,"v1":1.75},"geometry":{"type":"Polygon","coordinates":[[[-103.9279,43.5179],[-103.916,43.5297],[-103.8956,43.5297],[-103.8667,43.5179],[-103.8617,43.5048],[-103.8806,43.4905],[-103.901,43.4905],[-103.9229,43.5048],[-103.9279,43.5179]],[[-103.9217,43.5165],[-103.9139,43.5255],[-103.8983,43.5255],[-103.8748,43.5165],[-103.8698,43.5068],[-103.8833,43.4962],[-103.8989,43.4962],[-103.9167,43.5068],[-103.9217,43.5165]]]}},{"type":"Feature","properties":{"c":"#ff4500","v0":1.5,"v1":1.75},"geometry":{"type":"Polygon","coordinates":[[[-91.6915,38.6496],[-91.6724,38.6574],[-91.6646,38.6566],[-91.6682,38.6471],[-91.6778,38.6432],[-91.6933,38.6449],[-91.6915,38.6496]]]}},{"type":"Feature","properties":{"c":"#ff0000","v0":1.75,"v1":2.0},"geometry":{"type":"Polygon","coordinates":[[[-103.9217,43.5165],[-103.9139,43.5255],[-103.8983,43.5255],[-103.8748,43.5165],[-103.8698,43.5068],[-103.8833,43.4962],[-103.8989,43.4962],[-103.9167,43.5068],[-103.9217,43.5165]],[[-103.9056,43.512],[-103.8863,43.512],[-103.88,43.509],[-103.8867,43.503],[-103.8963,43.503],[-103.9089,43.509],[-103.9056,43.512]]]}},{"type":"Feature","properties":{"c":"#cc0000","v0":2.0,"v1":2.5},"geometry":{"type":"Polygon","coordinates":[[[-103.9056,43.512],[-103.8863,43.512],[-103.88,43.509],[-103.8867,43.503],[-103.8963,43.503],[-103.9089,43.509],[-103.9056,43.512]]]}}]}