{"type":"FeatureCollection","features":[{"type":"Feature","properties":{"c":"#c8f500","v0":0.2,"v1":0.25},"geometry":{"type":"Polygon","coordinates":[[[-104.6013,36.9278],[-104.5804,36.9377],[-104.5641,36.9377],[-104.5522,36.9278],[-104.5522,36.9179],[-104.5641,36.908],[-104.5804,36.908],[-104.6013,36.9179],[-104.6013,36.9278]],[[-104.5954,36.9265],[-104.5785,36.9337],[-104.5661,36.9337],[-104.5582,36.9265],[-104.5582,36.9192],[-104.5661,36.9121],[-104.5785,36.9121],[-104.5954,36.9192],[-104.5954,36.9265]]]}},{"type":"Feature","properties":{"c":"#c8f500","v0":0.2,"v1":0.25},"geometry":{"type":"Polygon","coordinates":[[[-111.4238,35.299],[-111.4095,35.3153],[-111.3893,35.3265],[-111.3631,35.3325],[-111.3387,35.3121],[-111.3161,35.2652],[-111.3161,35.2415],[-111.3387,35.241],[-111.3534,35.2492],[-111.3602,35.2661],[-111.3805,35.2786],[-111.4141,35.2867],[-111.4238,35.299]],[[-111.3981,35.3132],[-111.3794,35.3253],[-111.3617,35.3294],[-111.3452,35.3254],[-111.3319,35.303],[-111.3219,35.2622],[-111.3395,35.2581],[-111.3848,35.2908],[-111.3981,35.3132]]]}},{"type":"Feature","properties":{"c":"#c8f500","v0":0.2,"v1":0.25},"geometry":{"type":"Polygon","coordinates":[[[-85.1744,34.8514],[-85.1581,34.8565],[-85.145,34.8524],[-85.1349,34.8391],[-85.1399,34.8307],[-85.16,34.8272],[-85.1731,34.8313],[-85.1794,34.843],[-85.1744,34.8514]],[[-85.1681,34.85],[-85.156,34.8524],[-85.1478,34.8483],[-85.1434,34.8377],[-85.1484,34.8321],[-85.1628,34.8314],[-85.171,34.8355],[-85.1731,34.8444],[-85.1681,34.85]]]}},{"type":"Feature","properties":{"c":"#c8f500","v0":0.2,"v1":0.25},"geometry":{"type":"Polygon","coordinates":[[[-110.7299,34.2958],[-110.7166,34.3098],[-110.7,34.3182],[-110.68,34.321],[-110.6591,34.3098],[-110.6374,34.2848],[-110.6474,34.2693],[-110.6891,34.2633],[-110.7166,34.2674],[-110.7299,34.2817],[-110.7299,34.2958]],[[-110.7213,34.2966],[-110.7004,34.3121],[-110.6759,34.3121],[-110.6477,34.2966],[-110.6342,34.2847],[-110.6354,34.2764],[-110.6495,34.27],[-110.6765,34.2655],[-110.7004,34.2696],[-110.7213,34.2824],[-110.7213,34.2966]]]}},{"type":"Feature","properties":{"c":"#c8f500","v0":0.2,"v1":0.25},"geometry":{"type":"Polygon","coordinates":[[[-83.9696,34.1504],[-83.9565,34.1713],[-83.945,34.1662],[-83.935,34.1353],[-83.9415,34.1249],[-83.9646,34.1349],[-83.9696,34.1504]],[[-83.9586,34.1604],[-83.9529,34.1681],[-83.95,34.1627],[-83.95,34.1442],[-83.9529,34.1403],[-83.9586,34.1511],[-83.9586,34.1604]]]}},{"type":"Feature","properties":{"c":"#c8f500","v0":0.2,"v1":0.25},"geometry":{"type":"Polygon","coordinates":[[[-107.4355,34.0458],[-107.4185,34.0563],[-107.4032,34.0563],[-107.3897,34.0458],[-107.3897,34.0321],[-107.4032,34.0153],[-107.4185,34.0153],[-107.4355,34.0321],[-107.4355,34.0458]],[[-107.4313,34.0447],[-107.4171,34.0529],[-107.4045,34.0529],[-107.3935,34.0447],[-107.3935,34.0334],[-107.4045,34.0191],[-107.4171,34.0191],[-107.4313,34.0334],[-107.4313,34.0447]]]}},{"type":"Feature","properties":{"c":"#c8f500","v0":0.2,"v1":0.25},"geometry":{"type":"Polygon","coordinates":[[[-108.1125,33.2291],[-108.0975,33.2383],[-108.0838,33.2383],[-108.0713,33.2291],[-108.0713,33.2199],[-108.0838,33.2105],[-108.0975,33.2105],[-108.1125,33.2199],[-108.1125,33.2291]]]}},{"type":"Feature","properties":{"c":"#c8f500","v0":0.2,"v1":0.25},"geometry":{"type":"Polygon","coordinates":[[[-91.738,31.3903],[-91.7193,31.4069],[-91.7028,31.4026],[-91.6884,31.3775],[-91.6934,31.3596],[-91.7178,31.3492],[-91.7343,31.3534],[-91.743,31.3724],[-91.738,31.3903]],[[-91.7353,31.3892],[-91.7184,31.4037],[-91.7039,31.3994],[-91.6917,31.3764],[-91.6967,31.3608],[-91.7189,31.3527],[-91.7334,31.357],[-91.7403,31.3736],[-91.7353,31.3892]]]}},{"type":"Feature","properties":{"c":"#c8f500","v0":0.2,"v1":0.25},"geometry":{"type":"Polygon","coordinates":[[[-81.1059,27.1129],[-81.082,27.1231],[-81.0636,27.1186],[-81.0509,27.0995],[-81.0559,27.0871],[-81.0786,27.0813],[-81.097,27.0858],[-81.1109,27.1004],[-81.1059,27.1129]],[[-81.1018,27.1115],[-81.0806,27.1189],[-81.0651,27.1145],[-81.0554,27.0981],[-81.0604,27.0882],[-81.0801,27.0848],[-81.0956,27.0893],[-81.1068,27.1016],[-81.1018,27.1115]]]}},{"type":"Feature","properties":{"c":"#c8f500","v0":0.2,"v1":0.25},"geometry":{"type":"Polygon","coordinates":[[[-79.2332,26.883],[-79.2177,26.8969],[-79.2025,26.9014],[-79.1874,26.8964],[-79.1874,26.8824],[-79.2025,26.8594],[-79.2177,26.8549],[-79.2332,26.869],[-79.2332,26.883]],[[-79.2228,26.8805],[-79.2031,26.8894],[-79.1974,26.885],[-79.2058,26.8671],[-79.2157,26.8626],[-79.227,26.8716],[-79.2228,26.8805]]]}},{"type":"Feature","properties":{"c":"#c8f500","v0":0.2,"v1":0.25},"geometry":{"type":"Polygon","coordinates":[[[-102.0609,26.7379],[-102.0403,26.7473],[-102.018,26.7429],[-101.9941,26.7245],[-101.9941,26.708],[-102.018,26.6933],[-102.0403,26.6978],[-102.0609,26.7214],[-102.0609,26.7379]],[[-102.0575,26.7372],[-102.0392,26.7452],[-102.0191,26.7407],[-101.9972,26.7238],[-101.9972,26.7088],[-102.0191,26.6956],[-102.0392,26.7],[-102.0575,26.7222],[-102.0575,26.7372]]]}},{"type":"Feature","properties":{"c":"#c8f500","v0":0.2,"v1":0.25},"geometry":{"type":"Polygon","coordinates":[[[-81.9638,26.5983],[-81.9546,26.6144],[-81.94,26.621],[-81.92,26.6181],[-81.8973,26.5743],[-81.8718,26.4895],[-81.8618,26.4401],[-81.8673,26.4262],[-81.8835,26.4262],[-81.9106,26.4401],[-81.9225,26.465],[-81.9194,26.5008],[-81.9304,26.5366],[-81.9557,26.5724],[-81.9638,26.5983]],[[-81.9535,26.5982],[-81.9378,26.614],[-81.9257,26.6184],[-81.917,26.6116],[-81.907,26.5835],[-81.8957,26.5342],[-81.905,26.52],[-81.935,26.541],[-81.9528,26.5612],[-81.9585,26.5806],[-81.9535,26.5982]],[[-81.9195,26.4722],[-81.9132,26.4867],[-81.905,26.4932],[-81.895,26.4917],[-81.8844,26.4756],[-81.8731,26.4446],[-81.8753,26.4292],[-81.8909,26.4292],[-81.9047,26.4381],[-81.9167,26.456],[-81.9195,26.4722]]]}},{"type":"Feature","properties":{"c":"#c8f500","v0":0.2,"v1":0.25},"geometry":{"type":"Polygon","coordinates":[[[-82.6607,22.8912],[-82.6269,22.9031],[-82.595,22.8995],[-82.565,22.8804],[-82.535,22.8722],[-82.505,22.8747],[-82.4846,22.8644],[-82.4737,22.8415],[-82.4887,22.8332],[-82.5296,22.8396],[-82.56,22.8368],[-82.58,22.8248],[-82.6119,22.8355],[-82.6557,22.8687],[-82.6607,22.8912]],[[-82.5327,22.8547],[-82.5176,22.8674],[-82.5003,22.8674],[-82.4808,22.8547],[-82.4758,22.8427],[-82.4853,22.8312],[-82.5026,22.8312],[-82.5277,22.8427],[-82.5327,22.8547]],[[-82.6519,22.8895],[-82.624,22.8979],[-82.5963,22.8887],[-82.5688,22.8619],[-82.5638,22.843],[-82.5813,22.8321],[-82.609,22.8413],[-82.6469,22.8706],[-82.6519,22.8895]]]}},{"type":"Feature","properties":{"c":"#c8f500","v0":0.2,"v1":0.25},"geometry":{"type":"Polygon","coordinates":[[[-81.8864,22.6506],[-81.8755,22.6609],[-81.8596,22.6609],[-81.8389,22.6506],[-81.8389,22.6395],[-81.8596,22.6276],[-81.8755,22.6276],[-81.8864,22.6395],[-81.8864,22.6506]],[[-81.8718,22.6455],[-81.8495,22.6455],[-81.8462,22.6409],[-81.8621,22.6317],[-81.8733,22.6317],[-81.8798,22.6409],[-81.8718,22.6455]]]}},{"type":"Feature","properties":{"c":"#c8f500","v0":0.2,"v1":0.25},"geometry":{"type":"Polygon","coordinates":[[[-81.9758,22.3933],[-81.9719,22.4062],[-81.9565,22.4108],[-81.9296,22.4072],[-81.9196,22.3981],[-81.9265,22.3837],[-81.9419,22.379],[-81.9658,22.3842],[-81.9758,22.3933]],[[-81.9717,22.3919],[-81.9706,22.4022],[-81.9583,22.4068],[-81.935,22.4058],[-81.925,22.3993],[-81.9283,22.3873],[-81.9406,22.3827],[-81.9617,22.3855],[-81.9717,22.3919]]]}},{"type":"Feature","properties":{"c":"#c8f500","v0":0.2,"v1":0.25},"geometry":{"type":"Polygon","coordinates":[[[-81.6477,22.3552],[-81.6359,22.366],[-81.6261,22.366],[-81.6184,22.3552],[-81.6184,22.3458],[-81.6261,22.3377],[-81.6359,22.3377],[-81.6477,22.3458],[-81.6477,22.3552]]]}},{"type":"Feature","properties":{"c":"#c8f500","v0":0.25,"v1":0.5},"geometry":{"type":"Polygon","coordinates":[[[-104.5954,36.9265],[-104.5785,36.9337],[-104.5661,36.9337],[-104.5582,36.9265],[-104.5582,36.9192],[-104.5661,36.9121],[-104.5785,36.9121],[-104.5954,36.9192],[-104.5954,36.9265]]]}},{"type":"Feature","properties":{"c":"#c8f500","v0":0.25,"v1":0.5},"geometry":{"type":"Polygon","coordinates":[[[-111.3981,35.3132],[-111.3794,35.3253],[-111.3617,35.3294],[-111.3452,35.3254],[-111.3319,35.303],[-111.3219,35.2622],[-111.3395,35.2581],[-111.3848,35.2908],[-111.3981,35.3132]]]}},{"type":"Feature","properties":{"c":"#c8f500","v0":0.25,"v1":0.5},"geometry":{"type":"Polygon","coordinates":[[[-85.1681,34.85],[-85.156,34.8524],[-85.1478,34.8483],[-85.1434,34.8377],[-85.1484,34.8321],[-85.1628,34.8314],[-85.171,34.8355],[-85.1731,34.8444],[-85.1681,34.85]]]}},{"type":"Feature","properties":{"c":"#c8f500","v0":0.25,"v1":0.5},"geometry":{"type":"Polygon","coordinates":[[[-110.7213,34.2966],[-110.7004,34.3121],[-110.6759,34.3121],[-110.6477,34.2966],[-110.6342,34.2847],[-110.6354,34.2764],[-110.6495,34.27],[-110.6765,34.2655],[-110.7004,34.2696],[-110.7213,34.2824],[-110.7213,34.2966]]]}},{"type":"Feature","properties":{"c":"#c8f500","v0":0.25,"v1":0.5},"geometry":{"type":"Polygon","coordinates":[[[-83.9586,34.1604],[-83.9529,34.1681],[-83.95,34.1627],[-83.95,34.1442],[-83.9529,34.1403],[-83.9586,34.1511],[-83.9586,34.1604]]]}},{"type":"Feature","properties":{"c":"#c8f500","v0":0.25,"v1":0.5},"geometry":{"type":"Polygon","coordinates":[[[-107.4313,34.0447],[-107.4171,34.0529],[-107.4045,34.0529],[-107.3935,34.0447],[-107.3935,34.0334],[-107.4045,34.0191],[-107.4171,34.0191],[-107.4313,34.0334],[-107.4313,34.0447]]]}},{"type":"Feature","properties":{"c":"#c8f500","v0":0.25,"v1":0.5},"geometry":{"type":"Polygon","coordinates":[[[-91.7353,31.3892],[-91.7184,31.4037],[-91.7039,31.3994],[-91.6917,31.3764],[-91.6967,31.3608],[-91.7189,31.3527],[-91.7334,31.357],[-91.7403,31.3736],[-91.7353,31.3892]]]}},{"type":"Feature","properties":{"c":"#c8f500","v0":0.25,"v1":0.5},"geometry":{"type":"Polygon","coordinates":[[[-81.1018,27.1115],[-81.0806,27.1189],[-81.0651,27.1145],[-81.0554,27.0981],[-81.0604,27.0882],[-81.0801,27.0848],[-81.0956,27.0893],[-81.1068,27.1016],[-81.1018,27.1115]]]}},{"type":"Feature","properties":{"c":"#c8f500","v0":0.25,"v1":0.5},"geometry":{"type":"Polygon","coordinates":[[[-79.2228,26.8805],[-79.2031,26.8894],[-79.1974,26.885],[-79.2058,26.8671],[-79.2157,26.8626],[-79.227,26.8716],[-79.2228,26.8805]]]}},{"type":"Feature","properties":{"c":"#c8f500","v0":0.25,"v1":0.5},"geometry":{"type":"Polygon","coordinates":[[[-102.0575,26.7372],[-102.0392,26.7452],[-102.0191,26.7407],[-101.9972,26.7238],[-101.9972,26.7088],[-102.0191,26.6956],[-102.0392,26.7],[-102.0575,26.7222],[-102.0575,26.7372]],[[-102.0419,26.7207],[-102.034,26.7313],[-102.0233,26.7313],[-102.0099,26.7207],[-102.0138,26.7154],[-102.0352,26.7154],[-102.0419,26.7207]]]}},{"type":"Feature","properties":{"c":"#c8f500","v0":0.25,"v1":0.5},"geometry":{"type":"Polygon","coordinates":[[[-81.9535,26.5982],[-81.9378,26.614],[-81.9257,26.6184],[-81.917,26.6116],[-81.907,26.5835],[-81.8957,26.5342],[-81.905,26.52],[-81.935,26.541],[-81.9528,26.5612],[-81.9585,26.5806],[-81.9535,26.5982]]]}},{"type":"Feature","properties":{"c":"#c8f500","v0":0.25,"v1":0.5},"geometry":{"type":"Polygon","coordinates":[[[-81.9195,26.4722],[-81.9132,26.4867],[-81.905,26.4932],[-81.895,26.4917],[-81.8844,26.4756],[-81.8731,26.4446],[-81.8753,26.4292],[-81.8909,26.4292],[-81.9047,26.4381],[-81.9167,26.456],[-81.9195,26.4722]]]}},{"type":"Feature","properties":{"c":"#c8f500","v0":0.25,"v1":0.5},"geometry":{"type":"Polygon","coordinates":[[[-82.6519,22.8895],[-82.624,22.8979],[-82.5963,22.8887],[-82.5688,22.8619],[-82.5638,22.843],[-82.5813,22.8321],[-82.609,22.8413],[-82.6469,22.8706],[-82.6519,22.8895]]]}},{"type":"Feature","properties":{"c":"#c8f500","v0":0.25,"v1":0.5},"geometry":{"type":"Polygon","coordinates":[[[-82.5327,22.8547],[-82.5176,22.8674],[-82.5003,22.8674],[-82.4808,22.8547],[-82.4758,22.8427],[-82.4853,22.8312],[-82.5026,22.8312],[-82.5277,22.8427],[-82.5327,22.8547]]]}},{"type":"Feature","properties":{"c":"#c8f500","v0":0.25,"v1":0.5},"geometry":{"type":"Polygon","coordinates":[[[-81.8718,22.6455],[-81.8495,22.6455],[-81.8462,22.6409],[-81.8621,22.6317],[-81.8733,22.6317],[-81.8798,22.6409],[-81.8718,22.6455]]]}},{"type":"Feature","properties":{"c":"#c8f500","v0":0.25,"v1":0.5},"geometry":{"type":"Polygon","coordinates":[[[-81.9717,22.3919],[-81.9706,22.4022],[-81.9583,22.4068],[-81.935,22.4058],[-81.925,22.3993],[-81.9283,22.3873],[-81.9406,22.3827],[-81.9617,22.3855],[-81.9717,22.3919]]]}},{"type":"Feature","properties":{"c":"#ffff00","v0":0.5,"v1":0.75},"geometry":{"type":"Polygon","coordinates":[[[-102.0419,26.7207],[-102.034,26.7313],[-102.0233,26.7313],[-102.0099,26.7207],[-102.0138,26.7154],[-102.0352,26.7154],[-102.0419,26.7207]]]}}]}