{"type":"FeatureCollection","features":[{"type":"Feature","properties":{"c":"#c8f500","v0":0.2,"v1":0.25},"geometry":{"type":"Polygon","coordinates":[[[-126.1571,54.781],[-126.139,54.7917],[-126.1191,54.7946],[-126.0972,54.7897],[-126.0927,54.7814],[-126.1057,54.7699],[-126.1217,54.7635],[-126.1406,54.7624],[-126.154,54.7652],[-126.1621,54.7722],[-126.1571,54.781]],[[-126.1362,54.7785],[-126.115,54.7843],[-126.1059,54.7835],[-126.1086,54.7762],[-126.1192,54.7733],[-126.1376,54.7749],[-126.1362,54.7785]]]}},{"type":"Feature","properties":{"c":"#c8f500","v0":0.2,"v1":0.25},"geometry":{"type":"Polygon","coordinates":[[[-102.7308,41.2395],[-102.7169,41.2446],[-102.7048,41.2409],[-102.6945,41.2282],[-102.6945,41.2196],[-102.7048,41.215],[-102.7169,41.2188],[-102.7308,41.2308],[-102.7308,41.2395]]]}},{"type":"Feature","properties":{"c":"#c8f500","v0":0.2,"v1":0.25},"geometry":{"type":"Polygon","coordinates":[[[-102.8922,40.9415],[-102.8774,40.9539],[-102.8612,40.9539],[-102.8435,40.9415],[-102.8385,40.915],[-102.8462,40.8743],[-102.86,40.8572],[-102.88,40.8637],[-102.8924,40.8841],[-102.8972,40.9183],[-102.8922,40.9415]],[[-102.8872,40.9401],[-102.8757,40.9496],[-102.8616,40.9458],[-102.8447,40.9288],[-102.8397,40.9056],[-102.8466,40.8763],[-102.855,40.8601],[-102.865,40.857],[-102.8757,40.8754],[-102.8872,40.9154],[-102.8872,40.9401]]]}},{"type":"Feature","properties":{"c":"#c8f500","v0":0.2,"v1":0.25},"geometry":{"type":"Polygon","coordinates":[[[-103.7127,40.7141],[-103.6976,40.7257],[-103.6793,40.7257],[-103.6579,40.7141],[-103.6579,40.699],[-103.6793,40.6805],[-103.6976,40.6805],[-103.7127,40.699],[-103.7127,40.7141]],[[-103.7093,40.7133],[-103.6964,40.7232],[-103.6806,40.7232],[-103.6618,40.7133],[-103.6618,40.7],[-103.6806,40.6833],[-103.6964,40.6833],[-103.7093,40.7],[-103.7093,40.7133]]]}},{"type":"Feature","properties":{"c":"#c8f500","v0":0.2,"v1":0.25},"geometry":{"type":"Polygon","coordinates":[[[-90.1735,38.0855],[-90.1578,38.0942],[-90.147,38.0942],[-90.141,38.0855],[-90.146,38.0768],[-90.162,38.0682],[-90.1728,38.0682],[-90.1785,38.0768],[-90.1735,38.0855]]]}},{"type":"Feature","properties":{"c":"#c8f500","v0":0.2,"v1":0.25},"geometry":{"type":"Polygon","coordinates":[[[-90.2907,38.0066],[-90.2769,38.0152],[-90.2611,38.0152],[-90.2432,38.0066],[-90.2432,37.9959],[-90.2611,37.9828],[-90.2769,37.9828],[-90.2907,37.9959],[-90.2907,38.0066]],[[-90.2868,38.0055],[-90.2756,38.0117],[-90.2627,38.0117],[-90.248,38.0055],[-90.248,37.9968],[-90.2627,37.9855],[-90.2756,37.9855],[-90.2868,37.9968],[-90.2868,38.0055]]]}},{"type":"Feature","properties":{"c":"#c8f500","v0":0.2,"v1":0.25},"geometry":{"type":"Polygon","coordinates":[[[-90.6578,37.7972],[-90.6432,37.7972],[-90.6394,37.7929],[-90.6465,37.7842],[-90.6538,37.7842],[-90.6613,37.7929],[-90.6578,37.7972]]]}},{"type":"Feature","properties":{"c":"#c8f500","v0":0.2,"v1":0.25},"geometry":{"type":"Polygon","coordinates":[[[-90.8674,37.7249],[-90.8558,37.7384],[-90.845,37.7442],[-90.835,37.7422],[-90.825,37.7266],[-90.815,37.6974],[-90.82,37.6816],[-90.84,37.6792],[-90.8558,37.6881],[-90.8674,37.7081],[-90.8674,37.7249]],[[-90.859,37.7221],[-90.8459,37.73],[-90.8338,37.7221],[-90.8226,37.6984],[-90.8252,37.686],[-90.8417,37.6851],[-90.8539,37.693],[-90.8616,37.7097],[-90.859,37.7221]]]}},{"type":"Feature","properties":{"c":"#c8f500","v0":0.2,"v1":0.25},"geometry":{"type":"Polygon","coordinates":[[[-91.0821,37.6214],[-91.0474,37.6495],[-91.0135,37.6575],[-90.9804,37.6451],[-90.9804,37.6278],[-91.0135,37.6055],[-91.0474,37.5976],[-91.0821,37.6041],[-91.0821,37.6214]],[[-91.0726,37.6205],[-91.0442,37.6469],[-91.0148,37.6549],[-90.9845,37.6443],[-90.9845,37.6289],[-91.0148,37.6087],[-91.0442,37.6008],[-91.0726,37.6051],[-91.0726,37.6205]]]}},{"type":"Feature","properties":{"c":"#c8f500","v0":0.2,"v1":0.25},"geometry":{"type":"Polygon","coordinates":[[[-77.1231,33.3115],[-77.1144,33.3181],[-77.1047,33.3181],[-77.094,33.3115],[-77.094,33.3047],[-77.1047,33.2978],[-77.1144,33.2978],[-77.1231,33.3047],[-77.1231,33.3115]]]}},{"type":"Feature","properties":{"c":"#c8f500","v0":0.2,"v1":0.25},"geometry":{"type":"Polygon","coordinates":[[[-79.748,30.0107],[-79.736,30.0201],[-79.7268,30.0201],[-79.7204,30.0107],[-79.7264,30.006],[-79.7448,30.006],[-79.748,30.0107]]]}},{"type":"Feature","properties":{"c":"#c8f500","v0":0.2,"v1":0.25},"geometry":{"type":"Polygon","coordinates":[[[-79.9562,29.9801],[-79.9254,29.9976],[-79.905,29.9883],[-79.895,29.952],[-79.9,29.9322],[-79.92,29.9287],[-79.9404,29.9381],[-79.9612,29.9603],[-79.9562,29.9801]],[[-79.9489,29.9764],[-79.923,29.9864],[-79.9074,29.9778],[-79.9023,29.9504],[-79.9073,29.9361],[-79.9224,29.9349],[-79.938,29.9435],[-79.9539,29.9621],[-79.9489,29.9764]]]}},{"type":"Feature","properties":{"c":"#c8f500","v0":0.2,"v1":0.25},"geometry":{"type":"Polygon","coordinates":[[[-79.6175,29.9822],[-79.5992,30.0038],[-79.5803,30.0082],[-79.5609,29.9952],[-79.5492,29.9801],[-79.5453,29.9627],[-79.555,29.9468],[-79.5783,29.9323],[-79.5992,29.9367],[-79.6175,29.9598],[-79.6175,29.9822]],[[-79.6121,29.9805],[-79.5974,29.9988],[-79.5799,29.9945],[-79.5596,29.9675],[-79.5596,29.9483],[-79.5799,29.9368],[-79.5974,29.9411],[-79.6121,29.9613],[-79.6121,29.9805]]]}},{"type":"Feature","properties":{"c":"#c8f500","v0":0.2,"v1":0.25},"geometry":{"type":"Polygon","coordinates":[[[-79.811,24.924],[-79.8024,24.9421],[-79.7861,24.9541],[-79.762,24.96],[-79.7323,24.9509],[-79.6969,24.9269],[-79.6819,24.9087],[-79.6873,24.8962],[-79.7,24.8871],[-79.72,24.8815],[-79.7513,24.8877],[-79.794,24.9059],[-79.811,24.924]],[[-79.8031,24.9237],[-79.7944,24.9413],[-79.78,24.9524],[-79.76,24.9568],[-79.7346,24.948],[-79.7037,24.926],[-79.6987,24.9074],[-79.7196,24.8923],[-79.7494,24.8923],[-79.7881,24.9074],[-79.8031,24.9237]]]}},{"type":"Feature","properties":{"c":"#c8f500","v0":0.25,"v1":0.5},"geometry":{"type":"Polygon","coordinates":[[[-126.1362,54.7785],[-126.115,54.7843],[-126.1059,54.7835],[-126.1086,54.7762],[-126.1192,54.7733],[-126.1376,54.7749],[-126.1362,54.7785]]]}},{"type":"Feature","properties":{"c":"#c8f500","v0":0.25,"v1":0.5},"geometry":{"type":"Polygon","coordinates":[[[-102.8872,40.9401],[-102.8757,40.9496],[-102.8616,40.9458],[-102.8447,40.9288],[-102.8397,40.9056],[-102.8466,40.8763],[-102.855,40.8601],[-102.865,40.857],[-102.8757,40.8754],[-102.8872,40.9154],[-102.8872,40.9401]]]}},{"type":"Feature","properties":{"c":"#c8f500","v0":0.25,"v1":0.5},"geometry":{"type":"Polygon","coordinates":[[[-103.7093,40.7133],[-103.6964,40.7232],[-103.6806,40.7232],[-103.6618,40.7133],[-103.6618,40.7],[-103.6806,40.6833],[-103.6964,40.6833],[-103.7093,40.7],[-103.7093,40.7133]]]}},{"type":"Feature","properties":{"c":"#c8f500","v0":0.25,"v1":0.5},"geometry":{"type":"Polygon","coordinates":[[[-90.2868,38.0055],[-90.2756,38.0117],[-90.2627,38.0117],[-90.248,38.0055],[-90.248,37.9968],[-90.2627,37.9855],[-90.2756,37.9855],[-90.2868,37.9968],[-90.2868,38.0055]]]}},{"type":"Feature","properties":{"c":"#c8f500","v0":0.25,"v1":0.5},"geometry":{"type":"Polygon","coordinates":[[[-90.859,37.7221],[-90.8459,37.73],[-90.8338,37.7221],[-90.8226,37.6984],[-90.8252,37.686],[-90.8417,37.6851],[-90.8539,37.693],[-90.8616,37.7097],[-90.859,37.7221]]]}},{"type":"Feature","properties":{"c":"#c8f500","v0":0.25,"v1":0.5},"geometry":{"type":"Polygon","coordinates":[[[-91.0726,37.6205],[-91.0442,37.6469],[-91.0148,37.6549],[-90.9845,37.6443],[-90.9845,37.6289],[-91.0148,37.6087],[-91.0442,37.6008],[-91.0726,37.6051],[-91.0726,37.6205]]]}},{"type":"Feature","properties":{"c":"#c8f500","v0":0.25,"v1":0.5},"geometry":{"type":"Polygon","coordinates":[[[-79.6121,29.9805],[-79.5974,29.9988],[-79.5799,29.9945],[-79.5596,29.9675],[-79.5596,29.9483],[-79.5799,29.9368],[-79.5974,29.9411],[-79.6121,29.9613],[-79.6121,29.9805]]]}},{"type":"Feature","properties":{"c":"#c8f500","v0":0.25,"v1":0.5},"geometry":{"type":"Polygon","coordinates":[[[-79.9489,29.9764],[-79.923,29.9864],[-79.9074,29.9778],[-79.9023,29.9504],[-79.9073,29.9361],[-79.9224,29.9349],[-79.938,29.9435],[-79.9539,29.9621],[-79.9489,29.9764]]]}},{"type":"Feature","properties":{"c":"#c8f500","v0":0.25,"v1":0.5},"geometry":{"type":"Polygon","coordinates":[[[-79.8031,24.9237],[-79.7944,24.9413],[-79.78,24.9524],[-79.76,24.9568],[-79.7346,24.948],[-79.7037,24.926],[-79.6987,24.9074],[-79.7196,24.8923],[-79.7494,24.8923],[-79.7881,24.9074],[-79.8031,24.9237]]]}}]}