{"type":"FeatureCollection","features":[{"type":"Feature","properties":{"c":"#c8f500","v0":0.2,"v1":0.25},"geometry":{"type":"Polygon","coordinates":[[[-112.4642,54.9902],[-112.4414,54.9821],[-112.4158,54.9821],[-112.3875,54.9902],[-112.3875,54.9897],[-112.4158,54.9805],[-112.4414,54.9805],[-112.4642,54.9897],[-112.4642,54.9902]]]}},{"type":"Feature","properties":{"c":"#c8f500","v0":0.2,"v1":0.25},"geometry":{"type":"Polygon","coordinates":[[[-112.2423,54.934],[-112.2274,54.9512],[-112.2205,54.9684],[-112.2214,54.9857],[-112.2198,54.9857],[-112.2156,54.9684],[-112.2213,54.9512],[-112.2368,54.934],[-112.2359,54.9216],[-112.2186,54.914],[-112.1984,54.914],[-112.1752,54.9216],[-112.1601,54.934],[-112.1531,54.9512],[-112.1324,54.9684],[-112.098,54.9857],[-112.0961,54.9857],[-112.1268,54.9684],[-112.1517,54.9483],[-112.1708,54.9254],[-112.1927,54.9127],[-112.2176,54.9102],[-112.2349,54.9131],[-112.2447,54.9213],[-112.2423,54.934]]]}},{"type":"Feature","properties":{"c":"#c8f500","v0":0.2,"v1":0.25},"geometry":{"type":"Polygon","coordinates":[[[-116.0719,54.5443],[-116.0642,54.5907],[-116.0477,54.6207],[-116.0226,54.6344],[-116.0044,54.6373],[-115.9931,54.6294],[-115.9884,54.6109],[-115.9903,54.582],[-116.0036,54.553],[-116.0283,54.524],[-116.0495,54.5124],[-116.067,54.5182],[-116.0719,54.5443]],[[-116.0627,54.5443],[-116.0576,54.5907],[-116.0438,54.6197],[-116.0213,54.6314],[-116.0053,54.6314],[-115.9958,54.6197],[-115.993,54.6022],[-115.9968,54.5791],[-116.0083,54.5559],[-116.0273,54.5327],[-116.0439,54.5211],[-116.0581,54.5211],[-116.0627,54.5443]]]}},{"type":"Feature","properties":{"c":"#c8f500","v0":0.2,"v1":0.25},"geometry":{"type":"Polygon","coordinates":[[[-111.5579,54.5095],[-111.5476,54.5327],[-111.5294,54.555],[-111.5031,54.5766],[-111.47,54.5861],[-111.43,54.5836],[-111.39,54.5919],[-111.35,54.6109],[-111.315,54.6192],[-111.285,54.6167],[-111.2635,54.6121],[-111.2505,54.6055],[-111.2437,54.5936],[-111.2431,54.5762],[-111.2698,54.5617],[-111.3238,54.5501],[-111.3528,54.5385],[-111.3568,54.5269],[-111.3315,54.5171],[-111.2772,54.5092],[-111.2362,54.4975],[-111.2087,54.4822],[-111.1846,54.4601],[-111.1638,54.431],[-111.1725,54.4049],[-111.2108,54.3819],[-111.245,54.3707],[-111.275,54.3714],[-111.3,54.3756],[-111.32,54.3832],[-111.34,54.4002],[-111.36,54.4268],[-111.4042,54.44],[-111.4726,54.4398],[-111.5209,54.4543],[-111.549,54.4833],[-111.5579,54.5095]],[[-111.5391,54.519],[-111.5064,54.5612],[-111.47,54.5814],[-111.43,54.5796],[-111.39,54.5884],[-111.35,54.6076],[-111.315,54.6159],[-111.285,54.6133],[-111.2634,54.6067],[-111.2502,54.596],[-111.2452,54.5845],[-111.2484,54.5721],[-111.2775,54.5605],[-111.3324,54.5497],[-111.3626,54.5385],[-111.3681,54.5269],[-111.3406,54.5161],[-111.2802,54.5062],[-111.2378,54.4946],[-111.2134,54.4813],[-111.1904,54.4601],[-111.1689,54.431],[-111.1761,54.4072],[-111.212,54.3886],[-111.245,54.3788],[-111.275,54.3777],[-111.2999,54.3812],[-111.3197,54.3892],[-111.3397,54.4067],[-111.3599,54.4337],[-111.4,54.4474],[-111.46,54.4479],[-111.5064,54.4605],[-111.5391,54.4854],[-111.5391,54.519]]]}},{"type":"Feature","properties":{"c":"#c8f500","v0":0.2,"v1":0.25},"geometry":{"type":"Polygon","coordinates":[[[-111.3322,54.145],[-111.3111,54.1859],[-111.2879,54.2078],[-111.2626,54.2106],[-111.239,54.1989],[-111.217,54.1727],[-111.2093,54.1479],[-111.2161,54.1244],[-111.2371,54.1063],[-111.2724,54.0935],[-111.3,54.0903],[-111.32,54.0968],[-111.3332,54.1061],[-111.3396,54.1183],[-111.3322,54.145]],[[-111.3279,54.145],[-111.306,54.1859],[-111.2838,54.207],[-111.2613,54.2082],[-111.2403,54.1965],[-111.2209,54.1719],[-111.2146,54.1479],[-111.2214,54.1244],[-111.2411,54.1071],[-111.2737,54.0958],[-111.2988,54.0928],[-111.3165,54.0983],[-111.3287,54.1069],[-111.3355,54.1186],[-111.3279,54.145]]]}},{"type":"Feature","properties":{"c":"#c8f500","v0":0.2,"v1":0.25},"geometry":{"type":"Polygon","coordinates":[[[-117.0219,53.2802],[-117.0006,53.3207],[-116.98,53.3437],[-116.96,53.3492],[-116.9371,53.3409],[-116.9114,53.3188],[-116.9055,53.2928],[-116.9192,53.2629],[-116.9421,53.2421],[-116.974,53.2305],[-116.9982,53.2275],[-117.0145,53.2332],[-117.0251,53.242],[-117.03,53.2539],[-117.0219,53.2802]],[[-117.0189,53.2787],[-116.9996,53.3163],[-116.98,53.3383],[-116.96,53.3447],[-116.9391,53.3409],[-116.9172,53.3268],[-116.9097,53.3048],[-116.9165,53.2749],[-116.9375,53.2517],[-116.9725,53.2352],[-116.9996,53.2352],[-117.0189,53.2517],[-117.0189,53.2787]]]}},{"type":"Feature","properties":{"c":"#c8f500","v0":0.2,"v1":0.25},"geometry":{"type":"Polygon","coordinates":[[[-117.0609,53.191],[-117.0403,53.1969],[-117.0226,53.1939],[-117.0077,53.182],[-117.0127,53.1733],[-117.0376,53.1676],[-117.0553,53.1706],[-117.0659,53.1822],[-117.0609,53.191]],[[-117.0559,53.1901],[-117.0386,53.194],[-117.0243,53.1911],[-117.0129,53.1811],[-117.0179,53.1742],[-117.0393,53.1705],[-117.0536,53.1735],[-117.0609,53.1832],[-117.0559,53.1901]]]}},{"type":"Feature","properties":{"c":"#c8f500","v0":0.2,"v1":0.25},"geometry":{"type":"Polygon","coordinates":[[[-86.8473,33.8581],[-86.8326,33.8581],[-86.8315,33.8538],[-86.8438,33.8453],[-86.8512,33.8453],[-86.8535,33.8538],[-86.8473,33.8581]]]}},{"type":"Feature","properties":{"c":"#c8f500","v0":0.2,"v1":0.25},"geometry":{"type":"Polygon","coordinates":[[[-86.9366,33.7626],[-86.9322,33.7712],[-86.9248,33.7712],[-86.9143,33.7626],[-86.9165,33.7583],[-86.9314,33.7583],[-86.9366,33.7626]]]}},{"type":"Feature","properties":{"c":"#c8f500","v0":0.2,"v1":0.25},"geometry":{"type":"Polygon","coordinates":[[[-109.6062,31.009],[-109.5821,31.0159],[-109.5652,31.0117],[-109.5556,30.9961],[-109.5606,30.9838],[-109.5802,30.9748],[-109.5971,30.9791],[-109.6112,30.9967],[-109.6062,31.009]],[[-109.6008,31.0074],[-109.5803,31.0113],[-109.5671,31.007],[-109.5614,30.9946],[-109.5664,30.9855],[-109.5821,30.9796],[-109.5953,30.9839],[-109.6058,30.9983],[-109.6008,31.0074]]]}},{"type":"Feature","properties":{"c":"#c8f500","v0":0.2,"v1":0.25},"geometry":{"type":"Polygon","coordinates":[[[-108.173,30.3065],[-108.1577,30.3193],[-108.1337,30.3193],[-108.101,30.3065],[-108.096,30.2826],[-108.1187,30.2475],[-108.135,30.2306],[-108.145,30.2318],[-108.1577,30.2493],[-108.173,30.2831],[-108.173,30.3065]],[[-108.1687,30.3053],[-108.1562,30.3158],[-108.1358,30.3158],[-108.1073,30.3053],[-108.1023,30.2843],[-108.1208,30.2526],[-108.1412,30.2526],[-108.1637,30.2843],[-108.1687,30.3053]]]}},{"type":"Feature","properties":{"c":"#c8f500","v0":0.2,"v1":0.25},"geometry":{"type":"Polygon","coordinates":[[[-97.6182,27.6245],[-97.5861,27.6277],[-97.565,27.6361],[-97.555,27.6498],[-97.5467,27.6393],[-97.54,27.6048],[-97.545,27.5948],[-97.5617,27.6094],[-97.5861,27.6182],[-97.6182,27.6213],[-97.6182,27.6245]]]}},{"type":"Feature","properties":{"c":"#c8f500","v0":0.25,"v1":0.5},"geometry":{"type":"Polygon","coordinates":[[[-112.4471,54.9943],[-112.4003,54.9943],[-112.3901,54.9902],[-112.4167,54.9821],[-112.4401,54.9821],[-112.4604,54.9902],[-112.4471,54.9943]]]}},{"type":"Feature","properties":{"c":"#c8f500","v0":0.25,"v1":0.5},"geometry":{"type":"Polygon","coordinates":[[[-112.2368,54.934],[-112.2213,54.9512],[-112.2147,54.9684],[-112.2169,54.9857],[-112.2061,54.9894],[-112.182,54.9796],[-112.1493,54.9796],[-112.108,54.9894],[-112.1029,54.9857],[-112.1341,54.9684],[-112.1547,54.9503],[-112.1649,54.9313],[-112.18,54.9189],[-112.2,54.9131],[-112.2186,54.914],[-112.2359,54.9216],[-112.2368,54.934]]]}},{"type":"Feature","properties":{"c":"#c8f500","v0":0.25,"v1":0.5},"geometry":{"type":"Polygon","coordinates":[[[-116.0627,54.5443],[-116.0576,54.5907],[-116.0438,54.6197],[-116.0213,54.6314],[-116.0053,54.6314],[-115.9958,54.6197],[-115.993,54.6022],[-115.9968,54.5791],[-116.0083,54.5559],[-116.0273,54.5327],[-116.0439,54.5211],[-116.0581,54.5211],[-116.0627,54.5443]]]}},{"type":"Feature","properties":{"c":"#c8f500","v0":0.25,"v1":0.5},"geometry":{"type":"Polygon","coordinates":[[[-111.5391,54.519],[-111.5064,54.5612],[-111.47,54.5814],[-111.43,54.5796],[-111.39,54.5884],[-111.35,54.6076],[-111.315,54.6159],[-111.285,54.6133],[-111.2634,54.6067],[-111.2502,54.596],[-111.2452,54.5845],[-111.2484,54.5721],[-111.2775,54.5605],[-111.3324,54.5497],[-111.3626,54.5385],[-111.3681,54.5269],[-111.3406,54.5161],[-111.2802,54.5062],[-111.2378,54.4946],[-111.2134,54.4813],[-111.1904,54.4601],[-111.1689,54.431],[-111.1761,54.4072],[-111.212,54.3886],[-111.245,54.3788],[-111.275,54.3777],[-111.2999,54.3812],[-111.3197,54.3892],[-111.3397,54.4067],[-111.3599,54.4337],[-111.4,54.4474],[-111.46,54.4479],[-111.5064,54.4605],[-111.5391,54.4854],[-111.5391,54.519]],[[-111.3575,54.5754],[-111.3392,54.5911],[-111.3164,54.5969],[-111.2893,54.5927],[-111.2793,54.5868],[-111.2864,54.5791],[-111.3092,54.5733],[-111.3475,54.5694],[-111.3575,54.5754]],[[-111.3326,54.4688],[-111.3253,54.4804],[-111.3087,54.487],[-111.2829,54.4885],[-111.2573,54.4827],[-111.2318,54.4695],[-111.2103,54.4513],[-111.1927,54.4281],[-111.2105,54.4126],[-111.2635,54.4049],[-111.3016,54.4165],[-111.3247,54.4475],[-111.3326,54.4688]],[[-111.5071,54.5225],[-111.4824,54.5486],[-111.4612,54.5602],[-111.4437,54.5573],[-111.4344,54.5385],[-111.4334,54.5036],[-111.4472,54.4852],[-111.4757,54.4831],[-111.4974,54.4889],[-111.5121,54.5026],[-111.5071,54.5225]]]}},{"type":"Feature","properties":{"c":"#c8f500","v0":0.25,"v1":0.5},"geometry":{"type":"Polygon","coordinates":[[[-111.3279,54.145],[-111.306,54.1859],[-111.2838,54.207],[-111.2613,54.2082],[-111.2403,54.1965],[-111.2209,54.1719],[-111.2146,54.1479],[-111.2214,54.1244],[-111.2411,54.1071],[-111.2737,54.0958],[-111.2988,54.0928],[-111.3165,54.0983],[-111.3287,54.1069],[-111.3355,54.1186],[-111.3279,54.145]],[[-111.3065,54.1429],[-111.2822,54.1796],[-111.2636,54.1943],[-111.2509,54.1868],[-111.2428,54.1684],[-111.2391,54.1391],[-111.2504,54.1194],[-111.2768,54.1092],[-111.2972,54.1092],[-111.3115,54.1194],[-111.3065,54.1429]]]}},{"type":"Feature","properties":{"c":"#c8f500","v0":0.25,"v1":0.5},"geometry":{"type":"Polygon","coordinates":[[[-117.0189,53.2787],[-116.9996,53.3163],[-116.98,53.3383],[-116.96,53.3447],[-116.9391,53.3409],[-116.9172,53.3268],[-116.9097,53.3048],[-116.9165,53.2749],[-116.9375,53.2517],[-116.9725,53.2352],[-116.9996,53.2352],[-117.0189,53.2517],[-117.0189,53.2787]],[[-117.0049,53.2749],[-116.9887,53.3048],[-116.973,53.3226],[-116.9577,53.3284],[-116.9427,53.3254],[-116.9282,53.3136],[-116.9252,53.2958],[-116.9338,53.2719],[-116.9511,53.2546],[-116.977,53.2439],[-116.9957,53.2439],[-117.0072,53.2546],[-117.0049,53.2749]]]}},{"type":"Feature","properties":{"c":"#c8f500","v0":0.25,"v1":0.5},"geometry":{"type":"Polygon","coordinates":[[[-117.0559,53.1901],[-117.0386,53.194],[-117.0243,53.1911],[-117.0129,53.1811],[-117.0179,53.1742],[-117.0393,53.1705],[-117.0536,53.1735],[-117.0609,53.1832],[-117.0559,53.1901]]]}},{"type":"Feature","properties":{"c":"#c8f500","v0":0.25,"v1":0.5},"geometry":{"type":"Polygon","coordinates":[[[-109.6008,31.0074],[-109.5803,31.0113],[-109.5671,31.007],[-109.5614,30.9946],[-109.5664,30.9855],[-109.5821,30.9796],[-109.5953,30.9839],[-109.6058,30.9983],[-109.6008,31.0074]]]}},{"type":"Feature","properties":{"c":"#c8f500","v0":0.25,"v1":0.5},"geometry":{"type":"Polygon","coordinates":[[[-108.1687,30.3053],[-108.1562,30.3158],[-108.1358,30.3158],[-108.1073,30.3053],[-108.1023,30.2843],[-108.1208,30.2526],[-108.1412,30.2526],[-108.1637,30.2843],[-108.1687,30.3053]]]}},{"type":"Feature","properties":{"c":"#ffff00","v0":0.5,"v1":0.75},"geometry":{"type":"Polygon","coordinates":[[[-112.1784,54.9943],[-112.1353,54.9943],[-112.1278,54.9894],[-112.1559,54.9796],[-112.1775,54.9796],[-112.1925,54.9894],[-112.1784,54.9943]]]}},{"type":"Feature","properties":{"c":"#ffff00","v0":0.5,"v1":0.75},"geometry":{"type":"Polygon","coordinates":[[[-111.3575,54.5754],[-111.3392,54.5911],[-111.3164,54.5969],[-111.2893,54.5927],[-111.2793,54.5868],[-111.2864,54.5791],[-111.3092,54.5733],[-111.3475,54.5694],[-111.3575,54.5754]]]}},{"type":"Feature","properties":{"c":"#ffff00","v0":0.5,"v1":0.75},"geometry":{"type":"Polygon","coordinates":[[[-111.5071,54.5225],[-111.4824,54.5486],[-111.4612,54.5602],[-111.4437,54.5573],[-111.4344,54.5385],[-111.4334,54.5036],[-111.4472,54.4852],[-111.4757,54.4831],[-111.4974,54.4889],[-111.5121,54.5026],[-111.5071,54.5225]]]}},{"type":"Feature","properties":{"c":"#ffff00","v0":0.5,"v1":0.75},"geometry":{"type":"Polygon","coordinates":[[[-111.3326,54.4688],[-111.3253,54.4804],[-111.3087,54.487],[-111.2829,54.4885],[-111.2573,54.4827],[-111.2318,54.4695],[-111.2103,54.4513],[-111.1927,54.4281],[-111.2105,54.4126],[-111.2635,54.4049],[-111.3016,54.4165],[-111.3247,54.4475],[-111.3326,54.4688]],[[-111.2724,54.4514],[-111.2575,54.4514],[-111.2498,54.4485],[-111.2493,54.4426],[-111.2567,54.4426],[-111.2721,54.4484],[-111.2724,54.4514]]]}},{"type":"Feature","properties":{"c":"#ffff00","v0":0.5,"v1":0.75},"geometry":{"type":"Polygon","coordinates":[[[-111.3065,54.1429],[-111.2822,54.1796],[-111.2636,54.1943],[-111.2509,54.1868],[-111.2428,54.1684],[-111.2391,54.1391],[-111.2504,54.1194],[-111.2768,54.1092],[-111.2972,54.1092],[-111.3115,54.1194],[-111.3065,54.1429]],[[-111.2857,54.1384],[-111.2752,54.1427],[-111.27,54.1405],[-111.27,54.1318],[-111.2752,54.1296],[-111.2857,54.134],[-111.2857,54.1384]]]}},{"type":"Feature","properties":{"c":"#ffff00","v0":0.5,"v1":0.75},"geometry":{"type":"Polygon","coordinates":[[[-117.0049,53.2749],[-116.9887,53.3048],[-116.973,53.3226],[-116.9577,53.3284],[-116.9427,53.3254],[-116.9282,53.3136],[-116.9252,53.2958],[-116.9338,53.2719],[-116.9511,53.2546],[-116.977,53.2439],[-116.9957,53.2439],[-117.0072,53.2546],[-117.0049,53.2749]],[[-116.9834,53.2819],[-116.9611,53.302],[-116.95,53.3014],[-116.95,53.28],[-116.955,53.2659],[-116.965,53.259],[-116.9761,53.2597],[-116.9884,53.2678],[-116.9834,53.2819]]]}},{"type":"Feature","properties":{"c":"#ffd700","v0":0.75,"v1":1.0},"geometry":{"type":"Polygon","coordinates":[[[-111.2724,54.4514],[-111.2575,54.4514],[-111.2498,54.4485],[-111.2493,54.4426],[-111.2567,54.4426],[-111.2721,54.4484],[-111.2724,54.4514]]]}},{"type":"Feature","properties":{"c":"#ffd700","v0":0.75,"v1":1.0},"geometry":{"type":"Polygon","coordinates":[[[-111.2857,54.1384],[-111.2752,54.1427],[-111.27,54.1405],[-111.27,54.1318],[-111.2752,54.1296],[-111.2857,54.134],[-111.2857,54.1384]]]}},{"type":"Feature","properties":{"c":"#ffd700","v0":0.75,"v1":1.0},"geometry":{"type":"Polygon","coordinates":[[[-116.9834,53.2819],[-116.9611,53.302],[-116.95,53.3014],[-116.95,53.28],[-116.955,53.2659],[-116.965,53.259],[-116.9761,53.2597],[-116.9884,53.2678],[-116.9834,53.2819]]]}}]}