{"type":"FeatureCollection","features":[{"type":"Feature","properties":{"c":"#c8f500","v0":0.2,"v1":0.25},"geometry":{"type":"Polygon","coordinates":[[[-119.3304,54.6248],[-119.3168,54.6236],[-119.31,54.6143],[-119.31,54.597],[-119.3168,54.5976],[-119.3304,54.6162],[-119.3304,54.6248]]]}},{"type":"Feature","properties":{"c":"#c8f500","v0":0.2,"v1":0.25},"geometry":{"type":"Polygon","coordinates":[[[-114.838,52.6872],[-114.8193,52.6982],[-114.8008,52.7013],[-114.7824,52.6963],[-114.7824,52.6837],[-114.8008,52.6634],[-114.8173,52.6543],[-114.832,52.6564],[-114.8413,52.6635],[-114.8453,52.6757],[-114.838,52.6872]],[[-114.8311,52.6859],[-114.817,52.6942],[-114.8032,52.6973],[-114.7897,52.695],[-114.7897,52.6854],[-114.8032,52.6685],[-114.815,52.6601],[-114.825,52.6603],[-114.832,52.6657],[-114.8361,52.6764],[-114.8311,52.6859]]]}},{"type":"Feature","properties":{"c":"#c8f500","v0":0.2,"v1":0.25},"geometry":{"type":"Polygon","coordinates":[[[-83.1519,48.8521],[-83.1373,48.8535],[-83.1299,48.8502],[-83.1297,48.8422],[-83.137,48.8416],[-83.1518,48.8482],[-83.1519,48.8521]]]}},{"type":"Feature","properties":{"c":"#c8f500","v0":0.2,"v1":0.25},"geometry":{"type":"Polygon","coordinates":[[[-78.1525,43.3797],[-78.1242,43.4055],[-78.1,43.4164],[-78.08,43.4124],[-78.075,43.402],[-78.085,43.3853],[-78.1092,43.3744],[-78.1475,43.3693],[-78.1525,43.3797]],[[-78.1418,43.379],[-78.1206,43.4033],[-78.1011,43.4142],[-78.0834,43.4117],[-78.0784,43.4028],[-78.0861,43.3877],[-78.1056,43.3768],[-78.1368,43.3701],[-78.1418,43.379]]]}},{"type":"Feature","properties":{"c":"#c8f500","v0":0.2,"v1":0.25},"geometry":{"type":"Polygon","coordinates":[[[-82.4371,39.8884],[-82.4269,39.896],[-82.4214,39.896],[-82.4207,39.8884],[-82.4258,39.8845],[-82.4367,39.8845],[-82.4371,39.8884]]]}},{"type":"Feature","properties":{"c":"#c8f500","v0":0.2,"v1":0.25},"geometry":{"type":"Polygon","coordinates":[[[-90.7386,36.3863],[-90.7195,36.4045],[-90.71,36.3965],[-90.7099,36.3622],[-90.7158,36.345],[-90.7278,36.345],[-90.7373,36.3531],[-90.7446,36.3692],[-90.7386,36.3863]],[[-90.7376,36.3702],[-90.7325,36.3883],[-90.7243,36.3883],[-90.7129,36.3702],[-90.7154,36.3611],[-90.7319,36.3611],[-90.7376,36.3702]]]}},{"type":"Feature","properties":{"c":"#c8f500","v0":0.2,"v1":0.25},"geometry":{"type":"Polygon","coordinates":[[[-108.3733,31.0445],[-108.3178,31.0881],[-108.2713,31.101],[-108.2339,31.0831],[-108.218,31.0655],[-108.2236,31.0484],[-108.2473,31.0256],[-108.2891,30.997],[-108.33,30.9872],[-108.37,30.9959],[-108.3928,31.0059],[-108.3983,31.0171],[-108.3733,31.0445]],[[-108.3668,31.0435],[-108.3156,31.0851],[-108.2726,31.098],[-108.2377,31.082],[-108.2233,31.0655],[-108.2294,31.0484],[-108.2519,31.0267],[-108.2906,31.0005],[-108.3306,30.9962],[-108.3718,31.0139],[-108.3668,31.0435]]]}},{"type":"Feature","properties":{"c":"#c8f500","v0":0.2,"v1":0.25},"geometry":{"type":"Polygon","coordinates":[[[-108.5569,30.508],[-108.539,30.51],[-108.53,30.5026],[-108.53,30.4859],[-108.539,30.4849],[-108.5569,30.4997],[-108.5569,30.508]],[[-108.5504,30.5022],[-108.5368,30.4926],[-108.535,30.4871],[-108.545,30.4858],[-108.5518,30.4906],[-108.5554,30.5016],[-108.5504,30.5022]]]}},{"type":"Feature","properties":{"c":"#c8f500","v0":0.25,"v1":0.5},"geometry":{"type":"Polygon","coordinates":[[[-114.8311,52.6859],[-114.817,52.6942],[-114.8032,52.6973],[-114.7897,52.695],[-114.7897,52.6854],[-114.8032,52.6685],[-114.815,52.6601],[-114.825,52.6603],[-114.832,52.6657],[-114.8361,52.6764],[-114.8311,52.6859]]]}},{"type":"Feature","properties":{"c":"#c8f500","v0":0.25,"v1":0.5},"geometry":{"type":"Polygon","coordinates":[[[-78.1418,43.379],[-78.1206,43.4033],[-78.1011,43.4142],[-78.0834,43.4117],[-78.0784,43.4028],[-78.0861,43.3877],[-78.1056,43.3768],[-78.1368,43.3701],[-78.1418,43.379]]]}},{"type":"Feature","properties":{"c":"#c8f500","v0":0.25,"v1":0.5},"geometry":{"type":"Polygon","coordinates":[[[-90.7376,36.3702],[-90.7325,36.3883],[-90.7243,36.3883],[-90.7129,36.3702],[-90.7154,36.3611],[-90.7319,36.3611],[-90.7376,36.3702]]]}},{"type":"Feature","properties":{"c":"#c8f500","v0":0.25,"v1":0.5},"geometry":{"type":"Polygon","coordinates":[[[-108.3668,31.0435],[-108.3156,31.0851],[-108.2726,31.098],[-108.2377,31.082],[-108.2233,31.0655],[-108.2294,31.0484],[-108.2519,31.0267],[-108.2906,31.0005],[-108.3306,30.9962],[-108.3718,31.0139],[-108.3668,31.0435]],[[-108.3254,31.0385],[-108.3018,31.0702],[-108.2791,31.0831],[-108.2572,31.0771],[-108.2572,31.061],[-108.2791,31.0348],[-108.3018,31.0219],[-108.3254,31.0224],[-108.3254,31.0385]]]}},{"type":"Feature","properties":{"c":"#c8f500","v0":0.25,"v1":0.5},"geometry":{"type":"Polygon","coordinates":[[[-108.5504,30.5022],[-108.5368,30.4926],[-108.535,30.4871],[-108.545,30.4858],[-108.5518,30.4906],[-108.5554,30.5016],[-108.5504,30.5022]]]}},{"type":"Feature","properties":{"c":"#ffff00","v0":0.5,"v1":0.75},"geometry":{"type":"Polygon","coordinates":[[[-108.3254,31.0385],[-108.3018,31.0702],[-108.2791,31.0831],[-108.2572,31.0771],[-108.2572,31.061],[-108.2791,31.0348],[-108.3018,31.0219],[-108.3254,31.0224],[-108.3254,31.0385]]]}}]}