{"type":"FeatureCollection","features":[{"type":"Feature","properties":{"c":"#c8f500","v0":0.2,"v1":0.25},"geometry":{"type":"Polygon","coordinates":[[[-63.6573,47.0608],[-63.6391,47.069],[-63.6242,47.069],[-63.6126,47.0608],[-63.6126,47.0527],[-63.6242,47.0447],[-63.6391,47.0447],[-63.6573,47.0527],[-63.6573,47.0608]],[[-63.6505,47.0594],[-63.6368,47.0648],[-63.6264,47.0648],[-63.6192,47.0594],[-63.626,47.0567],[-63.6469,47.0567],[-63.6505,47.0594]]]}},{"type":"Feature","properties":{"c":"#c8f500","v0":0.2,"v1":0.25},"geometry":{"type":"Polygon","coordinates":[[[-104.0732,41.1852],[-104.0577,41.2021],[-104.03,41.2116],[-103.99,41.2134],[-103.9588,41.2087],[-103.9364,41.1974],[-103.9224,41.1804],[-103.9168,41.1579],[-103.923,41.1369],[-103.941,41.1177],[-103.97,41.1022],[-104.01,41.0906],[-104.0427,41.1078],[-104.0682,41.1537],[-104.0732,41.1852]],[[-104.07,41.1843],[-104.0567,41.1995],[-104.03,41.2083],[-103.99,41.2106],[-103.96,41.2067],[-103.94,41.1966],[-103.9267,41.1803],[-103.9202,41.1578],[-103.9252,41.1377],[-103.9417,41.1201],[-103.97,41.1064],[-104.01,41.0967],[-104.0417,41.1131],[-104.065,41.1555],[-104.07,41.1843]]]}},{"type":"Feature","properties":{"c":"#c8f500","v0":0.2,"v1":0.25},"geometry":{"type":"Polygon","coordinates":[[[-104.9076,40.548],[-104.8825,40.5615],[-104.8614,40.5653],[-104.8442,40.5594],[-104.832,40.5489],[-104.8249,40.5337],[-104.8385,40.5205],[-104.8728,40.5093],[-104.8975,40.5131],[-104.9126,40.5319],[-104.9076,40.548]],[[-104.9044,40.5474],[-104.8815,40.5596],[-104.8589,40.5558],[-104.8368,40.536],[-104.8418,40.5214],[-104.8739,40.5118],[-104.8965,40.5156],[-104.9094,40.5328],[-104.9044,40.5474]]]}},{"type":"Feature","properties":{"c":"#c8f500","v0":0.2,"v1":0.25},"geometry":{"type":"Polygon","coordinates":[[[-103.9632,40.1875],[-103.9411,40.2115],[-103.92,40.2225],[-103.9,40.2205],[-103.8812,40.2123],[-103.8637,40.198],[-103.8637,40.18],[-103.8812,40.1584],[-103.905,40.1491],[-103.935,40.152],[-103.9561,40.159],[-103.9682,40.17],[-103.9632,40.1875]],[[-103.9592,40.1867],[-103.9397,40.209],[-103.92,40.2194],[-103.9,40.2177],[-103.8821,40.2104],[-103.8663,40.1973],[-103.8663,40.1808],[-103.8821,40.1607],[-103.9097,40.1569],[-103.9492,40.1693],[-103.9592,40.1867]]]}},{"type":"Feature","properties":{"c":"#c8f500","v0":0.2,"v1":0.25},"geometry":{"type":"Polygon","coordinates":[[[-103.6932,39.0901],[-103.6777,39.1066],[-103.66,39.1131],[-103.64,39.1094],[-103.617,39.0973],[-103.591,39.0766],[-103.576,39.0565],[-103.572,39.037],[-103.585,39.0244],[-103.615,39.0186],[-103.6477,39.0323],[-103.6832,39.0653],[-103.6932,39.0901]],[[-103.684,39.0892],[-103.6613,39.1039],[-103.6373,39.1039],[-103.6119,39.0892],[-103.5921,39.0702],[-103.5781,39.0469],[-103.5858,39.0316],[-103.6153,39.0243],[-103.6463,39.0359],[-103.679,39.0665],[-103.684,39.0892]]]}},{"type":"Feature","properties":{"c":"#c8f500","v0":0.2,"v1":0.25},"geometry":{"type":"Polygon","coordinates":[[[-97.1415,38.992],[-97.1205,38.9988],[-97.1045,38.9949],[-97.0935,38.9803],[-97.104,38.9769],[-97.136,38.9847],[-97.1415,38.992]]]}},{"type":"Feature","properties":{"c":"#c8f500","v0":0.2,"v1":0.25},"geometry":{"type":"Polygon","coordinates":[[[-102.6802,38.8547],[-102.6734,38.867],[-102.665,38.8722],[-102.655,38.8701],[-102.6415,38.8561],[-102.6245,38.8303],[-102.6245,38.8156],[-102.6415,38.812],[-102.6584,38.8198],[-102.6752,38.839],[-102.6802,38.8547]],[[-102.6744,38.8526],[-102.6715,38.8609],[-102.66,38.8612],[-102.64,38.8538],[-102.6288,38.8419],[-102.6265,38.8255],[-102.6326,38.8174],[-102.6472,38.8174],[-102.6598,38.8252],[-102.6706,38.8407],[-102.6744,38.8526]]]}},{"type":"Feature","properties":{"c":"#c8f500","v0":0.2,"v1":0.25},"geometry":{"type":"Polygon","coordinates":[[[-97.8462,38.7979],[-97.8352,38.8213],[-97.8193,38.8329],[-97.7985,38.8329],[-97.7886,38.8197],[-97.7895,38.7933],[-97.8,38.7774],[-97.82,38.772],[-97.8354,38.7735],[-97.8463,38.782],[-97.8462,38.7979]],[[-97.8311,38.798],[-97.817,38.8218],[-97.8049,38.8296],[-97.7946,38.8214],[-97.7914,38.8096],[-97.7952,38.794],[-97.8074,38.7862],[-97.8278,38.7862],[-97.8311,38.798]]]}},{"type":"Feature","properties":{"c":"#c8f500","v0":0.2,"v1":0.25},"geometry":{"type":"Polygon","coordinates":[[[-101.9394,38.7339],[-101.9198,38.7542],[-101.9037,38.762],[-101.8911,38.7573],[-101.8861,38.7435],[-101.8887,38.7204],[-101.9048,38.7126],[-101.9344,38.7201],[-101.9394,38.7339]],[[-101.9332,38.7316],[-101.9219,38.7472],[-101.9097,38.7538],[-101.8966,38.7515],[-101.89,38.7426],[-101.89,38.7272],[-101.9022,38.7205],[-101.9266,38.7227],[-101.9332,38.7316]]]}},{"type":"Feature","properties":{"c":"#c8f500","v0":0.2,"v1":0.25},"geometry":{"type":"Polygon","coordinates":[[[-102.1454,38.7407],[-102.1351,38.7432],[-102.13,38.7392],[-102.13,38.7288],[-102.1351,38.7275],[-102.1454,38.7354],[-102.1454,38.7407]]]}},{"type":"Feature","properties":{"c":"#c8f500","v0":0.2,"v1":0.25},"geometry":{"type":"Polygon","coordinates":[[[-101.8584,38.5965],[-101.8528,38.623],[-101.84,38.643],[-101.82,38.6563],[-101.79,38.6573],[-101.75,38.646],[-101.71,38.6442],[-101.67,38.6519],[-101.6429,38.6455],[-101.6287,38.6248],[-101.6334,38.5871],[-101.6571,38.5324],[-101.6892,38.4978],[-101.7297,38.4834],[-101.76,38.4776],[-101.78,38.4804],[-101.7885,38.4954],[-101.7856,38.5227],[-101.8006,38.5416],[-101.8335,38.5523],[-101.8528,38.564],[-101.8584,38.5768],[-101.8584,38.5965]],[[-101.8544,38.5949],[-101.8497,38.6184],[-101.838,38.6369],[-101.8193,38.6506],[-101.79,38.6521],[-101.75,38.6415],[-101.715,38.6409],[-101.685,38.6505],[-101.6591,38.6451],[-101.6372,38.6247],[-101.6383,38.5871],[-101.6624,38.5324],[-101.6933,38.499],[-101.7311,38.487],[-101.7588,38.4831],[-101.7763,38.4872],[-101.7831,38.5011],[-101.7794,38.5246],[-101.7906,38.5403],[-101.8169,38.5482],[-101.8367,38.5599],[-101.8501,38.5755],[-101.8544,38.5949]]]}},{"type":"Feature","properties":{"c":"#c8f500","v0":0.2,"v1":0.25},"geometry":{"type":"Polygon","coordinates":[[[-100.0603,38.4636],[-100.0534,38.4748],[-100.03,38.4824],[-99.99,38.4864],[-99.9609,38.4769],[-99.9426,38.4539],[-99.9526,38.4353],[-99.9909,38.4212],[-100.0234,38.4251],[-100.0503,38.447],[-100.0603,38.4636]],[[-100.0574,38.4626],[-100.0525,38.4717],[-100.035,38.4788],[-100.005,38.4839],[-99.9766,38.4793],[-99.9499,38.4651],[-99.9399,38.4509],[-99.9466,38.4366],[-99.96,38.4262],[-99.98,38.4196],[-100.0019,38.4189],[-100.0257,38.4241],[-100.0431,38.4345],[-100.0543,38.4502],[-100.0574,38.4626]]]}},{"type":"Feature","properties":{"c":"#c8f500","v0":0.2,"v1":0.25},"geometry":{"type":"Polygon","coordinates":[[[-100.1686,38.4302],[-100.1562,38.4373],[-100.145,38.4378],[-100.135,38.4317],[-100.13,38.42],[-100.13,38.4028],[-100.1381,38.3945],[-100.1544,38.3951],[-100.1656,38.4032],[-100.1718,38.4189],[-100.1686,38.4302]],[[-100.1634,38.417],[-100.1545,38.4288],[-100.1446,38.4288],[-100.1339,38.417],[-100.1339,38.4067],[-100.1446,38.3981],[-100.1545,38.3981],[-100.1634,38.4067],[-100.1634,38.417]]]}},{"type":"Feature","properties":{"c":"#c8f500","v0":0.2,"v1":0.25},"geometry":{"type":"Polygon","coordinates":[[[-101.5603,38.3856],[-101.5401,38.3974],[-101.5246,38.3935],[-101.5138,38.3738],[-101.5188,38.3616],[-101.5396,38.357],[-101.5551,38.3609],[-101.5653,38.3734],[-101.5603,38.3856]],[[-101.554,38.3839],[-101.538,38.3924],[-101.5261,38.3924],[-101.5184,38.3839],[-101.5234,38.3748],[-101.5411,38.3649],[-101.553,38.3649],[-101.559,38.3748],[-101.554,38.3839]]]}},{"type":"Feature","properties":{"c":"#c8f500","v0":0.2,"v1":0.25},"geometry":{"type":"Polygon","coordinates":[[[-100.4463,38.3063],[-100.4221,38.3165],[-100.415,38.3117],[-100.425,38.292],[-100.435,38.2815],[-100.445,38.2803],[-100.4521,38.2851],[-100.4563,38.2958],[-100.4463,38.3063]]]}},{"type":"Feature","properties":{"c":"#c8f500","v0":0.2,"v1":0.25},"geometry":{"type":"Polygon","coordinates":[[[-101.5311,38.2424],[-101.5304,38.2503],[-101.515,38.2567],[-101.485,38.2617],[-101.46,38.2577],[-101.4399,38.2448],[-101.4349,38.2289],[-101.445,38.2098],[-101.465,38.1956],[-101.495,38.1864],[-101.5154,38.196],[-101.5261,38.2243],[-101.5311,38.2424]],[[-101.5149,38.2314],[-101.4983,38.2488],[-101.48,38.2576],[-101.46,38.2579],[-101.446,38.2531],[-101.438,38.2433],[-101.438,38.2301],[-101.446,38.2135],[-101.46,38.2005],[-101.48,38.1913],[-101.4963,38.1878],[-101.509,38.1901],[-101.5173,38.1991],[-101.5212,38.2148],[-101.5149,38.2314]]]}},{"type":"Feature","properties":{"c":"#c8f500","v0":0.2,"v1":0.25},"geometry":{"type":"Polygon","coordinates":[[[-100.7776,38.2341],[-100.7592,38.2569],[-100.7435,38.2529],[-100.7306,38.2223],[-100.7356,38.204],[-100.7585,38.198],[-100.7742,38.202],[-100.7826,38.2158],[-100.7776,38.2341]],[[-100.7733,38.2319],[-100.7578,38.2504],[-100.7435,38.2504],[-100.7304,38.2319],[-100.7304,38.2163],[-100.7435,38.2034],[-100.7578,38.2034],[-100.7733,38.2163],[-100.7733,38.2319]]]}},{"type":"Feature","properties":{"c":"#c8f500","v0":0.2,"v1":0.25},"geometry":{"type":"Polygon","coordinates":[[[-83.2544,37.0839],[-83.2381,37.0866],[-83.23,37.0815],[-83.23,37.0684],[-83.235,37.0609],[-83.245,37.0589],[-83.2531,37.064],[-83.2594,37.0764],[-83.2544,37.0839]]]}},{"type":"Feature","properties":{"c":"#c8f500","v0":0.2,"v1":0.25},"geometry":{"type":"Polygon","coordinates":[[[-115.7442,36.8466],[-115.7347,36.8541],[-115.726,36.8541],[-115.718,36.8466],[-115.718,36.8385],[-115.726,36.8299],[-115.7347,36.8299],[-115.7442,36.8385],[-115.7442,36.8466]]]}},{"type":"Feature","properties":{"c":"#c8f500","v0":0.2,"v1":0.25},"geometry":{"type":"Polygon","coordinates":[[[-103.6541,30.4597],[-103.637,30.5028],[-103.6189,30.5274],[-103.5996,30.5337],[-103.5824,30.5294],[-103.5672,30.5145],[-103.5641,30.4941],[-103.5732,30.4683],[-103.5658,30.4412],[-103.5419,30.4127],[-103.535,30.395],[-103.545,30.3879],[-103.57,30.3896],[-103.61,30.4],[-103.6382,30.4135],[-103.6545,30.4299],[-103.6541,30.4597]],[[-103.6508,30.4467],[-103.6355,30.464],[-103.6267,30.4855],[-103.6242,30.5114],[-103.6105,30.5243],[-103.5856,30.5243],[-103.5756,30.5071],[-103.5806,30.4726],[-103.5711,30.4424],[-103.5471,30.4166],[-103.5388,30.4003],[-103.5463,30.3936],[-103.57,30.395],[-103.61,30.4044],[-103.6371,30.4164],[-103.6513,30.4309],[-103.6508,30.4467]]]}},{"type":"Feature","properties":{"c":"#c8f500","v0":0.25,"v1":0.5},"geometry":{"type":"Polygon","coordinates":[[[-63.6505,47.0594],[-63.6368,47.0648],[-63.6264,47.0648],[-63.6192,47.0594],[-63.626,47.0567],[-63.6469,47.0567],[-63.6505,47.0594]]]}},{"type":"Feature","properties":{"c":"#c8f500","v0":0.25,"v1":0.5},"geometry":{"type":"Polygon","coordinates":[[[-104.07,41.1843],[-104.0567,41.1995],[-104.03,41.2083],[-103.99,41.2106],[-103.96,41.2067],[-103.94,41.1966],[-103.9267,41.1803],[-103.9202,41.1578],[-103.9252,41.1377],[-103.9417,41.1201],[-103.97,41.1064],[-104.01,41.0967],[-104.0417,41.1131],[-104.065,41.1555],[-104.07,41.1843]],[[-104.0499,41.1829],[-104.0366,41.1953],[-104.015,41.2016],[-103.985,41.2016],[-103.9607,41.1954],[-103.9421,41.1829],[-103.9323,41.1691],[-103.9313,41.1541],[-103.9406,41.1388],[-103.9602,41.1234],[-103.98,41.1154],[-104.0,41.1149],[-104.0216,41.1302],[-104.0449,41.1612],[-104.0499,41.1829]]]}},{"type":"Feature","properties":{"c":"#c8f500","v0":0.25,"v1":0.5},"geometry":{"type":"Polygon","coordinates":[[[-104.9044,40.5474],[-104.8815,40.5596],[-104.8589,40.5558],[-104.8368,40.536],[-104.8418,40.5214],[-104.8739,40.5118],[-104.8965,40.5156],[-104.9094,40.5328],[-104.9044,40.5474]],[[-104.8887,40.544],[-104.8762,40.5494],[-104.8641,40.5456],[-104.8522,40.5326],[-104.8572,40.5258],[-104.8791,40.5251],[-104.8912,40.5289],[-104.8937,40.5372],[-104.8887,40.544]]]}},{"type":"Feature","properties":{"c":"#c8f500","v0":0.25,"v1":0.5},"geometry":{"type":"Polygon","coordinates":[[[-103.9592,40.1867],[-103.9397,40.209],[-103.92,40.2194],[-103.9,40.2177],[-103.8821,40.2104],[-103.8663,40.1973],[-103.8663,40.1808],[-103.8821,40.1607],[-103.9097,40.1569],[-103.9492,40.1693],[-103.9592,40.1867]],[[-103.9369,40.1955],[-103.919,40.205],[-103.9019,40.2012],[-103.8858,40.1841],[-103.8908,40.1738],[-103.9169,40.1704],[-103.934,40.1742],[-103.9419,40.1853],[-103.9369,40.1955]]]}},{"type":"Feature","properties":{"c":"#c8f500","v0":0.25,"v1":0.5},"geometry":{"type":"Polygon","coordinates":[[[-103.684,39.0892],[-103.6613,39.1039],[-103.6373,39.1039],[-103.6119,39.0892],[-103.5921,39.0702],[-103.5781,39.0469],[-103.5858,39.0316],[-103.6153,39.0243],[-103.6463,39.0359],[-103.679,39.0665],[-103.684,39.0892]]]}},{"type":"Feature","properties":{"c":"#c8f500","v0":0.25,"v1":0.5},"geometry":{"type":"Polygon","coordinates":[[[-102.6744,38.8526],[-102.6715,38.8609],[-102.66,38.8612],[-102.64,38.8538],[-102.6288,38.8419],[-102.6265,38.8255],[-102.6326,38.8174],[-102.6472,38.8174],[-102.6598,38.8252],[-102.6706,38.8407],[-102.6744,38.8526]]]}},{"type":"Feature","properties":{"c":"#c8f500","v0":0.25,"v1":0.5},"geometry":{"type":"Polygon","coordinates":[[[-97.8311,38.798],[-97.817,38.8218],[-97.8049,38.8296],[-97.7946,38.8214],[-97.7914,38.8096],[-97.7952,38.794],[-97.8074,38.7862],[-97.8278,38.7862],[-97.8311,38.798]]]}},{"type":"Feature","properties":{"c":"#c8f500","v0":0.25,"v1":0.5},"geometry":{"type":"Polygon","coordinates":[[[-101.9332,38.7316],[-101.9219,38.7472],[-101.9097,38.7538],[-101.8966,38.7515],[-101.89,38.7426],[-101.89,38.7272],[-101.9022,38.7205],[-101.9266,38.7227],[-101.9332,38.7316]]]}},{"type":"Feature","properties":{"c":"#c8f500","v0":0.25,"v1":0.5},"geometry":{"type":"Polygon","coordinates":[[[-101.8544,38.5949],[-101.8497,38.6184],[-101.838,38.6369],[-101.8193,38.6506],[-101.79,38.6521],[-101.75,38.6415],[-101.715,38.6409],[-101.685,38.6505],[-101.6591,38.6451],[-101.6372,38.6247],[-101.6383,38.5871],[-101.6624,38.5324],[-101.6933,38.499],[-101.7311,38.487],[-101.7588,38.4831],[-101.7763,38.4872],[-101.7831,38.5011],[-101.7794,38.5246],[-101.7906,38.5403],[-101.8169,38.5482],[-101.8367,38.5599],[-101.8501,38.5755],[-101.8544,38.5949]],[[-101.8254,38.5902],[-101.8151,38.6043],[-101.8,38.6054],[-101.78,38.5938],[-101.75,38.5983],[-101.71,38.6189],[-101.6797,38.6256],[-101.6591,38.6182],[-101.65,38.6028],[-101.6523,38.5793],[-101.6676,38.552],[-101.6959,38.521],[-101.72,38.5091],[-101.74,38.5166],[-101.755,38.5359],[-101.765,38.5671],[-101.7851,38.5828],[-101.8154,38.5831],[-101.8254,38.5902]]]}},{"type":"Feature","properties":{"c":"#c8f500","v0":0.25,"v1":0.5},"geometry":{"type":"Polygon","coordinates":[[[-100.0574,38.4626],[-100.0525,38.4717],[-100.035,38.4788],[-100.005,38.4839],[-99.9766,38.4793],[-99.9499,38.4651],[-99.9399,38.4509],[-99.9466,38.4366],[-99.96,38.4262],[-99.98,38.4196],[-100.0019,38.4189],[-100.0257,38.4241],[-100.0431,38.4345],[-100.0543,38.4502],[-100.0574,38.4626]],[[-100.0271,38.4619],[-100.0024,38.4698],[-99.9823,38.4698],[-99.9669,38.4619],[-99.9669,38.451],[-99.9823,38.4369],[-100.0024,38.4369],[-100.0271,38.451],[-100.0271,38.4619]]]}},{"type":"Feature","properties":{"c":"#c8f500","v0":0.25,"v1":0.5},"geometry":{"type":"Polygon","coordinates":[[[-100.1634,38.417],[-100.1545,38.4288],[-100.1446,38.4288],[-100.1339,38.417],[-100.1339,38.4067],[-100.1446,38.3981],[-100.1545,38.3981],[-100.1634,38.4067],[-100.1634,38.417]]]}},{"type":"Feature","properties":{"c":"#c8f500","v0":0.25,"v1":0.5},"geometry":{"type":"Polygon","coordinates":[[[-101.554,38.3839],[-101.538,38.3924],[-101.5261,38.3924],[-101.5184,38.3839],[-101.5234,38.3748],[-101.5411,38.3649],[-101.553,38.3649],[-101.559,38.3748],[-101.554,38.3839]]]}},{"type":"Feature","properties":{"c":"#c8f500","v0":0.25,"v1":0.5},"geometry":{"type":"Polygon","coordinates":[[[-101.5149,38.2314],[-101.4983,38.2488],[-101.48,38.2576],[-101.46,38.2579],[-101.446,38.2531],[-101.438,38.2433],[-101.438,38.2301],[-101.446,38.2135],[-101.46,38.2005],[-101.48,38.1913],[-101.4963,38.1878],[-101.509,38.1901],[-101.5173,38.1991],[-101.5212,38.2148],[-101.5149,38.2314]]]}},{"type":"Feature","properties":{"c":"#c8f500","v0":0.25,"v1":0.5},"geometry":{"type":"Polygon","coordinates":[[[-100.7733,38.2319],[-100.7578,38.2504],[-100.7435,38.2504],[-100.7304,38.2319],[-100.7304,38.2163],[-100.7435,38.2034],[-100.7578,38.2034],[-100.7733,38.2163],[-100.7733,38.2319]]]}},{"type":"Feature","properties":{"c":"#c8f500","v0":0.25,"v1":0.5},"geometry":{"type":"Polygon","coordinates":[[[-103.6508,30.4467],[-103.6355,30.464],[-103.6267,30.4855],[-103.6242,30.5114],[-103.6105,30.5243],[-103.5856,30.5243],[-103.5756,30.5071],[-103.5806,30.4726],[-103.5711,30.4424],[-103.5471,30.4166],[-103.5388,30.4003],[-103.5463,30.3936],[-103.57,30.395],[-103.61,30.4044],[-103.6371,30.4164],[-103.6513,30.4309],[-103.6508,30.4467]]]}},{"type":"Feature","properties":{"c":"#ffff00","v0":0.5,"v1":0.75},"geometry":{"type":"Polygon","coordinates":[[[-104.0499,41.1829],[-104.0366,41.1953],[-104.015,41.2016],[-103.985,41.2016],[-103.9607,41.1954],[-103.9421,41.1829],[-103.9323,41.1691],[-103.9313,41.1541],[-103.9406,41.1388],[-103.9602,41.1234],[-103.98,41.1154],[-104.0,41.1149],[-104.0216,41.1302],[-104.0449,41.1612],[-104.0499,41.1829]],[[-104.0307,41.1819],[-104.0169,41.1923],[-104.0,41.1965],[-103.98,41.1944],[-103.963,41.1817],[-103.949,41.1583],[-103.954,41.1409],[-103.978,41.1297],[-104.0019,41.1372],[-104.0257,41.1635],[-104.0307,41.1819]]]}},{"type":"Feature","properties":{"c":"#ffff00","v0":0.5,"v1":0.75},"geometry":{"type":"Polygon","coordinates":[[[-104.8887,40.544],[-104.8762,40.5494],[-104.8641,40.5456],[-104.8522,40.5326],[-104.8572,40.5258],[-104.8791,40.5251],[-104.8912,40.5289],[-104.8937,40.5372],[-104.8887,40.544]]]}},{"type":"Feature","properties":{"c":"#ffff00","v0":0.5,"v1":0.75},"geometry":{"type":"Polygon","coordinates":[[[-103.9369,40.1955],[-103.919,40.205],[-103.9019,40.2012],[-103.8858,40.1841],[-103.8908,40.1738],[-103.9169,40.1704],[-103.934,40.1742],[-103.9419,40.1853],[-103.9369,40.1955]]]}},{"type":"Feature","properties":{"c":"#ffff00","v0":0.5,"v1":0.75},"geometry":{"type":"Polygon","coordinates":[[[-101.8254,38.5902],[-101.8151,38.6043],[-101.8,38.6054],[-101.78,38.5938],[-101.75,38.5983],[-101.71,38.6189],[-101.6797,38.6256],[-101.6591,38.6182],[-101.65,38.6028],[-101.6523,38.5793],[-101.6676,38.552],[-101.6959,38.521],[-101.72,38.5091],[-101.74,38.5166],[-101.755,38.5359],[-101.765,38.5671],[-101.7851,38.5828],[-101.8154,38.5831],[-101.8254,38.5902]],[[-101.7061,38.5754],[-101.694,38.591],[-101.6885,38.5869],[-101.6895,38.5629],[-101.695,38.5492],[-101.705,38.5458],[-101.7105,38.5499],[-101.7116,38.5617],[-101.7061,38.5754]]]}},{"type":"Feature","properties":{"c":"#ffff00","v0":0.5,"v1":0.75},"geometry":{"type":"Polygon","coordinates":[[[-100.0271,38.4619],[-100.0024,38.4698],[-99.9823,38.4698],[-99.9669,38.4619],[-99.9669,38.451],[-99.9823,38.4369],[-100.0024,38.4369],[-100.0271,38.451],[-100.0271,38.4619]]]}},{"type":"Feature","properties":{"c":"#ffd700","v0":0.75,"v1":1.0},"geometry":{"type":"Polygon","coordinates":[[[-104.0307,41.1819],[-104.0169,41.1923],[-104.0,41.1965],[-103.98,41.1944],[-103.963,41.1817],[-103.949,41.1583],[-103.954,41.1409],[-103.978,41.1297],[-104.0019,41.1372],[-104.0257,41.1635],[-104.0307,41.1819]],[[-104.0078,41.1786],[-103.9826,41.1825],[-103.9661,41.175],[-103.9582,41.156],[-103.9632,41.1437],[-103.9811,41.138],[-103.9976,41.1455],[-104.0128,41.1663],[-104.0078,41.1786]]]}},{"type":"Feature","properties":{"c":"#ffd700","v0":0.75,"v1":1.0},"geometry":{"type":"Polygon","coordinates":[[[-101.7061,38.5754],[-101.694,38.591],[-101.6885,38.5869],[-101.6895,38.5629],[-101.695,38.5492],[-101.705,38.5458],[-101.7105,38.5499],[-101.7116,38.5617],[-101.7061,38.5754]]]}},{"type":"Feature","properties":{"c":"#ff8c00","v0":1.0,"v1":1.5},"geometry":{"type":"Polygon","coordinates":[[[-104.0078,41.1786],[-103.9826,41.1825],[-103.9661,41.175],[-103.9582,41.156],[-103.9632,41.1437],[-103.9811,41.138],[-103.9976,41.1455],[-104.0128,41.1663],[-104.0078,41.1786]]]}}]}