{"type":"FeatureCollection","features":[{"type":"Feature","properties":{"c":"#c8f500","v0":0.2,"v1":0.25},"geometry":{"type":"Polygon","coordinates":[[[-95.0856,41.1207],[-95.0619,41.1291],[-95.035,41.1289],[-95.005,41.1199],[-94.9835,41.1081],[-94.9706,41.0936],[-94.9656,41.0735],[-94.9685,41.0479],[-94.985,41.0337],[-95.015,41.0309],[-95.0469,41.0512],[-95.0806,41.0947],[-95.0856,41.1207]],[[-95.0792,41.1195],[-95.0597,41.1257],[-95.0319,41.122],[-94.9957,41.1082],[-94.9751,41.0901],[-94.9703,41.0674],[-94.9734,41.0491],[-94.9845,41.035],[-95.005,41.0331],[-95.035,41.0435],[-95.0597,41.0656],[-95.0792,41.0995],[-95.0792,41.1195]]]}},{"type":"Feature","properties":{"c":"#c8f500","v0":0.2,"v1":0.25},"geometry":{"type":"Polygon","coordinates":[[[-95.6136,41.0825],[-95.601,41.1051],[-95.5786,41.1189],[-95.5462,41.1238],[-95.5216,41.12],[-95.5049,41.1076],[-95.4901,41.0825],[-95.4771,41.0448],[-95.4855,41.0164],[-95.5152,40.9973],[-95.5479,40.9973],[-95.5837,41.0164],[-95.6062,41.0373],[-95.6153,41.0599],[-95.6136,41.0825]],[[-95.6092,41.0821],[-95.5964,41.104],[-95.575,41.1166],[-95.545,41.1199],[-95.5162,41.0977],[-95.4887,41.0499],[-95.4887,41.0183],[-95.5162,41.0031],[-95.5466,41.0031],[-95.5798,41.0183],[-95.6012,41.0373],[-95.6108,41.0599],[-95.6092,41.0821]]]}},{"type":"Feature","properties":{"c":"#c8f500","v0":0.2,"v1":0.25},"geometry":{"type":"Polygon","coordinates":[[[-96.0768,40.9868],[-96.0589,40.999],[-96.0407,40.9952],[-96.0221,40.9755],[-96.0221,40.9617],[-96.0407,40.9539],[-96.0589,40.9577],[-96.0768,40.973],[-96.0768,40.9868]],[[-96.0729,40.9856],[-96.0576,40.9953],[-96.0425,40.9916],[-96.0276,40.9742],[-96.0276,40.9628],[-96.0425,40.9573],[-96.0576,40.9611],[-96.0729,40.9741],[-96.0729,40.9856]]]}},{"type":"Feature","properties":{"c":"#c8f500","v0":0.2,"v1":0.25},"geometry":{"type":"Polygon","coordinates":[[[-96.2826,40.8371],[-96.272,40.8522],[-96.2525,40.8628],[-96.2242,40.869],[-96.1988,40.8652],[-96.1764,40.8515],[-96.1614,40.8333],[-96.1536,40.8106],[-96.1648,40.7939],[-96.1949,40.7833],[-96.227,40.7833],[-96.261,40.7939],[-96.2805,40.8068],[-96.2854,40.8219],[-96.2826,40.8371]],[[-96.2793,40.8371],[-96.2674,40.8522],[-96.2486,40.8623],[-96.2229,40.8673],[-96.1968,40.8598],[-96.1703,40.8396],[-96.1563,40.8219],[-96.1548,40.8068],[-96.1731,40.7957],[-96.211,40.7887],[-96.24,40.7888],[-96.26,40.796],[-96.2738,40.8071],[-96.2814,40.822],[-96.2793,40.8371]]]}},{"type":"Feature","properties":{"c":"#c8f500","v0":0.2,"v1":0.25},"geometry":{"type":"Polygon","coordinates":[[[-99.9928,38.5897],[-99.9776,38.6028],[-99.9524,38.6067],[-99.9173,38.6015],[-99.9028,38.591],[-99.9088,38.5754],[-99.9214,38.5637],[-99.9405,38.5559],[-99.9626,38.5598],[-99.9878,38.5754],[-99.9928,38.5897]],[[-99.9888,38.5887],[-99.9763,38.5998],[-99.9541,38.6037],[-99.9223,38.6005],[-99.9173,38.588],[-99.9391,38.5664],[-99.9613,38.5625],[-99.9838,38.5763],[-99.9888,38.5887]]]}},{"type":"Feature","properties":{"c":"#c8f500","v0":0.2,"v1":0.25},"geometry":{"type":"Polygon","coordinates":[[[-110.0873,30.7755],[-110.0624,30.796],[-110.0372,30.8046],[-110.0115,30.8013],[-110.0065,30.7878],[-110.0222,30.7644],[-110.0474,30.7558],[-110.0823,30.7621],[-110.0873,30.7755]],[[-110.0723,30.7879],[-110.0441,30.799],[-110.0231,30.799],[-110.0094,30.7879],[-110.0144,30.7762],[-110.0381,30.7639],[-110.0591,30.7639],[-110.0773,30.7762],[-110.0723,30.7879]]]}},{"type":"Feature","properties":{"c":"#c8f500","v0":0.2,"v1":0.25},"geometry":{"type":"Polygon","coordinates":[[[-109.9011,30.6597],[-109.8804,30.6894],[-109.86,30.7078],[-109.84,30.715],[-109.8141,30.7044],[-109.7823,30.6762],[-109.7658,30.6491],[-109.7648,30.6233],[-109.7807,30.5987],[-109.8136,30.5754],[-109.8504,30.584],[-109.8911,30.6246],[-109.9011,30.6597]],[[-109.8876,30.6617],[-109.8492,30.6954],[-109.8154,30.6997],[-109.7861,30.6746],[-109.7726,30.6448],[-109.775,30.6104],[-109.7896,30.5865],[-109.8165,30.5732],[-109.8492,30.5861],[-109.8876,30.6253],[-109.8876,30.6617]]]}},{"type":"Feature","properties":{"c":"#c8f500","v0":0.2,"v1":0.25},"geometry":{"type":"Polygon","coordinates":[[[-109.5562,30.5292],[-109.5521,30.539],[-109.5434,30.5433],[-109.5303,30.5421],[-109.5253,30.5366],[-109.5284,30.5267],[-109.5371,30.5223],[-109.5512,30.5237],[-109.5562,30.5292]]]}},{"type":"Feature","properties":{"c":"#c8f500","v0":0.2,"v1":0.25},"geometry":{"type":"Polygon","coordinates":[[[-109.4493,30.518],[-109.4231,30.5398],[-109.3939,30.5441],[-109.3617,30.5309],[-109.3617,30.5111],[-109.3939,30.4847],[-109.42,30.4737],[-109.44,30.4781],[-109.4531,30.487],[-109.4593,30.5004],[-109.4493,30.518]],[[-109.4463,30.5172],[-109.4221,30.5374],[-109.3956,30.5417],[-109.3667,30.5301],[-109.3667,30.512],[-109.3956,30.4874],[-109.4221,30.4831],[-109.4463,30.4991],[-109.4463,30.5172]]]}},{"type":"Feature","properties":{"c":"#c8f500","v0":0.2,"v1":0.25},"geometry":{"type":"Polygon","coordinates":[[[-83.1104,24.4658],[-83.0968,24.4763],[-83.0833,24.4717],[-83.07,24.4522],[-83.0768,24.4469],[-83.1038,24.456],[-83.1104,24.4658]]]}},{"type":"Feature","properties":{"c":"#c8f500","v0":0.25,"v1":0.5},"geometry":{"type":"Polygon","coordinates":[[[-95.6092,41.0821],[-95.5964,41.104],[-95.575,41.1166],[-95.545,41.1199],[-95.5162,41.0977],[-95.4887,41.0499],[-95.4887,41.0183],[-95.5162,41.0031],[-95.5466,41.0031],[-95.5798,41.0183],[-95.6012,41.0373],[-95.6108,41.0599],[-95.6092,41.0821]],[[-95.5907,41.0787],[-95.5807,41.0938],[-95.567,41.1014],[-95.5496,41.1014],[-95.5298,41.0825],[-95.5078,41.0448],[-95.5051,41.0228],[-95.5217,41.0165],[-95.5398,41.0165],[-95.5595,41.0228],[-95.576,41.0373],[-95.5891,41.0599],[-95.5907,41.0787]]]}},{"type":"Feature","properties":{"c":"#c8f500","v0":0.25,"v1":0.5},"geometry":{"type":"Polygon","coordinates":[[[-95.0792,41.1195],[-95.0597,41.1257],[-95.0319,41.122],[-94.9957,41.1082],[-94.9751,41.0901],[-94.9703,41.0674],[-94.9734,41.0491],[-94.9845,41.035],[-95.005,41.0331],[-95.035,41.0435],[-95.0597,41.0656],[-95.0792,41.0995],[-95.0792,41.1195]],[[-95.0412,41.0888],[-95.0204,41.0938],[-95.0067,41.0863],[-95.0,41.0662],[-95.005,41.0557],[-95.0217,41.0549],[-95.0354,41.0624],[-95.0462,41.0783],[-95.0412,41.0888]]]}},{"type":"Feature","properties":{"c":"#c8f500","v0":0.25,"v1":0.5},"geometry":{"type":"Polygon","coordinates":[[[-96.0729,40.9856],[-96.0576,40.9953],[-96.0425,40.9916],[-96.0276,40.9742],[-96.0276,40.9628],[-96.0425,40.9573],[-96.0576,40.9611],[-96.0729,40.9741],[-96.0729,40.9856]]]}},{"type":"Feature","properties":{"c":"#c8f500","v0":0.25,"v1":0.5},"geometry":{"type":"Polygon","coordinates":[[[-96.2793,40.8371],[-96.2674,40.8522],[-96.2486,40.8623],[-96.2229,40.8673],[-96.1968,40.8598],[-96.1703,40.8396],[-96.1563,40.8219],[-96.1548,40.8068],[-96.1731,40.7957],[-96.211,40.7887],[-96.24,40.7888],[-96.26,40.796],[-96.2738,40.8071],[-96.2814,40.822],[-96.2793,40.8371]],[[-96.2663,40.8357],[-96.2554,40.848],[-96.24,40.8554],[-96.22,40.8578],[-96.1994,40.8479],[-96.1781,40.8255],[-96.1781,40.8086],[-96.1994,40.797],[-96.2254,40.8008],[-96.2563,40.8199],[-96.2663,40.8357]]]}},{"type":"Feature","properties":{"c":"#c8f500","v0":0.25,"v1":0.5},"geometry":{"type":"Polygon","coordinates":[[[-99.9888,38.5887],[-99.9763,38.5998],[-99.9541,38.6037],[-99.9223,38.6005],[-99.9173,38.588],[-99.9391,38.5664],[-99.9613,38.5625],[-99.9838,38.5763],[-99.9888,38.5887]]]}},{"type":"Feature","properties":{"c":"#c8f500","v0":0.25,"v1":0.5},"geometry":{"type":"Polygon","coordinates":[[[-110.0723,30.7879],[-110.0441,30.799],[-110.0231,30.799],[-110.0094,30.7879],[-110.0144,30.7762],[-110.0381,30.7639],[-110.0591,30.7639],[-110.0773,30.7762],[-110.0723,30.7879]]]}},{"type":"Feature","properties":{"c":"#c8f500","v0":0.25,"v1":0.5},"geometry":{"type":"Polygon","coordinates":[[[-109.8876,30.6617],[-109.8492,30.6954],[-109.8154,30.6997],[-109.7861,30.6746],[-109.7726,30.6448],[-109.775,30.6104],[-109.7896,30.5865],[-109.8165,30.5732],[-109.8492,30.5861],[-109.8876,30.6253],[-109.8876,30.6617]],[[-109.8749,30.6532],[-109.8583,30.67],[-109.84,30.6766],[-109.82,30.6731],[-109.8038,30.6647],[-109.7914,30.6515],[-109.7873,30.6319],[-109.7914,30.6061],[-109.8026,30.5901],[-109.8209,30.5839],[-109.8433,30.5968],[-109.8699,30.6288],[-109.8749,30.6532]]]}},{"type":"Feature","properties":{"c":"#c8f500","v0":0.25,"v1":0.5},"geometry":{"type":"Polygon","coordinates":[[[-109.4463,30.5172],[-109.4221,30.5374],[-109.3956,30.5417],[-109.3667,30.5301],[-109.3667,30.512],[-109.3956,30.4874],[-109.4221,30.4831],[-109.4463,30.4991],[-109.4463,30.5172]],[[-109.436,30.5117],[-109.432,30.521],[-109.4186,30.5253],[-109.3958,30.5246],[-109.3908,30.5163],[-109.4036,30.5002],[-109.417,30.4959],[-109.431,30.5033],[-109.436,30.5117]]]}},{"type":"Feature","properties":{"c":"#ffff00","v0":0.5,"v1":0.75},"geometry":{"type":"Polygon","coordinates":[[[-95.5907,41.0787],[-95.5807,41.0938],[-95.567,41.1014],[-95.5496,41.1014],[-95.5298,41.0825],[-95.5078,41.0448],[-95.5051,41.0228],[-95.5217,41.0165],[-95.5398,41.0165],[-95.5595,41.0228],[-95.576,41.0373],[-95.5891,41.0599],[-95.5907,41.0787]],[[-95.5644,41.059],[-95.5548,41.0648],[-95.542,41.0611],[-95.5259,41.0477],[-95.5259,41.0396],[-95.542,41.0367],[-95.5548,41.0404],[-95.5644,41.0509],[-95.5644,41.059]]]}},{"type":"Feature","properties":{"c":"#ffff00","v0":0.5,"v1":0.75},"geometry":{"type":"Polygon","coordinates":[[[-95.0412,41.0888],[-95.0204,41.0938],[-95.0067,41.0863],[-95.0,41.0662],[-95.005,41.0557],[-95.0217,41.0549],[-95.0354,41.0624],[-95.0462,41.0783],[-95.0412,41.0888]]]}},{"type":"Feature","properties":{"c":"#ffff00","v0":0.5,"v1":0.75},"geometry":{"type":"Polygon","coordinates":[[[-96.2663,40.8357],[-96.2554,40.848],[-96.24,40.8554],[-96.22,40.8578],[-96.1994,40.8479],[-96.1781,40.8255],[-96.1781,40.8086],[-96.1994,40.797],[-96.2254,40.8008],[-96.2563,40.8199],[-96.2663,40.8357]],[[-96.2476,40.8347],[-96.2225,40.8452],[-96.203,40.8414],[-96.1889,40.8234],[-96.1939,40.8116],[-96.218,40.806],[-96.2375,40.8098],[-96.2526,40.8229],[-96.2476,40.8347]]]}},{"type":"Feature","properties":{"c":"#ffff00","v0":0.5,"v1":0.75},"geometry":{"type":"Polygon","coordinates":[[[-109.8749,30.6532],[-109.8583,30.67],[-109.84,30.6766],[-109.82,30.6731],[-109.8038,30.6647],[-109.7914,30.6515],[-109.7873,30.6319],[-109.7914,30.6061],[-109.8026,30.5901],[-109.8209,30.5839],[-109.8433,30.5968],[-109.8699,30.6288],[-109.8749,30.6532]],[[-109.8278,30.6177],[-109.8159,30.6321],[-109.81,30.6286],[-109.81,30.6071],[-109.8159,30.5999],[-109.8278,30.6069],[-109.8278,30.6177]]]}},{"type":"Feature","properties":{"c":"#ffff00","v0":0.5,"v1":0.75},"geometry":{"type":"Polygon","coordinates":[[[-109.436,30.5117],[-109.432,30.521],[-109.4186,30.5253],[-109.3958,30.5246],[-109.3908,30.5163],[-109.4036,30.5002],[-109.417,30.4959],[-109.431,30.5033],[-109.436,30.5117]]]}},{"type":"Feature","properties":{"c":"#ffd700","v0":0.75,"v1":1.0},"geometry":{"type":"Polygon","coordinates":[[[-95.5644,41.059],[-95.5548,41.0648],[-95.542,41.0611],[-95.5259,41.0477],[-95.5259,41.0396],[-95.542,41.0367],[-95.5548,41.0404],[-95.5644,41.0509],[-95.5644,41.059]]]}},{"type":"Feature","properties":{"c":"#ffd700","v0":0.75,"v1":1.0},"geometry":{"type":"Polygon","coordinates":[[[-96.2476,40.8347],[-96.2225,40.8452],[-96.203,40.8414],[-96.1889,40.8234],[-96.1939,40.8116],[-96.218,40.806],[-96.2375,40.8098],[-96.2526,40.8229],[-96.2476,40.8347]],[[-96.2385,40.8322],[-96.2195,40.8377],[-96.2074,40.8339],[-96.2021,40.8209],[-96.2071,40.8137],[-96.2224,40.8123],[-96.2345,40.8161],[-96.2435,40.825],[-96.2385,40.8322]]]}},{"type":"Feature","properties":{"c":"#ffd700","v0":0.75,"v1":1.0},"geometry":{"type":"Polygon","coordinates":[[[-109.8278,30.6177],[-109.8159,30.6321],[-109.81,30.6286],[-109.81,30.6071],[-109.8159,30.5999],[-109.8278,30.6069],[-109.8278,30.6177]]]}},{"type":"Feature","properties":{"c":"#ff8c00","v0":1.0,"v1":1.5},"geometry":{"type":"Polygon","coordinates":[[[-96.2385,40.8322],[-96.2195,40.8377],[-96.2074,40.8339],[-96.2021,40.8209],[-96.2071,40.8137],[-96.2224,40.8123],[-96.2345,40.8161],[-96.2435,40.825],[-96.2385,40.8322]]]}}]}