{"type":"FeatureCollection","features":[{"type":"Feature","properties":{"c":"#c8f500","v0":0.2,"v1":0.25},"geometry":{"type":"Polygon","coordinates":[[[-105.034,36.3062],[-105.018,36.3254],[-105.0,36.3361],[-104.98,36.3382],[-104.9491,36.3246],[-104.9072,36.2952],[-104.8851,36.2725],[-104.8828,36.2563],[-104.8887,36.2422],[-104.9029,36.23],[-104.925,36.2238],[-104.955,36.2236],[-104.9831,36.2297],[-105.0093,36.2421],[-105.0273,36.2604],[-105.0371,36.2846],[-105.034,36.3062]],[[-105.0314,36.3053],[-105.0171,36.3227],[-105.0,36.3327],[-104.98,36.3354],[-104.9502,36.3227],[-104.9106,36.2946],[-104.8896,36.2725],[-104.8871,36.2563],[-104.8919,36.243],[-104.904,36.2324],[-104.925,36.2269],[-104.955,36.2265],[-104.9821,36.2318],[-105.0062,36.2428],[-105.0234,36.2604],[-105.0335,36.2846],[-105.0314,36.3053]]]}},{"type":"Feature","properties":{"c":"#c8f500","v0":0.2,"v1":0.25},"geometry":{"type":"Polygon","coordinates":[[[-84.1955,35.1419],[-84.1518,35.1708],[-84.1211,35.1831],[-84.1034,35.1786],[-84.1084,35.1611],[-84.1361,35.1305],[-84.16,35.1137],[-84.18,35.1107],[-84.1968,35.1137],[-84.2105,35.1228],[-84.1955,35.1419]],[[-84.1853,35.139],[-84.1351,35.1623],[-84.12,35.1609],[-84.14,35.1347],[-84.1651,35.123],[-84.1953,35.1259],[-84.1853,35.139]]]}},{"type":"Feature","properties":{"c":"#c8f500","v0":0.2,"v1":0.25},"geometry":{"type":"Polygon","coordinates":[[[-111.2579,35.1181],[-111.2393,35.1322],[-111.207,35.1282],[-111.1609,35.1058],[-111.1459,35.0887],[-111.162,35.0767],[-111.1943,35.0807],[-111.2429,35.1009],[-111.2579,35.1181]],[[-111.2547,35.1174],[-111.2382,35.1301],[-111.2085,35.1261],[-111.1655,35.1051],[-111.1505,35.0897],[-111.1635,35.0797],[-111.1932,35.0837],[-111.2397,35.1019],[-111.2547,35.1174]]]}},{"type":"Feature","properties":{"c":"#c8f500","v0":0.2,"v1":0.25},"geometry":{"type":"Polygon","coordinates":[[[-84.4074,35.053],[-84.3958,35.0678],[-84.3836,35.0719],[-84.3708,35.0653],[-84.3708,35.0553],[-84.3836,35.0421],[-84.3958,35.038],[-84.4074,35.043],[-84.4074,35.053]],[[-84.3963,35.0619],[-84.3805,35.0619],[-84.3744,35.0578],[-84.3778,35.0496],[-84.3855,35.0455],[-84.3975,35.0455],[-84.4037,35.0496],[-84.404,35.0578],[-84.3963,35.0619]]]}},{"type":"Feature","properties":{"c":"#c8f500","v0":0.2,"v1":0.25},"geometry":{"type":"Polygon","coordinates":[[[-84.348,34.4769],[-84.336,34.49],[-84.3225,34.49],[-84.3074,34.4769],[-84.3074,34.4647],[-84.3225,34.4532],[-84.336,34.4532],[-84.348,34.4647],[-84.348,34.4769]],[[-84.3426,34.4754],[-84.3342,34.4853],[-84.3241,34.4853],[-84.3122,34.4754],[-84.3122,34.466],[-84.3241,34.4571],[-84.3342,34.4571],[-84.3426,34.466],[-84.3426,34.4754]]]}},{"type":"Feature","properties":{"c":"#c8f500","v0":0.2,"v1":0.25},"geometry":{"type":"Polygon","coordinates":[[[-107.5836,33.9634],[-107.5745,33.9749],[-107.5658,33.979],[-107.5573,33.9758],[-107.5573,33.9678],[-107.5658,33.955],[-107.5745,33.9509],[-107.5836,33.9554],[-107.5836,33.9634]]]}},{"type":"Feature","properties":{"c":"#c8f500","v0":0.2,"v1":0.25},"geometry":{"type":"Polygon","coordinates":[[[-109.8129,33.5919],[-109.7962,33.5919],[-109.7933,33.5876],[-109.8044,33.5789],[-109.8128,33.5789],[-109.8184,33.5876],[-109.8129,33.5919]]]}},{"type":"Feature","properties":{"c":"#c8f500","v0":0.2,"v1":0.25},"geometry":{"type":"Polygon","coordinates":[[[-109.7993,33.4988],[-109.7798,33.5126],[-109.7614,33.5126],[-109.7442,33.4988],[-109.7338,33.4794],[-109.7302,33.4543],[-109.7338,33.4337],[-109.7446,33.4176],[-109.76,33.4173],[-109.78,33.4329],[-109.7948,33.4535],[-109.8043,33.4791],[-109.7993,33.4988]],[[-109.795,33.4973],[-109.7783,33.5081],[-109.7629,33.5081],[-109.7488,33.4973],[-109.7438,33.4734],[-109.7479,33.4366],[-109.7633,33.4366],[-109.79,33.4734],[-109.795,33.4973]]]}},{"type":"Feature","properties":{"c":"#c8f500","v0":0.2,"v1":0.25},"geometry":{"type":"Polygon","coordinates":[[[-108.5544,32.8512],[-108.5381,32.8757],[-108.5177,32.8841],[-108.4932,32.8764],[-108.4797,32.8641],[-108.4774,32.8473],[-108.4846,32.8303],[-108.5015,32.813],[-108.5231,32.813],[-108.5494,32.8303],[-108.5544,32.8512]],[[-108.5516,32.8502],[-108.5372,32.8729],[-108.5189,32.8813],[-108.4966,32.8754],[-108.4841,32.8641],[-108.4812,32.8473],[-108.4873,32.8312],[-108.5024,32.8158],[-108.5222,32.8158],[-108.5466,32.8312],[-108.5516,32.8502]]]}},{"type":"Feature","properties":{"c":"#c8f500","v0":0.2,"v1":0.25},"geometry":{"type":"Polygon","coordinates":[[[-108.1476,32.6389],[-108.1359,32.6426],[-108.13,32.638],[-108.13,32.6248],[-108.1359,32.623],[-108.1476,32.6323],[-108.1476,32.6389]]]}},{"type":"Feature","properties":{"c":"#c8f500","v0":0.2,"v1":0.25},"geometry":{"type":"Polygon","coordinates":[[[-108.6142,30.4277],[-108.5981,30.4413],[-108.5799,30.437],[-108.5596,30.4148],[-108.5596,30.3983],[-108.5799,30.3877],[-108.5981,30.392],[-108.6142,30.4112],[-108.6142,30.4277]],[[-108.6109,30.4266],[-108.597,30.4381],[-108.5811,30.4338],[-108.5634,30.4137],[-108.5634,30.3994],[-108.5811,30.3909],[-108.597,30.3952],[-108.6109,30.4123],[-108.6109,30.4266]]]}},{"type":"Feature","properties":{"c":"#c8f500","v0":0.2,"v1":0.25},"geometry":{"type":"Polygon","coordinates":[[[-101.5617,26.9863],[-101.5406,26.9927],[-101.5245,26.9882],[-101.5134,26.9729],[-101.5134,26.9633],[-101.5245,26.9593],[-101.5406,26.9638],[-101.5617,26.9766],[-101.5617,26.9863]],[[-101.5546,26.9849],[-101.5382,26.9886],[-101.5275,26.9842],[-101.5226,26.9715],[-101.5308,26.9697],[-101.5521,26.9786],[-101.5546,26.9849]]]}},{"type":"Feature","properties":{"c":"#c8f500","v0":0.2,"v1":0.25},"geometry":{"type":"Polygon","coordinates":[[[-100.2955,26.1875],[-100.2785,26.2063],[-100.2612,26.2108],[-100.2435,26.201],[-100.2323,26.1871],[-100.2277,26.1692],[-100.2366,26.1548],[-100.2589,26.1441],[-100.2785,26.1485],[-100.2955,26.1683],[-100.2955,26.1875]],[[-100.2924,26.1862],[-100.2775,26.2025],[-100.2605,26.198],[-100.2416,26.1728],[-100.2416,26.156],[-100.2605,26.1475],[-100.2775,26.152],[-100.2924,26.1694],[-100.2924,26.1862]]]}},{"type":"Feature","properties":{"c":"#c8f500","v0":0.2,"v1":0.25},"geometry":{"type":"Polygon","coordinates":[[[-101.2992,26.114],[-101.2797,26.1293],[-101.2589,26.1248],[-101.2366,26.1005],[-101.2366,26.0808],[-101.2589,26.0657],[-101.2797,26.0702],[-101.2992,26.0943],[-101.2992,26.114]],[[-101.2951,26.1126],[-101.2784,26.1251],[-101.2603,26.1206],[-101.241,26.0991],[-101.241,26.082],[-101.2603,26.0693],[-101.2784,26.0738],[-101.2951,26.0955],[-101.2951,26.1126]]]}},{"type":"Feature","properties":{"c":"#c8f500","v0":0.2,"v1":0.25},"geometry":{"type":"Polygon","coordinates":[[[-100.3816,25.8082],[-100.3739,25.8235],[-100.36,25.8317],[-100.34,25.8328],[-100.3263,25.8162],[-100.3188,25.7818],[-100.3288,25.7624],[-100.3563,25.758],[-100.3739,25.767],[-100.3816,25.7894],[-100.3816,25.8082]],[[-100.3791,25.8069],[-100.373,25.8197],[-100.36,25.8268],[-100.34,25.8284],[-100.3272,25.813],[-100.3217,25.7807],[-100.3317,25.7635],[-100.3572,25.7613],[-100.373,25.7703],[-100.3791,25.7905],[-100.3791,25.8069]]]}},{"type":"Feature","properties":{"c":"#c8f500","v0":0.2,"v1":0.25},"geometry":{"type":"Polygon","coordinates":[[[-100.4079,25.5536],[-100.396,25.5643],[-100.385,25.5662],[-100.375,25.5593],[-100.375,25.5438],[-100.385,25.5198],[-100.396,25.5178],[-100.4079,25.5381],[-100.4079,25.5536]],[[-100.3969,25.5482],[-100.3836,25.5482],[-100.3802,25.5412],[-100.3867,25.5273],[-100.3934,25.5273],[-100.4001,25.5412],[-100.3969,25.5482]]]}},{"type":"Feature","properties":{"c":"#c8f500","v0":0.2,"v1":0.25},"geometry":{"type":"Polygon","coordinates":[[[-100.0932,25.4256],[-100.0777,25.4333],[-100.0533,25.4152],[-100.0198,25.3714],[-100.0048,25.3276],[-100.0083,25.2838],[-100.0285,25.2747],[-100.0656,25.3005],[-100.0883,25.3405],[-100.0967,25.3947],[-100.0932,25.4256]],[[-100.0891,25.4239],[-100.0764,25.4281],[-100.0543,25.4101],[-100.0228,25.3697],[-100.0078,25.3292],[-100.0093,25.2885],[-100.0278,25.2795],[-100.0635,25.3021],[-100.0848,25.3405],[-100.0919,25.3947],[-100.0891,25.4239]]]}},{"type":"Feature","properties":{"c":"#c8f500","v0":0.2,"v1":0.25},"geometry":{"type":"Polygon","coordinates":[[[-100.1311,25.1036],[-100.117,25.1183],[-100.1011,25.1183],[-100.0833,25.1036],[-100.0783,25.0888],[-100.0861,25.0741],[-100.102,25.0741],[-100.1261,25.0888],[-100.1311,25.1036]],[[-100.1221,25.1007],[-100.1095,25.1098],[-100.0994,25.1053],[-100.0915,25.0871],[-100.0978,25.0826],[-100.1181,25.0917],[-100.1221,25.1007]]]}},{"type":"Feature","properties":{"c":"#c8f500","v0":0.2,"v1":0.25},"geometry":{"type":"Polygon","coordinates":[[[-99.9567,24.7393],[-99.9522,24.751],[-99.94,24.7578],[-99.92,24.7596],[-99.9025,24.7492],[-99.8875,24.7265],[-99.8925,24.7112],[-99.9175,24.7032],[-99.9372,24.7078],[-99.9517,24.7248],[-99.9567,24.7393]],[[-99.9434,24.7392],[-99.9211,24.7509],[-99.9036,24.7464],[-99.8907,24.7256],[-99.8957,24.7121],[-99.9186,24.7059],[-99.9361,24.7105],[-99.9484,24.7258],[-99.9434,24.7392]]]}},{"type":"Feature","properties":{"c":"#c8f500","v0":0.2,"v1":0.25},"geometry":{"type":"Polygon","coordinates":[[[-100.1961,24.5992],[-100.1787,24.6217],[-100.16,24.6325],[-100.14,24.6315],[-100.1171,24.6202],[-100.0912,24.5987],[-100.0769,24.5789],[-100.0741,24.5607],[-100.0821,24.5426],[-100.1007,24.5247],[-100.12,24.5167],[-100.14,24.5187],[-100.1612,24.5277],[-100.1837,24.5436],[-100.1974,24.5607],[-100.2024,24.5789],[-100.1961,24.5992]],[[-100.1938,24.5981],[-100.1779,24.6184],[-100.16,24.6283],[-100.14,24.6277],[-100.1179,24.6176],[-100.0938,24.5979],[-100.0801,24.5789],[-100.077,24.5607],[-100.0841,24.5432],[-100.1014,24.5265],[-100.12,24.5192],[-100.14,24.5214],[-100.1629,24.5389],[-100.1888,24.5716],[-100.1938,24.5981]]]}},{"type":"Feature","properties":{"c":"#c8f500","v0":0.2,"v1":0.25},"geometry":{"type":"Polygon","coordinates":[[[-99.4203,23.7694],[-99.4134,23.7746],[-99.4037,23.77],[-99.3912,23.7557],[-99.3947,23.7531],[-99.414,23.7623],[-99.4203,23.7694]]]}},{"type":"Feature","properties":{"c":"#c8f500","v0":0.2,"v1":0.25},"geometry":{"type":"Polygon","coordinates":[[[-81.9603,22.6871],[-81.9401,22.6966],[-81.9171,22.6966],[-81.8913,22.6871],[-81.8963,22.6771],[-81.9321,22.6664],[-81.9551,22.6664],[-81.9653,22.6771],[-81.9603,22.6871]]]}},{"type":"Feature","properties":{"c":"#c8f500","v0":0.25,"v1":0.5},"geometry":{"type":"Polygon","coordinates":[[[-105.0314,36.3053],[-105.0171,36.3227],[-105.0,36.3327],[-104.98,36.3354],[-104.9502,36.3227],[-104.9106,36.2946],[-104.8896,36.2725],[-104.8871,36.2563],[-104.8919,36.243],[-104.904,36.2324],[-104.925,36.2269],[-104.955,36.2265],[-104.9821,36.2318],[-105.0062,36.2428],[-105.0234,36.2604],[-105.0335,36.2846],[-105.0314,36.3053]],[[-105.0104,36.3039],[-104.9835,36.3183],[-104.9542,36.3143],[-104.9226,36.2918],[-104.906,36.2725],[-104.9042,36.2563],[-104.9099,36.2449],[-104.9233,36.238],[-104.945,36.2368],[-104.975,36.2412],[-104.9985,36.2567],[-105.0154,36.2833],[-105.0104,36.3039]]]}},{"type":"Feature","properties":{"c":"#c8f500","v0":0.25,"v1":0.5},"geometry":{"type":"Polygon","coordinates":[[[-84.1853,35.139],[-84.1351,35.1623],[-84.12,35.1609],[-84.14,35.1347],[-84.1651,35.123],[-84.1953,35.1259],[-84.1853,35.139]]]}},{"type":"Feature","properties":{"c":"#c8f500","v0":0.25,"v1":0.5},"geometry":{"type":"Polygon","coordinates":[[[-111.2547,35.1174],[-111.2382,35.1301],[-111.2085,35.1261],[-111.1655,35.1051],[-111.1505,35.0897],[-111.1635,35.0797],[-111.1932,35.0837],[-111.2397,35.1019],[-111.2547,35.1174]]]}},{"type":"Feature","properties":{"c":"#c8f500","v0":0.25,"v1":0.5},"geometry":{"type":"Polygon","coordinates":[[[-84.3963,35.0619],[-84.3805,35.0619],[-84.3744,35.0578],[-84.3778,35.0496],[-84.3855,35.0455],[-84.3975,35.0455],[-84.4037,35.0496],[-84.404,35.0578],[-84.3963,35.0619]]]}},{"type":"Feature","properties":{"c":"#c8f500","v0":0.25,"v1":0.5},"geometry":{"type":"Polygon","coordinates":[[[-84.3426,34.4754],[-84.3342,34.4853],[-84.3241,34.4853],[-84.3122,34.4754],[-84.3122,34.466],[-84.3241,34.4571],[-84.3342,34.4571],[-84.3426,34.466],[-84.3426,34.4754]]]}},{"type":"Feature","properties":{"c":"#c8f500","v0":0.25,"v1":0.5},"geometry":{"type":"Polygon","coordinates":[[[-109.795,33.4973],[-109.7783,33.5081],[-109.7629,33.5081],[-109.7488,33.4973],[-109.7438,33.4734],[-109.7479,33.4366],[-109.7633,33.4366],[-109.79,33.4734],[-109.795,33.4973]]]}},{"type":"Feature","properties":{"c":"#c8f500","v0":0.25,"v1":0.5},"geometry":{"type":"Polygon","coordinates":[[[-108.5516,32.8502],[-108.5372,32.8729],[-108.5189,32.8813],[-108.4966,32.8754],[-108.4841,32.8641],[-108.4812,32.8473],[-108.4873,32.8312],[-108.5024,32.8158],[-108.5222,32.8158],[-108.5466,32.8312],[-108.5516,32.8502]],[[-108.5319,32.8465],[-108.5173,32.8616],[-108.51,32.8585],[-108.51,32.8369],[-108.5173,32.8294],[-108.5319,32.8357],[-108.5319,32.8465]]]}},{"type":"Feature","properties":{"c":"#c8f500","v0":0.25,"v1":0.5},"geometry":{"type":"Polygon","coordinates":[[[-108.6109,30.4266],[-108.597,30.4381],[-108.5811,30.4338],[-108.5634,30.4137],[-108.5634,30.3994],[-108.5811,30.3909],[-108.597,30.3952],[-108.6109,30.4123],[-108.6109,30.4266]]]}},{"type":"Feature","properties":{"c":"#c8f500","v0":0.25,"v1":0.5},"geometry":{"type":"Polygon","coordinates":[[[-101.5546,26.9849],[-101.5382,26.9886],[-101.5275,26.9842],[-101.5226,26.9715],[-101.5308,26.9697],[-101.5521,26.9786],[-101.5546,26.9849]]]}},{"type":"Feature","properties":{"c":"#c8f500","v0":0.25,"v1":0.5},"geometry":{"type":"Polygon","coordinates":[[[-100.2924,26.1862],[-100.2775,26.2025],[-100.2605,26.198],[-100.2416,26.1728],[-100.2416,26.156],[-100.2605,26.1475],[-100.2775,26.152],[-100.2924,26.1694],[-100.2924,26.1862]]]}},{"type":"Feature","properties":{"c":"#c8f500","v0":0.25,"v1":0.5},"geometry":{"type":"Polygon","coordinates":[[[-101.2951,26.1126],[-101.2784,26.1251],[-101.2603,26.1206],[-101.241,26.0991],[-101.241,26.082],[-101.2603,26.0693],[-101.2784,26.0738],[-101.2951,26.0955],[-101.2951,26.1126]]]}},{"type":"Feature","properties":{"c":"#c8f500","v0":0.25,"v1":0.5},"geometry":{"type":"Polygon","coordinates":[[[-100.3791,25.8069],[-100.373,25.8197],[-100.36,25.8268],[-100.34,25.8284],[-100.3272,25.813],[-100.3217,25.7807],[-100.3317,25.7635],[-100.3572,25.7613],[-100.373,25.7703],[-100.3791,25.7905],[-100.3791,25.8069]],[[-100.3604,25.791],[-100.3535,25.8078],[-100.345,25.8127],[-100.335,25.8056],[-100.335,25.7933],[-100.345,25.7757],[-100.3535,25.7708],[-100.3604,25.7786],[-100.3604,25.791]]]}},{"type":"Feature","properties":{"c":"#c8f500","v0":0.25,"v1":0.5},"geometry":{"type":"Polygon","coordinates":[[[-100.3969,25.5482],[-100.3836,25.5482],[-100.3802,25.5412],[-100.3867,25.5273],[-100.3934,25.5273],[-100.4001,25.5412],[-100.3969,25.5482]]]}},{"type":"Feature","properties":{"c":"#c8f500","v0":0.25,"v1":0.5},"geometry":{"type":"Polygon","coordinates":[[[-100.0891,25.4239],[-100.0764,25.4281],[-100.0543,25.4101],[-100.0228,25.3697],[-100.0078,25.3292],[-100.0093,25.2885],[-100.0278,25.2795],[-100.0635,25.3021],[-100.0848,25.3405],[-100.0919,25.3947],[-100.0891,25.4239]],[[-100.0687,25.3565],[-100.0562,25.3706],[-100.045,25.3737],[-100.035,25.3659],[-100.0258,25.3454],[-100.0175,25.312],[-100.0225,25.2948],[-100.0408,25.2937],[-100.0562,25.3072],[-100.0687,25.3354],[-100.0687,25.3565]]]}},{"type":"Feature","properties":{"c":"#c8f500","v0":0.25,"v1":0.5},"geometry":{"type":"Polygon","coordinates":[[[-100.1221,25.1007],[-100.1095,25.1098],[-100.0994,25.1053],[-100.0915,25.0871],[-100.0978,25.0826],[-100.1181,25.0917],[-100.1221,25.1007]]]}},{"type":"Feature","properties":{"c":"#c8f500","v0":0.25,"v1":0.5},"geometry":{"type":"Polygon","coordinates":[[[-99.9434,24.7392],[-99.9211,24.7509],[-99.9036,24.7464],[-99.8907,24.7256],[-99.8957,24.7121],[-99.9186,24.7059],[-99.9361,24.7105],[-99.9484,24.7258],[-99.9434,24.7392]]]}},{"type":"Feature","properties":{"c":"#c8f500","v0":0.25,"v1":0.5},"geometry":{"type":"Polygon","coordinates":[[[-100.1938,24.5981],[-100.1779,24.6184],[-100.16,24.6283],[-100.14,24.6277],[-100.1179,24.6176],[-100.0938,24.5979],[-100.0801,24.5789],[-100.077,24.5607],[-100.0841,24.5432],[-100.1014,24.5265],[-100.12,24.5192],[-100.14,24.5214],[-100.1629,24.5389],[-100.1888,24.5716],[-100.1938,24.5981]],[[-100.1824,24.594],[-100.1741,24.6061],[-100.16,24.613],[-100.14,24.6148],[-100.1198,24.5997],[-100.0993,24.5676],[-100.0993,24.5458],[-100.1198,24.5343],[-100.1405,24.5343],[-100.1615,24.5458],[-100.1757,24.5607],[-100.1829,24.5789],[-100.1824,24.594]]]}},{"type":"Feature","properties":{"c":"#ffff00","v0":0.5,"v1":0.75},"geometry":{"type":"Polygon","coordinates":[[[-105.0104,36.3039],[-104.9835,36.3183],[-104.9542,36.3143],[-104.9226,36.2918],[-104.906,36.2725],[-104.9042,36.2563],[-104.9099,36.2449],[-104.9233,36.238],[-104.945,36.2368],[-104.975,36.2412],[-104.9985,36.2567],[-105.0154,36.2833],[-105.0104,36.3039]],[[-105.0082,36.2886],[-105.0007,36.3047],[-104.9903,36.3138],[-104.9768,36.3157],[-104.9557,36.3036],[-104.9272,36.2775],[-104.9172,36.2596],[-104.9257,36.25],[-104.94,36.2454],[-104.96,36.2459],[-104.9805,36.2548],[-105.0015,36.272],[-105.0082,36.2886]]]}},{"type":"Feature","properties":{"c":"#ffff00","v0":0.5,"v1":0.75},"geometry":{"type":"Polygon","coordinates":[[[-108.5319,32.8465],[-108.5173,32.8616],[-108.51,32.8585],[-108.51,32.8369],[-108.5173,32.8294],[-108.5319,32.8357],[-108.5319,32.8465]]]}},{"type":"Feature","properties":{"c":"#ffff00","v0":0.5,"v1":0.75},"geometry":{"type":"Polygon","coordinates":[[[-100.3604,25.791],[-100.3535,25.8078],[-100.345,25.8127],[-100.335,25.8056],[-100.335,25.7933],[-100.345,25.7757],[-100.3535,25.7708],[-100.3604,25.7786],[-100.3604,25.791]]]}},{"type":"Feature","properties":{"c":"#ffff00","v0":0.5,"v1":0.75},"geometry":{"type":"Polygon","coordinates":[[[-100.0687,25.3565],[-100.0562,25.3706],[-100.045,25.3737],[-100.035,25.3659],[-100.0258,25.3454],[-100.0175,25.312],[-100.0225,25.2948],[-100.0408,25.2937],[-100.0562,25.3072],[-100.0687,25.3354],[-100.0687,25.3565]],[[-100.0587,25.3382],[-100.0529,25.3517],[-100.045,25.3548],[-100.035,25.3474],[-100.03,25.3332],[-100.03,25.312],[-100.0379,25.3089],[-100.0537,25.3239],[-100.0587,25.3382]]]}},{"type":"Feature","properties":{"c":"#ffff00","v0":0.5,"v1":0.75},"geometry":{"type":"Polygon","coordinates":[[[-100.1824,24.594],[-100.1741,24.6061],[-100.16,24.613],[-100.14,24.6148],[-100.1198,24.5997],[-100.0993,24.5676],[-100.0993,24.5458],[-100.1198,24.5343],[-100.1405,24.5343],[-100.1615,24.5458],[-100.1757,24.5607],[-100.1829,24.5789],[-100.1824,24.594]],[[-100.1624,24.5922],[-100.1408,24.6006],[-100.1231,24.5915],[-100.1094,24.5649],[-100.1144,24.5508],[-100.1381,24.5492],[-100.1558,24.5583],[-100.1674,24.5781],[-100.1624,24.5922]]]}},{"type":"Feature","properties":{"c":"#ffd700","v0":0.75,"v1":1.0},"geometry":{"type":"Polygon","coordinates":[[[-105.0082,36.2886],[-105.0007,36.3047],[-104.9903,36.3138],[-104.9768,36.3157],[-104.9557,36.3036],[-104.9272,36.2775],[-104.9172,36.2596],[-104.9257,36.25],[-104.94,36.2454],[-104.96,36.2459],[-104.9805,36.2548],[-105.0015,36.272],[-105.0082,36.2886]],[[-104.9923,36.2872],[-104.9774,36.3005],[-104.9594,36.2965],[-104.9382,36.2751],[-104.9382,36.2622],[-104.9594,36.2578],[-104.9774,36.2618],[-104.9923,36.2743],[-104.9923,36.2872]]]}},{"type":"Feature","properties":{"c":"#ffd700","v0":0.75,"v1":1.0},"geometry":{"type":"Polygon","coordinates":[[[-100.0587,25.3382],[-100.0529,25.3517],[-100.045,25.3548],[-100.035,25.3474],[-100.03,25.3332],[-100.03,25.312],[-100.0379,25.3089],[-100.0537,25.3239],[-100.0587,25.3382]]]}},{"type":"Feature","properties":{"c":"#ffd700","v0":0.75,"v1":1.0},"geometry":{"type":"Polygon","coordinates":[[[-100.1624,24.5922],[-100.1408,24.6006],[-100.1231,24.5915],[-100.1094,24.5649],[-100.1144,24.5508],[-100.1381,24.5492],[-100.1558,24.5583],[-100.1674,24.5781],[-100.1624,24.5922]],[[-100.1474,24.588],[-100.133,24.588],[-100.1269,24.5793],[-100.129,24.5619],[-100.1361,24.5619],[-100.1484,24.5793],[-100.1474,24.588]]]}},{"type":"Feature","properties":{"c":"#ff8c00","v0":1.0,"v1":1.5},"geometry":{"type":"Polygon","coordinates":[[[-104.9923,36.2872],[-104.9774,36.3005],[-104.9594,36.2965],[-104.9382,36.2751],[-104.9382,36.2622],[-104.9594,36.2578],[-104.9774,36.2618],[-104.9923,36.2743],[-104.9923,36.2872]]]}},{"type":"Feature","properties":{"c":"#ff8c00","v0":1.0,"v1":1.5},"geometry":{"type":"Polygon","coordinates":[[[-100.1474,24.588],[-100.133,24.588],[-100.1269,24.5793],[-100.129,24.5619],[-100.1361,24.5619],[-100.1484,24.5793],[-100.1474,24.588]]]}}]}