{"type":"FeatureCollection","features":[{"type":"Feature","properties":{"c":"#c8f500","v0":0.2,"v1":0.25},"geometry":{"type":"Polygon","coordinates":[[[-115.6728,54.4466],[-115.6576,54.4602],[-115.63,54.4717],[-115.59,54.4809],[-115.5538,54.477],[-115.5214,54.4599],[-115.5084,54.4455],[-115.5147,54.4339],[-115.5309,54.4234],[-115.557,54.414],[-115.59,54.4104],[-115.63,54.4127],[-115.6576,54.4203],[-115.6728,54.4333],[-115.6728,54.4466]],[[-115.6694,54.4455],[-115.6565,54.4571],[-115.63,54.4677],[-115.59,54.4774],[-115.5551,54.4746],[-115.5253,54.4591],[-115.5135,54.4455],[-115.5198,54.4339],[-115.5347,54.4239],[-115.5582,54.4157],[-115.59,54.4129],[-115.63,54.4156],[-115.6565,54.4227],[-115.6694,54.434],[-115.6694,54.4455]]]}},{"type":"Feature","properties":{"c":"#c8f500","v0":0.2,"v1":0.25},"geometry":{"type":"Polygon","coordinates":[[[-116.366,53.7525],[-116.342,53.7623],[-116.3186,53.7623],[-116.2958,53.7525],[-116.2813,53.7358],[-116.2752,53.7122],[-116.2766,53.6935],[-116.2855,53.6799],[-116.3039,53.677],[-116.3316,53.6846],[-116.3536,53.7033],[-116.3699,53.7329],[-116.366,53.7525]],[[-116.3623,53.7519],[-116.3408,53.7604],[-116.3204,53.7604],[-116.3011,53.7519],[-116.2911,53.7301],[-116.2904,53.695],[-116.3024,53.6802],[-116.3273,53.6857],[-116.348,53.7033],[-116.3647,53.7329],[-116.3623,53.7519]]]}},{"type":"Feature","properties":{"c":"#c8f500","v0":0.2,"v1":0.25},"geometry":{"type":"Polygon","coordinates":[[[-115.4261,52.1163],[-115.402,52.1327],[-115.3741,52.1358],[-115.3422,52.1255],[-115.3291,52.1142],[-115.3347,52.102],[-115.3456,52.0937],[-115.3619,52.0894],[-115.38,52.0877],[-115.4,52.0885],[-115.417,52.0938],[-115.4311,52.1033],[-115.4261,52.1163]],[[-115.4228,52.1157],[-115.4009,52.1309],[-115.3755,52.134],[-115.3464,52.1249],[-115.3414,52.1127],[-115.3605,52.0973],[-115.3859,52.0942],[-115.4178,52.1035],[-115.4228,52.1157]]]}},{"type":"Feature","properties":{"c":"#c8f500","v0":0.2,"v1":0.25},"geometry":{"type":"Polygon","coordinates":[[[-115.0841,52.0313],[-115.0756,52.0497],[-115.0611,52.0647],[-115.0404,52.0761],[-114.99,52.0802],[-114.91,52.0769],[-114.8611,52.068],[-114.8434,52.0538],[-114.8423,52.0313],[-114.858,52.0005],[-114.8869,51.98],[-114.929,51.9699],[-114.975,51.9677],[-115.025,51.9735],[-115.0596,51.9878],[-115.0787,52.0106],[-115.0841,52.0313]],[[-115.0846,52.0282],[-115.0816,52.0405],[-115.0675,52.0549],[-115.0425,52.0714],[-114.99,52.0778],[-114.91,52.0742],[-114.8619,52.0659],[-114.8458,52.0531],[-114.8458,52.0314],[-114.8619,52.001],[-114.89,51.9809],[-114.93,51.9713],[-114.975,51.9695],[-115.025,51.9755],[-115.059,51.9893],[-115.0771,52.0111],[-115.0846,52.0282]]]}},{"type":"Feature","properties":{"c":"#c8f500","v0":0.2,"v1":0.25},"geometry":{"type":"Polygon","coordinates":[[[-74.0891,49.238],[-74.063,49.2508],[-74.0476,49.254],[-74.0428,49.2478],[-74.0478,49.2388],[-74.0626,49.2269],[-74.0771,49.2204],[-74.0914,49.2192],[-74.0994,49.2219],[-74.1013,49.2284],[-74.0891,49.238]],[[-74.0822,49.2349],[-74.0598,49.2415],[-74.0539,49.2402],[-74.0646,49.2313],[-74.0758,49.228],[-74.0875,49.2305],[-74.0822,49.2349]]]}},{"type":"Feature","properties":{"c":"#c8f500","v0":0.2,"v1":0.25},"geometry":{"type":"Polygon","coordinates":[[[-71.0815,48.4716],[-71.0738,48.4781],[-71.0648,48.4781],[-71.0545,48.4716],[-71.0583,48.4683],[-71.0764,48.4683],[-71.0815,48.4716]]]}},{"type":"Feature","properties":{"c":"#c8f500","v0":0.2,"v1":0.25},"geometry":{"type":"Polygon","coordinates":[[[-75.6897,47.5385],[-75.6632,47.5526],[-75.6409,47.5559],[-75.6228,47.5486],[-75.6228,47.5376],[-75.6409,47.5228],[-75.6632,47.5194],[-75.6897,47.5275],[-75.6897,47.5385]],[[-75.6831,47.5373],[-75.661,47.5489],[-75.6429,47.5523],[-75.6286,47.5474],[-75.6286,47.5387],[-75.6429,47.5261],[-75.661,47.5227],[-75.6831,47.5286],[-75.6831,47.5373]]]}},{"type":"Feature","properties":{"c":"#c8f500","v0":0.2,"v1":0.25},"geometry":{"type":"Polygon","coordinates":[[[-77.9435,46.3147],[-77.9078,46.3401],[-77.875,46.3546],[-77.845,46.3583],[-77.8183,46.3559],[-77.7949,46.3476],[-77.7999,46.3226],[-77.8333,46.2811],[-77.865,46.2608],[-77.895,46.2618],[-77.9228,46.2722],[-77.9485,46.292],[-77.9435,46.3147]],[[-77.9381,46.3137],[-77.906,46.3371],[-77.875,46.3507],[-77.845,46.3543],[-77.8205,46.353],[-77.8016,46.3466],[-77.8066,46.324],[-77.8355,46.2852],[-77.865,46.2661],[-77.895,46.2667],[-77.921,46.2758],[-77.9431,46.2932],[-77.9381,46.3137]]]}},{"type":"Feature","properties":{"c":"#c8f500","v0":0.2,"v1":0.25},"geometry":{"type":"Polygon","coordinates":[[[-77.9084,46.1392],[-77.8961,46.1458],[-77.8795,46.1458],[-77.8585,46.1392],[-77.8585,46.133],[-77.8795,46.1272],[-77.8961,46.1272],[-77.9084,46.133],[-77.9084,46.1392]]]}},{"type":"Feature","properties":{"c":"#c8f500","v0":0.2,"v1":0.25},"geometry":{"type":"Polygon","coordinates":[[[-103.2664,42.581],[-103.2555,42.59],[-103.2416,42.59],[-103.2247,42.581],[-103.2197,42.5721],[-103.2266,42.5634],[-103.2405,42.5634],[-103.2614,42.5721],[-103.2664,42.581]],[[-103.2592,42.5795],[-103.2531,42.5854],[-103.2438,42.5854],[-103.2315,42.5795],[-103.2346,42.5765],[-103.253,42.5765],[-103.2592,42.5795]]]}},{"type":"Feature","properties":{"c":"#c8f500","v0":0.2,"v1":0.25},"geometry":{"type":"Polygon","coordinates":[[[-103.4448,42.5549],[-103.4349,42.5706],[-103.415,42.5782],[-103.385,42.5777],[-103.3579,42.5588],[-103.3336,42.5215],[-103.3286,42.4974],[-103.3429,42.4866],[-103.36,42.4819],[-103.38,42.4834],[-103.4031,42.4925],[-103.4292,42.5092],[-103.4441,42.5249],[-103.4479,42.5397],[-103.4448,42.5549]],[[-103.4429,42.554],[-103.4343,42.568],[-103.4169,42.5753],[-103.3908,42.5761],[-103.3648,42.5581],[-103.3389,42.5213],[-103.3319,42.4982],[-103.344,42.489],[-103.36,42.4852],[-103.38,42.4868],[-103.4022,42.4951],[-103.4265,42.5101],[-103.4408,42.5249],[-103.4451,42.5397],[-103.4429,42.554]]]}},{"type":"Feature","properties":{"c":"#c8f500","v0":0.2,"v1":0.25},"geometry":{"type":"Polygon","coordinates":[[[-96.405,42.222],[-96.3876,42.222],[-96.3817,42.2188],[-96.3872,42.2124],[-96.3959,42.2124],[-96.4077,42.2188],[-96.405,42.222]]]}},{"type":"Feature","properties":{"c":"#c8f500","v0":0.2,"v1":0.25},"geometry":{"type":"Polygon","coordinates":[[[-74.0359,41.8618],[-74.0176,41.8544],[-74.0175,41.8506],[-74.0357,41.8506],[-74.0448,41.8544],[-74.045,41.8618],[-74.0359,41.8618]]]}},{"type":"Feature","properties":{"c":"#c8f500","v0":0.2,"v1":0.25},"geometry":{"type":"Polygon","coordinates":[[[-80.5635,40.8939],[-80.5545,40.9017],[-80.5442,40.9017],[-80.5325,40.8939],[-80.537,40.89],[-80.5577,40.89],[-80.5635,40.8939]]]}},{"type":"Feature","properties":{"c":"#c8f500","v0":0.2,"v1":0.25},"geometry":{"type":"Polygon","coordinates":[[[-84.102,36.9941],[-84.094,37.0089],[-84.0828,37.0129],[-84.0683,37.0061],[-84.0633,36.9931],[-84.0678,36.9739],[-84.079,36.9699],[-84.097,36.9811],[-84.102,36.9941]],[[-84.0986,36.9929],[-84.0929,37.0052],[-84.084,37.0091],[-84.0721,37.0049],[-84.0671,36.9945],[-84.069,36.978],[-84.0779,36.974],[-84.0936,36.9825],[-84.0986,36.9929]]]}},{"type":"Feature","properties":{"c":"#c8f500","v0":0.2,"v1":0.25},"geometry":{"type":"Polygon","coordinates":[[[-81.0825,35.5869],[-81.0742,35.5923],[-81.0667,35.5882],[-81.0602,35.5747],[-81.064,35.5679],[-81.0781,35.5679],[-81.0856,35.5719],[-81.0863,35.5801],[-81.0825,35.5869]]]}},{"type":"Feature","properties":{"c":"#c8f500","v0":0.2,"v1":0.25},"geometry":{"type":"Polygon","coordinates":[[[-82.209,35.1798],[-82.183,35.1866],[-82.1628,35.1784],[-82.1483,35.1553],[-82.1583,35.1465],[-82.1928,35.1521],[-82.213,35.1603],[-82.219,35.1711],[-82.209,35.1798]],[[-82.2095,35.18],[-82.1965,35.187],[-82.1799,35.1829],[-82.1598,35.1677],[-82.1598,35.1581],[-82.1799,35.1542],[-82.1965,35.1583],[-82.2095,35.1704],[-82.2095,35.18]]]}},{"type":"Feature","properties":{"c":"#c8f500","v0":0.2,"v1":0.25},"geometry":{"type":"Polygon","coordinates":[[[-82.2939,34.9841],[-82.2759,34.9923],[-82.2677,34.991],[-82.2692,34.9802],[-82.2782,34.9761],[-82.2947,34.9787],[-82.2939,34.9841]]]}},{"type":"Feature","properties":{"c":"#c8f500","v0":0.2,"v1":0.25},"geometry":{"type":"Polygon","coordinates":[[[-85.8652,34.3458],[-85.8551,34.3606],[-85.8392,34.3647],[-85.8175,34.3582],[-85.8125,34.3466],[-85.8242,34.33],[-85.8401,34.3258],[-85.8602,34.3342],[-85.8652,34.3458]],[[-85.8597,34.3444],[-85.8532,34.3564],[-85.841,34.3605],[-85.8229,34.3568],[-85.8179,34.3479],[-85.826,34.334],[-85.8382,34.3298],[-85.8547,34.3355],[-85.8597,34.3444]]]}},{"type":"Feature","properties":{"c":"#c8f500","v0":0.2,"v1":0.25},"geometry":{"type":"Polygon","coordinates":[[[-110.6357,34.3273],[-110.6319,34.3383],[-110.6211,34.3424],[-110.6034,34.3397],[-110.5984,34.3318],[-110.6061,34.3187],[-110.6169,34.3145],[-110.6307,34.3194],[-110.6357,34.3273]],[[-110.6315,34.3261],[-110.6305,34.3346],[-110.623,34.3388],[-110.609,34.3385],[-110.604,34.3329],[-110.608,34.3219],[-110.6155,34.3178],[-110.6265,34.3205],[-110.6315,34.3261]]]}},{"type":"Feature","properties":{"c":"#c8f500","v0":0.2,"v1":0.25},"geometry":{"type":"Polygon","coordinates":[[[-110.8211,34.2819],[-110.8137,34.3011],[-110.7973,34.3093],[-110.7719,34.3067],[-110.7619,34.2922],[-110.7673,34.2659],[-110.78,34.2515],[-110.8,34.2489],[-110.8137,34.2538],[-110.8211,34.2661],[-110.8211,34.2819]],[[-110.8169,34.2806],[-110.8122,34.2971],[-110.7984,34.3053],[-110.7757,34.3053],[-110.7657,34.2935],[-110.7686,34.2697],[-110.78,34.2568],[-110.8,34.2548],[-110.8123,34.2584],[-110.817,34.2677],[-110.8169,34.2806]]]}},{"type":"Feature","properties":{"c":"#c8f500","v0":0.2,"v1":0.25},"geometry":{"type":"Polygon","coordinates":[[[-110.9437,34.2099],[-110.9212,34.2174],[-110.9007,34.2133],[-110.882,34.1975],[-110.887,34.1869],[-110.9157,34.1814],[-110.9362,34.1856],[-110.9487,34.1993],[-110.9437,34.2099]],[[-110.9392,34.2087],[-110.9197,34.2137],[-110.9035,34.2095],[-110.8905,34.1962],[-110.8955,34.1879],[-110.9185,34.1844],[-110.9347,34.1886],[-110.9442,34.2003],[-110.9392,34.2087]]]}},{"type":"Feature","properties":{"c":"#c8f500","v0":0.2,"v1":0.25},"geometry":{"type":"Polygon","coordinates":[[[-98.0403,34.1556],[-98.0201,34.187],[-97.9936,34.1994],[-97.9608,34.1929],[-97.9508,34.1682],[-97.9636,34.1253],[-97.985,34.1058],[-98.015,34.1098],[-98.0351,34.1188],[-98.0453,34.1329],[-98.0403,34.1556]],[[-98.0369,34.1549],[-98.019,34.1848],[-97.9948,34.1972],[-97.9643,34.1921],[-97.9543,34.1694],[-97.9648,34.129],[-97.98,34.1084],[-98.0,34.1075],[-98.019,34.1153],[-98.0369,34.1317],[-98.0369,34.1549]]]}},{"type":"Feature","properties":{"c":"#c8f500","v0":0.2,"v1":0.25},"geometry":{"type":"Polygon","coordinates":[[[-87.0073,33.2477],[-86.9958,33.2606],[-86.9847,33.2606],[-86.974,33.2477],[-86.974,33.2369],[-86.9847,33.228],[-86.9958,33.228],[-87.0073,33.2369],[-87.0073,33.2477]],[[-86.9996,33.2459],[-86.9932,33.2551],[-86.9873,33.2551],[-86.9819,33.2459],[-86.9851,33.2413],[-86.9969,33.2413],[-86.9996,33.2459]]]}},{"type":"Feature","properties":{"c":"#c8f500","v0":0.2,"v1":0.25},"geometry":{"type":"Polygon","coordinates":[[[-91.9475,32.5907],[-91.9336,32.5991],[-91.9325,32.595],[-91.9442,32.5783],[-91.9511,32.5741],[-91.9533,32.5823],[-91.9475,32.5907]]]}},{"type":"Feature","properties":{"c":"#c8f500","v0":0.2,"v1":0.25},"geometry":{"type":"Polygon","coordinates":[[[-91.9998,32.5056],[-91.9799,32.5462],[-91.965,32.5432],[-91.955,32.4964],[-91.96,32.47],[-91.98,32.4639],[-91.9949,32.467],[-92.0048,32.4792],[-91.9998,32.5056]],[[-91.9945,32.4984],[-91.9782,32.5247],[-91.968,32.5205],[-91.9639,32.4858],[-91.9721,32.4726],[-91.9925,32.4811],[-91.9945,32.4984]]]}},{"type":"Feature","properties":{"c":"#c8f500","v0":0.2,"v1":0.25},"geometry":{"type":"Polygon","coordinates":[[[-96.0963,32.2027],[-96.0788,32.2121],[-96.065,32.2041],[-96.055,32.1788],[-96.06,32.1673],[-96.08,32.1698],[-96.0938,32.1778],[-96.1013,32.1913],[-96.0963,32.2027]],[[-96.0921,32.2014],[-96.0774,32.2081],[-96.065,32.2029],[-96.055,32.1857],[-96.055,32.1743],[-96.065,32.1687],[-96.0774,32.1739],[-96.0921,32.19],[-96.0921,32.2014]]]}},{"type":"Feature","properties":{"c":"#c8f500","v0":0.2,"v1":0.25},"geometry":{"type":"Polygon","coordinates":[[[-94.8142,31.8352],[-94.7981,31.8558],[-94.7834,31.8643],[-94.7703,31.8606],[-94.7703,31.8468],[-94.7834,31.8228],[-94.7981,31.8143],[-94.8142,31.8213],[-94.8142,31.8352]],[[-94.8106,31.8334],[-94.8004,31.8504],[-94.7889,31.8588],[-94.7761,31.8588],[-94.7748,31.8482],[-94.7849,31.8269],[-94.7964,31.8184],[-94.8093,31.8227],[-94.8106,31.8334]]]}},{"type":"Feature","properties":{"c":"#c8f500","v0":0.2,"v1":0.25},"geometry":{"type":"Polygon","coordinates":[[[-106.804,29.9951],[-106.7947,30.0079],[-106.7806,30.0123],[-106.7617,30.0081],[-106.7567,29.9864],[-106.7656,29.947],[-106.7797,29.9427],[-106.799,29.9734],[-106.804,29.9951]],[[-106.7992,29.994],[-106.7931,30.0045],[-106.7828,30.0088],[-106.7683,30.007],[-106.7633,29.9896],[-106.7678,29.9566],[-106.7781,29.9523],[-106.7942,29.9766],[-106.7992,29.994]]]}},{"type":"Feature","properties":{"c":"#c8f500","v0":0.2,"v1":0.25},"geometry":{"type":"Polygon","coordinates":[[[-81.5377,27.1376],[-81.5192,27.1618],[-81.51,27.1578],[-81.51,27.1257],[-81.515,27.1067],[-81.525,27.1008],[-81.5342,27.1048],[-81.5427,27.1187],[-81.5377,27.1376]],[[-81.5304,27.1333],[-81.5168,27.1487],[-81.51,27.1483],[-81.51,27.1323],[-81.515,27.1201],[-81.525,27.1118],[-81.5318,27.1121],[-81.5354,27.1211],[-81.5304,27.1333]]]}},{"type":"Feature","properties":{"c":"#c8f500","v0":0.2,"v1":0.25},"geometry":{"type":"Polygon","coordinates":[[[-81.6351,26.2295],[-81.605,26.2605],[-81.5898,26.2649],[-81.5895,26.243],[-81.6045,26.223],[-81.6348,26.205],[-81.65,26.2005],[-81.6501,26.2095],[-81.6351,26.2295]]]}},{"type":"Feature","properties":{"c":"#c8f500","v0":0.2,"v1":0.25},"geometry":{"type":"Polygon","coordinates":[[[-100.3348,25.6456],[-100.3183,25.66],[-100.3033,25.6555],[-100.2899,25.6321],[-100.2899,25.616],[-100.3033,25.6073],[-100.3183,25.6118],[-100.3348,25.6295],[-100.3348,25.6456]],[[-100.3315,25.6444],[-100.3172,25.6565],[-100.3046,25.652],[-100.2939,25.6309],[-100.2939,25.6173],[-100.3046,25.6111],[-100.3172,25.6156],[-100.3315,25.6308],[-100.3315,25.6444]]]}},{"type":"Feature","properties":{"c":"#c8f500","v0":0.2,"v1":0.25},"geometry":{"type":"Polygon","coordinates":[[[-99.7448,25.3007],[-99.7216,25.3114],[-99.7036,25.3114],[-99.6909,25.3007],[-99.685,25.2862],[-99.6858,25.2682],[-99.6971,25.2559],[-99.719,25.2495],[-99.7366,25.2586],[-99.7498,25.2831],[-99.7448,25.3007]],[[-99.7416,25.2996],[-99.7205,25.3084],[-99.7053,25.2993],[-99.696,25.2725],[-99.701,25.2568],[-99.7203,25.2522],[-99.7355,25.2612],[-99.7466,25.2839],[-99.7416,25.2996]]]}},{"type":"Feature","properties":{"c":"#c8f500","v0":0.25,"v1":0.5},"geometry":{"type":"Polygon","coordinates":[[[-115.6694,54.4455],[-115.6565,54.4571],[-115.63,54.4677],[-115.59,54.4774],[-115.5551,54.4746],[-115.5253,54.4591],[-115.5135,54.4455],[-115.5198,54.4339],[-115.5347,54.4239],[-115.5582,54.4157],[-115.59,54.4129],[-115.63,54.4156],[-115.6565,54.4227],[-115.6694,54.434],[-115.6694,54.4455]],[[-115.6296,54.4459],[-115.5899,54.4583],[-115.561,54.4612],[-115.5429,54.4546],[-115.5429,54.4442],[-115.561,54.4299],[-115.5899,54.427],[-115.6296,54.4355],[-115.6296,54.4459]]]}},{"type":"Feature","properties":{"c":"#c8f500","v0":0.25,"v1":0.5},"geometry":{"type":"Polygon","coordinates":[[[-116.3623,53.7519],[-116.3408,53.7604],[-116.3204,53.7604],[-116.3011,53.7519],[-116.2911,53.7301],[-116.2904,53.695],[-116.3024,53.6802],[-116.3273,53.6857],[-116.348,53.7033],[-116.3647,53.7329],[-116.3623,53.7519]]]}},{"type":"Feature","properties":{"c":"#c8f500","v0":0.25,"v1":0.5},"geometry":{"type":"Polygon","coordinates":[[[-115.4228,52.1157],[-115.4009,52.1309],[-115.3755,52.134],[-115.3464,52.1249],[-115.3414,52.1127],[-115.3605,52.0973],[-115.3859,52.0942],[-115.4178,52.1035],[-115.4228,52.1157]],[[-115.4075,52.1126],[-115.3958,52.1217],[-115.383,52.1247],[-115.3689,52.1218],[-115.3639,52.1161],[-115.368,52.1076],[-115.3808,52.1046],[-115.4025,52.1069],[-115.4075,52.1126]]]}},{"type":"Feature","properties":{"c":"#c8f500","v0":0.25,"v1":0.5},"geometry":{"type":"Polygon","coordinates":[[[-115.0846,52.0282],[-115.0816,52.0405],[-115.0675,52.0549],[-115.0425,52.0714],[-114.99,52.0778],[-114.91,52.0742],[-114.8619,52.0659],[-114.8458,52.0531],[-114.8458,52.0314],[-114.8619,52.001],[-114.89,51.9809],[-114.93,51.9713],[-114.975,51.9695],[-115.025,51.9755],[-115.059,51.9893],[-115.0771,52.0111],[-115.0846,52.0282]],[[-115.0697,52.0313],[-115.0593,52.0497],[-115.0431,52.0625],[-115.021,52.0695],[-114.98,52.0711],[-114.92,52.0672],[-114.881,52.0606],[-114.8629,52.0513],[-114.8584,52.0343],[-114.8674,52.0097],[-114.8914,51.9916],[-114.9305,51.9801],[-114.97,51.9754],[-115.01,51.9774],[-115.0412,51.9893],[-115.0637,52.0111],[-115.0697,52.0313]]]}},{"type":"Feature","properties":{"c":"#c8f500","v0":0.25,"v1":0.5},"geometry":{"type":"Polygon","coordinates":[[[-74.0822,49.2349],[-74.0598,49.2415],[-74.0539,49.2402],[-74.0646,49.2313],[-74.0758,49.228],[-74.0875,49.2305],[-74.0822,49.2349]]]}},{"type":"Feature","properties":{"c":"#c8f500","v0":0.25,"v1":0.5},"geometry":{"type":"Polygon","coordinates":[[[-75.6831,47.5373],[-75.661,47.5489],[-75.6429,47.5523],[-75.6286,47.5474],[-75.6286,47.5387],[-75.6429,47.5261],[-75.661,47.5227],[-75.6831,47.5286],[-75.6831,47.5373]]]}},{"type":"Feature","properties":{"c":"#c8f500","v0":0.25,"v1":0.5},"geometry":{"type":"Polygon","coordinates":[[[-77.9381,46.3137],[-77.906,46.3371],[-77.875,46.3507],[-77.845,46.3543],[-77.8205,46.353],[-77.8016,46.3466],[-77.8066,46.324],[-77.8355,46.2852],[-77.865,46.2661],[-77.895,46.2667],[-77.921,46.2758],[-77.9431,46.2932],[-77.9381,46.3137]],[[-77.9053,46.3077],[-77.8951,46.3193],[-77.8779,46.3262],[-77.8538,46.3284],[-77.8488,46.3205],[-77.8629,46.3024],[-77.8801,46.2955],[-77.9003,46.2998],[-77.9053,46.3077]]]}},{"type":"Feature","properties":{"c":"#c8f500","v0":0.25,"v1":0.5},"geometry":{"type":"Polygon","coordinates":[[[-103.4429,42.554],[-103.4343,42.568],[-103.4169,42.5753],[-103.3908,42.5761],[-103.3648,42.5581],[-103.3389,42.5213],[-103.3319,42.4982],[-103.344,42.489],[-103.36,42.4852],[-103.38,42.4868],[-103.4022,42.4951],[-103.4265,42.5101],[-103.4408,42.5249],[-103.4451,42.5397],[-103.4429,42.554]],[[-103.4234,42.5523],[-103.4011,42.5627],[-103.3798,42.559],[-103.3593,42.5412],[-103.3483,42.5249],[-103.3467,42.5102],[-103.362,42.5042],[-103.394,42.5069],[-103.4161,42.5179],[-103.4284,42.5373],[-103.4234,42.5523]]]}},{"type":"Feature","properties":{"c":"#c8f500","v0":0.25,"v1":0.5},"geometry":{"type":"Polygon","coordinates":[[[-103.2592,42.5795],[-103.2531,42.5854],[-103.2438,42.5854],[-103.2315,42.5795],[-103.2346,42.5765],[-103.253,42.5765],[-103.2592,42.5795]]]}},{"type":"Feature","properties":{"c":"#c8f500","v0":0.25,"v1":0.5},"geometry":{"type":"Polygon","coordinates":[[[-84.0986,36.9929],[-84.0929,37.0052],[-84.084,37.0091],[-84.0721,37.0049],[-84.0671,36.9945],[-84.069,36.978],[-84.0779,36.974],[-84.0936,36.9825],[-84.0986,36.9929]]]}},{"type":"Feature","properties":{"c":"#c8f500","v0":0.25,"v1":0.5},"geometry":{"type":"Polygon","coordinates":[[[-82.2095,35.18],[-82.1965,35.187],[-82.1799,35.1829],[-82.1598,35.1677],[-82.1598,35.1581],[-82.1799,35.1542],[-82.1965,35.1583],[-82.2095,35.1704],[-82.2095,35.18]]]}},{"type":"Feature","properties":{"c":"#c8f500","v0":0.25,"v1":0.5},"geometry":{"type":"Polygon","coordinates":[[[-85.8597,34.3444],[-85.8532,34.3564],[-85.841,34.3605],[-85.8229,34.3568],[-85.8179,34.3479],[-85.826,34.334],[-85.8382,34.3298],[-85.8547,34.3355],[-85.8597,34.3444]]]}},{"type":"Feature","properties":{"c":"#c8f500","v0":0.25,"v1":0.5},"geometry":{"type":"Polygon","coordinates":[[[-110.6315,34.3261],[-110.6305,34.3346],[-110.623,34.3388],[-110.609,34.3385],[-110.604,34.3329],[-110.608,34.3219],[-110.6155,34.3178],[-110.6265,34.3205],[-110.6315,34.3261]]]}},{"type":"Feature","properties":{"c":"#c8f500","v0":0.25,"v1":0.5},"geometry":{"type":"Polygon","coordinates":[[[-110.8169,34.2806],[-110.8122,34.2971],[-110.7984,34.3053],[-110.7757,34.3053],[-110.7657,34.2935],[-110.7686,34.2697],[-110.78,34.2568],[-110.8,34.2548],[-110.8123,34.2584],[-110.817,34.2677],[-110.8169,34.2806]]]}},{"type":"Feature","properties":{"c":"#c8f500","v0":0.25,"v1":0.5},"geometry":{"type":"Polygon","coordinates":[[[-110.9392,34.2087],[-110.9197,34.2137],[-110.9035,34.2095],[-110.8905,34.1962],[-110.8955,34.1879],[-110.9185,34.1844],[-110.9347,34.1886],[-110.9442,34.2003],[-110.9392,34.2087]]]}},{"type":"Feature","properties":{"c":"#c8f500","v0":0.25,"v1":0.5},"geometry":{"type":"Polygon","coordinates":[[[-98.0369,34.1549],[-98.019,34.1848],[-97.9948,34.1972],[-97.9643,34.1921],[-97.9543,34.1694],[-97.9648,34.129],[-97.98,34.1084],[-98.0,34.1075],[-98.019,34.1153],[-98.0369,34.1317],[-98.0369,34.1549]],[[-98.0149,34.1658],[-97.9983,34.1844],[-97.9817,34.1886],[-97.9652,34.1782],[-97.9652,34.1605],[-97.9817,34.1352],[-97.9983,34.1311],[-98.0149,34.148],[-98.0149,34.1658]]]}},{"type":"Feature","properties":{"c":"#c8f500","v0":0.25,"v1":0.5},"geometry":{"type":"Polygon","coordinates":[[[-86.9996,33.2459],[-86.9932,33.2551],[-86.9873,33.2551],[-86.9819,33.2459],[-86.9851,33.2413],[-86.9969,33.2413],[-86.9996,33.2459]]]}},{"type":"Feature","properties":{"c":"#c8f500","v0":0.25,"v1":0.5},"geometry":{"type":"Polygon","coordinates":[[[-91.9945,32.4984],[-91.9782,32.5247],[-91.968,32.5205],[-91.9639,32.4858],[-91.9721,32.4726],[-91.9925,32.4811],[-91.9945,32.4984]]]}},{"type":"Feature","properties":{"c":"#c8f500","v0":0.25,"v1":0.5},"geometry":{"type":"Polygon","coordinates":[[[-96.0921,32.2014],[-96.0774,32.2081],[-96.065,32.2029],[-96.055,32.1857],[-96.055,32.1743],[-96.065,32.1687],[-96.0774,32.1739],[-96.0921,32.19],[-96.0921,32.2014]]]}},{"type":"Feature","properties":{"c":"#c8f500","v0":0.25,"v1":0.5},"geometry":{"type":"Polygon","coordinates":[[[-94.8106,31.8334],[-94.8004,31.8504],[-94.7889,31.8588],[-94.7761,31.8588],[-94.7748,31.8482],[-94.7849,31.8269],[-94.7964,31.8184],[-94.8093,31.8227],[-94.8106,31.8334]]]}},{"type":"Feature","properties":{"c":"#c8f500","v0":0.25,"v1":0.5},"geometry":{"type":"Polygon","coordinates":[[[-106.7992,29.994],[-106.7931,30.0045],[-106.7828,30.0088],[-106.7683,30.007],[-106.7633,29.9896],[-106.7678,29.9566],[-106.7781,29.9523],[-106.7942,29.9766],[-106.7992,29.994]]]}},{"type":"Feature","properties":{"c":"#c8f500","v0":0.25,"v1":0.5},"geometry":{"type":"Polygon","coordinates":[[[-81.5304,27.1333],[-81.5168,27.1487],[-81.51,27.1483],[-81.51,27.1323],[-81.515,27.1201],[-81.525,27.1118],[-81.5318,27.1121],[-81.5354,27.1211],[-81.5304,27.1333]]]}},{"type":"Feature","properties":{"c":"#c8f500","v0":0.25,"v1":0.5},"geometry":{"type":"Polygon","coordinates":[[[-100.3315,25.6444],[-100.3172,25.6565],[-100.3046,25.652],[-100.2939,25.6309],[-100.2939,25.6173],[-100.3046,25.6111],[-100.3172,25.6156],[-100.3315,25.6308],[-100.3315,25.6444]]]}},{"type":"Feature","properties":{"c":"#c8f500","v0":0.25,"v1":0.5},"geometry":{"type":"Polygon","coordinates":[[[-99.7416,25.2996],[-99.7205,25.3084],[-99.7053,25.2993],[-99.696,25.2725],[-99.701,25.2568],[-99.7203,25.2522],[-99.7355,25.2612],[-99.7466,25.2839],[-99.7416,25.2996]],[[-99.7336,25.2825],[-99.7312,25.2932],[-99.7247,25.2977],[-99.7141,25.2961],[-99.7091,25.2882],[-99.7097,25.2739],[-99.7162,25.2694],[-99.7286,25.2746],[-99.7336,25.2825]]]}},{"type":"Feature","properties":{"c":"#ffff00","v0":0.5,"v1":0.75},"geometry":{"type":"Polygon","coordinates":[[[-115.6296,54.4459],[-115.5899,54.4583],[-115.561,54.4612],[-115.5429,54.4546],[-115.5429,54.4442],[-115.561,54.4299],[-115.5899,54.427],[-115.6296,54.4355],[-115.6296,54.4459]]]}},{"type":"Feature","properties":{"c":"#ffff00","v0":0.5,"v1":0.75},"geometry":{"type":"Polygon","coordinates":[[[-115.4075,52.1126],[-115.3958,52.1217],[-115.383,52.1247],[-115.3689,52.1218],[-115.3639,52.1161],[-115.368,52.1076],[-115.3808,52.1046],[-115.4025,52.1069],[-115.4075,52.1126]]]}},{"type":"Feature","properties":{"c":"#ffff00","v0":0.5,"v1":0.75},"geometry":{"type":"Polygon","coordinates":[[[-115.0697,52.0313],[-115.0593,52.0497],[-115.0431,52.0625],[-115.021,52.0695],[-114.98,52.0711],[-114.92,52.0672],[-114.881,52.0606],[-114.8629,52.0513],[-114.8584,52.0343],[-114.8674,52.0097],[-114.8914,51.9916],[-114.9305,51.9801],[-114.97,51.9754],[-115.01,51.9774],[-115.0412,51.9893],[-115.0637,52.0111],[-115.0697,52.0313]],[[-115.0616,52.0296],[-115.0539,52.0449],[-115.04,52.0561],[-115.02,52.0632],[-114.98,52.0643],[-114.92,52.0592],[-114.8838,52.0511],[-114.8714,52.0399],[-114.8714,52.0247],[-114.8838,52.0055],[-114.91,51.9914],[-114.95,51.9824],[-114.9855,51.9797],[-115.0164,51.9833],[-115.0403,51.9943],[-115.0571,52.0128],[-115.0616,52.0296]]]}},{"type":"Feature","properties":{"c":"#ffff00","v0":0.5,"v1":0.75},"geometry":{"type":"Polygon","coordinates":[[[-77.9053,46.3077],[-77.8951,46.3193],[-77.8779,46.3262],[-77.8538,46.3284],[-77.8488,46.3205],[-77.8629,46.3024],[-77.8801,46.2955],[-77.9003,46.2998],[-77.9053,46.3077]]]}},{"type":"Feature","properties":{"c":"#ffff00","v0":0.5,"v1":0.75},"geometry":{"type":"Polygon","coordinates":[[[-103.4234,42.5523],[-103.4011,42.5627],[-103.3798,42.559],[-103.3593,42.5412],[-103.3483,42.5249],[-103.3467,42.5102],[-103.362,42.5042],[-103.394,42.5069],[-103.4161,42.5179],[-103.4284,42.5373],[-103.4234,42.5523]],[[-103.4122,42.5491],[-103.3974,42.5532],[-103.382,42.5459],[-103.366,42.527],[-103.3701,42.5176],[-103.3944,42.5176],[-103.4098,42.5249],[-103.4163,42.5397],[-103.4122,42.5491]]]}},{"type":"Feature","properties":{"c":"#ffff00","v0":0.5,"v1":0.75},"geometry":{"type":"Polygon","coordinates":[[[-98.0149,34.1658],[-97.9983,34.1844],[-97.9817,34.1886],[-97.9652,34.1782],[-97.9652,34.1605],[-97.9817,34.1352],[-97.9983,34.1311],[-98.0149,34.148],[-98.0149,34.1658]],[[-97.993,34.1731],[-97.9795,34.1731],[-97.977,34.1671],[-97.9857,34.1553],[-97.9924,34.1553],[-97.9973,34.1671],[-97.993,34.1731]]]}},{"type":"Feature","properties":{"c":"#ffff00","v0":0.5,"v1":0.75},"geometry":{"type":"Polygon","coordinates":[[[-99.7336,25.2825],[-99.7312,25.2932],[-99.7247,25.2977],[-99.7141,25.2961],[-99.7091,25.2882],[-99.7097,25.2739],[-99.7162,25.2694],[-99.7286,25.2746],[-99.7336,25.2825]]]}},{"type":"Feature","properties":{"c":"#ffd700","v0":0.75,"v1":1.0},"geometry":{"type":"Polygon","coordinates":[[[-115.0616,52.0296],[-115.0539,52.0449],[-115.04,52.0561],[-115.02,52.0632],[-114.98,52.0643],[-114.92,52.0592],[-114.8838,52.0511],[-114.8714,52.0399],[-114.8714,52.0247],[-114.8838,52.0055],[-114.91,51.9914],[-114.95,51.9824],[-114.9855,51.9797],[-115.0164,51.9833],[-115.0403,51.9943],[-115.0571,52.0128],[-115.0616,52.0296]],[[-115.0456,52.0318],[-115.0219,52.0514],[-114.985,52.0591],[-114.935,52.0548],[-114.9022,52.0481],[-114.8867,52.0389],[-114.886,52.0251],[-114.9004,52.0066],[-114.9232,51.9937],[-114.9544,51.9864],[-114.985,51.9845],[-115.015,51.988],[-115.0369,51.9978],[-115.0506,52.0139],[-115.0456,52.0318]]]}},{"type":"Feature","properties":{"c":"#ffd700","v0":0.75,"v1":1.0},"geometry":{"type":"Polygon","coordinates":[[[-103.4122,42.5491],[-103.3974,42.5532],[-103.382,42.5459],[-103.366,42.527],[-103.3701,42.5176],[-103.3944,42.5176],[-103.4098,42.5249],[-103.4163,42.5397],[-103.4122,42.5491]]]}},{"type":"Feature","properties":{"c":"#ffd700","v0":0.75,"v1":1.0},"geometry":{"type":"Polygon","coordinates":[[[-97.993,34.1731],[-97.9795,34.1731],[-97.977,34.1671],[-97.9857,34.1553],[-97.9924,34.1553],[-97.9973,34.1671],[-97.993,34.1731]]]}},{"type":"Feature","properties":{"c":"#ff8c00","v0":1.0,"v1":1.5},"geometry":{"type":"Polygon","coordinates":[[[-115.0456,52.0318],[-115.0219,52.0514],[-114.985,52.0591],[-114.935,52.0548],[-114.9022,52.0481],[-114.8867,52.0389],[-114.886,52.0251],[-114.9004,52.0066],[-114.9232,51.9937],[-114.9544,51.9864],[-114.985,51.9845],[-115.015,51.988],[-115.0369,51.9978],[-115.0506,52.0139],[-115.0456,52.0318]],[[-115.0324,52.0286],[-115.0175,52.0418],[-114.9866,52.0449],[-114.9399,52.0378],[-114.9207,52.0282],[-114.9291,52.0159],[-114.9475,52.0052],[-114.9758,51.9961],[-114.998,51.993],[-115.014,51.9959],[-115.0264,52.0036],[-115.0354,52.0159],[-115.0324,52.0286]]]}},{"type":"Feature","properties":{"c":"#ff4500","v0":1.5,"v1":1.75},"geometry":{"type":"Polygon","coordinates":[[[-115.0324,52.0286],[-115.0175,52.0418],[-114.9866,52.0449],[-114.9399,52.0378],[-114.9207,52.0282],[-114.9291,52.0159],[-114.9475,52.0052],[-114.9758,51.9961],[-114.998,51.993],[-115.014,51.9959],[-115.0264,52.0036],[-115.0354,52.0159],[-115.0324,52.0286]],[[-115.0202,52.0261],[-115.0001,52.0344],[-114.9797,52.0344],[-114.9591,52.0261],[-114.9591,52.0156],[-114.9797,52.0029],[-115.0001,52.0029],[-115.0202,52.0156],[-115.0202,52.0261]]]}},{"type":"Feature","properties":{"c":"#ff0000","v0":1.75,"v1":2.0},"geometry":{"type":"Polygon","coordinates":[[[-115.0202,52.0261],[-115.0001,52.0344],[-114.9797,52.0344],[-114.9591,52.0261],[-114.9591,52.0156],[-114.9797,52.0029],[-115.0001,52.0029],[-115.0202,52.0156],[-115.0202,52.0261]]]}}]}