{"type":"FeatureCollection","features":[{"type":"Feature","properties":{"c":"#c8f500","v0":0.2,"v1":0.25},"geometry":{"type":"Polygon","coordinates":[[[-94.8332,38.99],[-94.8177,38.9929],[-94.8067,38.989],[-94.8,38.9784],[-94.8077,38.9769],[-94.8299,38.9847],[-94.8332,38.99]]]}},{"type":"Feature","properties":{"c":"#c8f500","v0":0.2,"v1":0.25},"geometry":{"type":"Polygon","coordinates":[[[-96.1394,38.9639],[-96.1198,38.9767],[-96.1037,38.9767],[-96.0911,38.9639],[-96.0911,38.9513],[-96.1037,38.9389],[-96.1198,38.9389],[-96.1394,38.9513],[-96.1394,38.9639]],[[-96.1354,38.9629],[-96.1185,38.9737],[-96.105,38.9737],[-96.0951,38.9629],[-96.0951,38.9524],[-96.105,38.9421],[-96.1185,38.9421],[-96.1354,38.9524],[-96.1354,38.9629]]]}},{"type":"Feature","properties":{"c":"#c8f500","v0":0.2,"v1":0.25},"geometry":{"type":"Polygon","coordinates":[[[-95.0481,38.7625],[-95.0227,38.7775],[-95.0033,38.7814],[-94.9898,38.7742],[-94.9823,38.7589],[-94.9806,38.7355],[-94.9923,38.7226],[-95.0174,38.7203],[-95.0377,38.7281],[-95.0531,38.746],[-95.0481,38.7625]],[[-95.0452,38.7619],[-95.0217,38.7756],[-95.0022,38.7717],[-94.9865,38.7502],[-94.9865,38.734],[-95.0022,38.7233],[-95.0217,38.7272],[-95.0452,38.7457],[-95.0452,38.7619]]]}},{"type":"Feature","properties":{"c":"#c8f500","v0":0.2,"v1":0.25},"geometry":{"type":"Polygon","coordinates":[[[-94.9735,38.658],[-94.9712,38.6824],[-94.96,38.6991],[-94.94,38.7079],[-94.915,38.7091],[-94.885,38.7026],[-94.86,38.6899],[-94.84,38.6709],[-94.835,38.6519],[-94.845,38.633],[-94.865,38.6189],[-94.895,38.6095],[-94.9201,38.6073],[-94.9402,38.6121],[-94.9563,38.6223],[-94.9686,38.6379],[-94.9735,38.658]],[[-94.969,38.6574],[-94.9669,38.6809],[-94.9569,38.6966],[-94.939,38.7047],[-94.915,38.7055],[-94.885,38.699],[-94.861,38.6872],[-94.843,38.67],[-94.838,38.6529],[-94.846,38.636],[-94.865,38.6225],[-94.895,38.6126],[-94.92,38.6102],[-94.94,38.6154],[-94.955,38.6249],[-94.965,38.6388],[-94.969,38.6574]]]}},{"type":"Feature","properties":{"c":"#c8f500","v0":0.2,"v1":0.25},"geometry":{"type":"Polygon","coordinates":[[[-96.0766,38.682],[-96.0589,38.6921],[-96.0416,38.6921],[-96.0249,38.682],[-96.0249,38.6706],[-96.0416,38.6579],[-96.0589,38.6579],[-96.0766,38.6706],[-96.0766,38.682]],[[-96.0721,38.681],[-96.0574,38.6891],[-96.043,38.6891],[-96.0291,38.681],[-96.0291,38.6715],[-96.043,38.6606],[-96.0574,38.6606],[-96.0721,38.6715],[-96.0721,38.681]]]}},{"type":"Feature","properties":{"c":"#c8f500","v0":0.2,"v1":0.25},"geometry":{"type":"Polygon","coordinates":[[[-96.4437,38.6067],[-96.4395,38.6223],[-96.4255,38.6351],[-96.4018,38.6452],[-96.3755,38.6413],[-96.3464,38.6234],[-96.3464,38.6015],[-96.3755,38.5755],[-96.404,38.5716],[-96.4319,38.5898],[-96.4437,38.6067]],[[-96.4401,38.6067],[-96.4352,38.6223],[-96.422,38.6343],[-96.4007,38.6427],[-96.3763,38.6387],[-96.349,38.6226],[-96.349,38.6025],[-96.3763,38.5784],[-96.4032,38.5745],[-96.4295,38.5907],[-96.4401,38.6067]]]}},{"type":"Feature","properties":{"c":"#c8f500","v0":0.2,"v1":0.25},"geometry":{"type":"Polygon","coordinates":[[[-96.2969,38.5568],[-96.239,38.5979],[-96.205,38.6177],[-96.195,38.6161],[-96.1874,38.5995],[-96.1823,38.5678],[-96.1873,38.5415],[-96.2024,38.5206],[-96.23,38.5081],[-96.27,38.504],[-96.299,38.5105],[-96.3169,38.5277],[-96.2969,38.5568]],[[-96.2942,38.5551],[-96.2381,38.5927],[-96.205,38.6094],[-96.195,38.6051],[-96.1884,38.5902],[-96.1852,38.5647],[-96.1902,38.5423],[-96.2034,38.523],[-96.225,38.5101],[-96.255,38.5036],[-96.2831,38.5094],[-96.3092,38.5273],[-96.2942,38.5551]]]}},{"type":"Feature","properties":{"c":"#c8f500","v0":0.2,"v1":0.25},"geometry":{"type":"Polygon","coordinates":[[[-95.8556,38.4939],[-95.8519,38.503],[-95.8422,38.5069],[-95.8265,38.5056],[-95.8215,38.4971],[-95.8272,38.4814],[-95.8369,38.4775],[-95.8506,38.4854],[-95.8556,38.4939]]]}},{"type":"Feature","properties":{"c":"#c8f500","v0":0.2,"v1":0.25},"geometry":{"type":"Polygon","coordinates":[[[-95.0836,38.4041],[-95.0612,38.4217],[-95.0377,38.4217],[-95.0132,38.4041],[-95.0032,38.3894],[-95.0077,38.3774],[-95.02,38.3677],[-95.04,38.3604],[-95.0612,38.3664],[-95.0836,38.3857],[-95.0836,38.4041]],[[-95.0795,38.4031],[-95.0598,38.4186],[-95.0389,38.4186],[-95.0168,38.4031],[-95.0168,38.3868],[-95.0389,38.3697],[-95.0598,38.3697],[-95.0795,38.3868],[-95.0795,38.4031]]]}},{"type":"Feature","properties":{"c":"#c8f500","v0":0.2,"v1":0.25},"geometry":{"type":"Polygon","coordinates":[[[-95.9331,38.2541],[-95.9119,38.3169],[-95.8884,38.3583],[-95.8628,38.3784],[-95.84,38.3887],[-95.82,38.3892],[-95.798,38.3753],[-95.7741,38.3468],[-95.7741,38.3051],[-95.7982,38.2502],[-95.8251,38.2129],[-95.855,38.1934],[-95.885,38.1878],[-95.915,38.1961],[-95.9334,38.2059],[-95.9403,38.2171],[-95.9331,38.2541]],[[-95.9274,38.2558],[-95.9025,38.3219],[-95.875,38.3635],[-95.845,38.3806],[-95.82,38.3851],[-95.8,38.3771],[-95.7848,38.359],[-95.7745,38.331],[-95.784,38.2895],[-95.8133,38.2345],[-95.8435,38.2023],[-95.8745,38.193],[-95.9025,38.1969],[-95.9274,38.2141],[-95.9274,38.2558]]]}},{"type":"Feature","properties":{"c":"#c8f500","v0":0.2,"v1":0.25},"geometry":{"type":"Polygon","coordinates":[[[-101.0855,38.1588],[-101.0752,38.1881],[-101.06,38.205],[-101.04,38.2093],[-101.027,38.1907],[-101.0209,38.1491],[-101.0259,38.1249],[-101.042,38.1181],[-101.0602,38.122],[-101.0805,38.1367],[-101.0855,38.1588]],[[-101.083,38.1559],[-101.0774,38.1795],[-101.0656,38.1952],[-101.0475,38.2031],[-101.035,38.1873],[-101.028,38.148],[-101.0359,38.1272],[-101.0586,38.125],[-101.0739,38.1289],[-101.0818,38.139],[-101.083,38.1559]]]}},{"type":"Feature","properties":{"c":"#c8f500","v0":0.2,"v1":0.25},"geometry":{"type":"Polygon","coordinates":[[[-102.0599,38.1323],[-102.0599,38.1402],[-102.0521,38.1441],[-102.0365,38.1441],[-102.0286,38.1402],[-102.0283,38.1323],[-102.0361,38.1284],[-102.052,38.1284],[-102.0599,38.1323]]]}},{"type":"Feature","properties":{"c":"#c8f500","v0":0.2,"v1":0.25},"geometry":{"type":"Polygon","coordinates":[[[-104.1266,35.7402],[-104.1155,35.7597],[-104.1033,35.7679],[-104.0899,35.7645],[-104.0849,35.7491],[-104.0883,35.7216],[-104.0977,35.7053],[-104.113,35.7004],[-104.1236,35.706],[-104.1293,35.7223],[-104.1266,35.7402]],[[-104.1205,35.7385],[-104.1135,35.7546],[-104.105,35.7617],[-104.095,35.7598],[-104.0914,35.7476],[-104.0943,35.7253],[-104.0993,35.712],[-104.1064,35.7078],[-104.1135,35.7118],[-104.1205,35.7242],[-104.1205,35.7385]]]}},{"type":"Feature","properties":{"c":"#c8f500","v0":0.2,"v1":0.25},"geometry":{"type":"Polygon","coordinates":[[[-104.1679,35.6697],[-104.156,35.6781],[-104.1452,35.6781],[-104.1355,35.6697],[-104.134,35.6573],[-104.1406,35.641],[-104.1514,35.641],[-104.1664,35.6573],[-104.1679,35.6697]],[[-104.1598,35.6547],[-104.1533,35.6656],[-104.1479,35.6656],[-104.1436,35.6547],[-104.1469,35.6492],[-104.1576,35.6492],[-104.1598,35.6547]]]}},{"type":"Feature","properties":{"c":"#c8f500","v0":0.2,"v1":0.25},"geometry":{"type":"Polygon","coordinates":[[[-110.6697,32.135],[-110.6566,32.1445],[-110.6409,32.1445],[-110.6228,32.135],[-110.6228,32.1246],[-110.6409,32.1134],[-110.6566,32.1134],[-110.6697,32.1246],[-110.6697,32.135]],[[-110.6631,32.1335],[-110.6544,32.14],[-110.6425,32.14],[-110.6275,32.1335],[-110.6275,32.1258],[-110.6425,32.1169],[-110.6544,32.1169],[-110.6631,32.1258],[-110.6631,32.1335]]]}},{"type":"Feature","properties":{"c":"#c8f500","v0":0.2,"v1":0.25},"geometry":{"type":"Polygon","coordinates":[[[-110.5335,32.0691],[-110.5045,32.0824],[-110.4856,32.0866],[-110.4767,32.0818],[-110.4867,32.0716],[-110.5156,32.0559],[-110.5345,32.0517],[-110.5435,32.0589],[-110.5335,32.0691]]]}},{"type":"Feature","properties":{"c":"#c8f500","v0":0.2,"v1":0.25},"geometry":{"type":"Polygon","coordinates":[[[-111.606,31.9734],[-111.5923,31.9989],[-111.5729,32.0159],[-111.5476,32.0243],[-111.5437,32.007],[-111.5612,31.9639],[-111.5807,31.947],[-111.6021,31.9561],[-111.606,31.9734]],[[-111.5916,31.9772],[-111.5639,32.01],[-111.5462,32.0227],[-111.5385,32.0153],[-111.5435,31.9975],[-111.5612,31.9693],[-111.5789,31.9566],[-111.5966,31.9593],[-111.5916,31.9772]]]}},{"type":"Feature","properties":{"c":"#c8f500","v0":0.2,"v1":0.25},"geometry":{"type":"Polygon","coordinates":[[[-110.6298,32.0031],[-110.5998,32.0201],[-110.5887,32.0201],[-110.5967,32.0031],[-110.6117,31.9947],[-110.6338,31.9947],[-110.6298,32.0031]]]}},{"type":"Feature","properties":{"c":"#c8f500","v0":0.2,"v1":0.25},"geometry":{"type":"Polygon","coordinates":[[[-109.2568,31.7569],[-109.2255,31.7569],[-109.2148,31.7507],[-109.2249,31.7385],[-109.2406,31.7385],[-109.2619,31.7507],[-109.2568,31.7569]]]}},{"type":"Feature","properties":{"c":"#c8f500","v0":0.2,"v1":0.25},"geometry":{"type":"Polygon","coordinates":[[[-109.444,31.7157],[-109.4213,31.7355],[-109.4,31.7468],[-109.38,31.7497],[-109.3607,31.7441],[-109.342,31.7299],[-109.332,31.7047],[-109.3307,31.6685],[-109.335,31.6476],[-109.345,31.642],[-109.3763,31.6559],[-109.429,31.6892],[-109.444,31.7157]],[[-109.4292,31.7161],[-109.3897,31.7366],[-109.3621,31.7408],[-109.3462,31.7288],[-109.3362,31.7094],[-109.3321,31.6826],[-109.335,31.6637],[-109.345,31.6527],[-109.3747,31.6619],[-109.4242,31.6912],[-109.4292,31.7161]]]}},{"type":"Feature","properties":{"c":"#c8f500","v0":0.2,"v1":0.25},"geometry":{"type":"Polygon","coordinates":[[[-109.9391,31.4762],[-109.893,31.5281],[-109.85,31.5561],[-109.81,31.5602],[-109.7808,31.5555],[-109.7623,31.5422],[-109.7531,31.5227],[-109.7529,31.4971],[-109.7728,31.4716],[-109.8125,31.446],[-109.8368,31.408],[-109.8456,31.3577],[-109.855,31.3298],[-109.865,31.3244],[-109.8916,31.3239],[-109.9349,31.3284],[-109.958,31.3606],[-109.9608,31.4204],[-109.9391,31.4762]],[[-109.9365,31.4752],[-109.8922,31.525],[-109.85,31.5521],[-109.81,31.5565],[-109.7818,31.5529],[-109.7654,31.5413],[-109.7572,31.5227],[-109.7573,31.4971],[-109.7775,31.4716],[-109.8177,31.446],[-109.8459,31.407],[-109.862,31.3545],[-109.8873,31.3332],[-109.9219,31.3429],[-109.944,31.3734],[-109.9538,31.4246],[-109.9365,31.4752]]]}},{"type":"Feature","properties":{"c":"#c8f500","v0":0.2,"v1":0.25},"geometry":{"type":"Polygon","coordinates":[[[-111.6075,31.4519],[-111.5958,31.4553],[-111.5895,31.451],[-111.5886,31.4391],[-111.5944,31.4332],[-111.6068,31.4332],[-111.6131,31.4374],[-111.6133,31.446],[-111.6075,31.4519]]]}},{"type":"Feature","properties":{"c":"#c8f500","v0":0.2,"v1":0.25},"geometry":{"type":"Polygon","coordinates":[[[-110.0572,31.241],[-110.0406,31.2666],[-110.0197,31.2794],[-109.9945,31.2794],[-109.9967,31.2623],[-110.0262,31.2281],[-110.0471,31.2153],[-110.0594,31.2239],[-110.0572,31.241]],[[-110.0445,31.2408],[-110.0215,31.2662],[-110.0075,31.2747],[-110.0026,31.2665],[-110.0142,31.2538],[-110.0421,31.2367],[-110.0445,31.2408]]]}},{"type":"Feature","properties":{"c":"#c8f500","v0":0.2,"v1":0.25},"geometry":{"type":"Polygon","coordinates":[[[-111.3469,31.2452],[-111.3338,31.2452],[-111.3273,31.241],[-111.3273,31.2324],[-111.3338,31.2281],[-111.3469,31.2281],[-111.3535,31.2324],[-111.3535,31.241],[-111.3469,31.2452]]]}},{"type":"Feature","properties":{"c":"#c8f500","v0":0.2,"v1":0.25},"geometry":{"type":"Polygon","coordinates":[[[-111.0013,31.1302],[-110.9938,31.1396],[-110.9825,31.1396],[-110.9676,31.1302],[-110.9714,31.1255],[-110.9938,31.1255],[-111.0013,31.1302]]]}},{"type":"Feature","properties":{"c":"#c8f500","v0":0.2,"v1":0.25},"geometry":{"type":"Polygon","coordinates":[[[-109.7629,31.0998],[-109.7512,31.1169],[-109.7314,31.125],[-109.7038,31.1241],[-109.6963,31.1113],[-109.7089,31.0865],[-109.7239,31.0728],[-109.7413,31.0701],[-109.7547,31.0744],[-109.7641,31.0856],[-109.7629,31.0998]],[[-109.7532,31.1001],[-109.7377,31.1178],[-109.7205,31.1221],[-109.7015,31.1129],[-109.7015,31.0998],[-109.7205,31.0826],[-109.7377,31.0784],[-109.7532,31.0869],[-109.7532,31.1001]]]}},{"type":"Feature","properties":{"c":"#c8f500","v0":0.2,"v1":0.25},"geometry":{"type":"Polygon","coordinates":[[[-111.6694,30.5397],[-111.6431,30.5705],[-111.618,30.5834],[-111.5941,30.5785],[-111.5874,30.5588],[-111.598,30.5243],[-111.5975,30.4941],[-111.5858,30.4683],[-111.5924,30.4428],[-111.6175,30.4177],[-111.6381,30.409],[-111.6542,30.4169],[-111.6674,30.4467],[-111.6775,30.4985],[-111.6694,30.5397]],[[-111.666,30.5385],[-111.642,30.567],[-111.6199,30.5799],[-111.5996,30.5773],[-111.5943,30.5588],[-111.6041,30.5243],[-111.6029,30.4941],[-111.5906,30.4683],[-111.5959,30.4441],[-111.6186,30.4217],[-111.6364,30.4131],[-111.6492,30.4183],[-111.6612,30.4467],[-111.6724,30.4985],[-111.666,30.5385]]]}},{"type":"Feature","properties":{"c":"#c8f500","v0":0.25,"v1":0.5},"geometry":{"type":"Polygon","coordinates":[[[-96.1354,38.9629],[-96.1185,38.9737],[-96.105,38.9737],[-96.0951,38.9629],[-96.0951,38.9524],[-96.105,38.9421],[-96.1185,38.9421],[-96.1354,38.9524],[-96.1354,38.9629]]]}},{"type":"Feature","properties":{"c":"#c8f500","v0":0.25,"v1":0.5},"geometry":{"type":"Polygon","coordinates":[[[-95.0452,38.7619],[-95.0217,38.7756],[-95.0022,38.7717],[-94.9865,38.7502],[-94.9865,38.734],[-95.0022,38.7233],[-95.0217,38.7272],[-95.0452,38.7457],[-95.0452,38.7619]],[[-95.0315,38.7586],[-95.0172,38.7658],[-95.008,38.7619],[-95.004,38.7469],[-95.0111,38.7433],[-95.0295,38.7511],[-95.0315,38.7586]]]}},{"type":"Feature","properties":{"c":"#c8f500","v0":0.25,"v1":0.5},"geometry":{"type":"Polygon","coordinates":[[[-94.969,38.6574],[-94.9669,38.6809],[-94.9569,38.6966],[-94.939,38.7047],[-94.915,38.7055],[-94.885,38.699],[-94.861,38.6872],[-94.843,38.67],[-94.838,38.6529],[-94.846,38.636],[-94.865,38.6225],[-94.895,38.6126],[-94.92,38.6102],[-94.94,38.6154],[-94.955,38.6249],[-94.965,38.6388],[-94.969,38.6574]],[[-94.952,38.6692],[-94.9441,38.6848],[-94.9326,38.6937],[-94.9175,38.6959],[-94.899,38.692],[-94.877,38.682],[-94.8629,38.6692],[-94.8567,38.6535],[-94.8677,38.6393],[-94.8959,38.6265],[-94.9181,38.6226],[-94.9343,38.6276],[-94.9458,38.6379],[-94.9526,38.6535],[-94.952,38.6692]]]}},{"type":"Feature","properties":{"c":"#c8f500","v0":0.25,"v1":0.5},"geometry":{"type":"Polygon","coordinates":[[[-96.0721,38.681],[-96.0574,38.6891],[-96.043,38.6891],[-96.0291,38.681],[-96.0291,38.6715],[-96.043,38.6606],[-96.0574,38.6606],[-96.0721,38.6715],[-96.0721,38.681]]]}},{"type":"Feature","properties":{"c":"#c8f500","v0":0.25,"v1":0.5},"geometry":{"type":"Polygon","coordinates":[[[-96.4401,38.6067],[-96.4352,38.6223],[-96.422,38.6343],[-96.4007,38.6427],[-96.3763,38.6387],[-96.349,38.6226],[-96.349,38.6025],[-96.3763,38.5784],[-96.4032,38.5745],[-96.4295,38.5907],[-96.4401,38.6067]],[[-96.4174,38.6196],[-96.3991,38.6299],[-96.3807,38.6299],[-96.3621,38.6196],[-96.3621,38.6062],[-96.3807,38.5897],[-96.3991,38.5897],[-96.4174,38.6062],[-96.4174,38.6196]]]}},{"type":"Feature","properties":{"c":"#c8f500","v0":0.25,"v1":0.5},"geometry":{"type":"Polygon","coordinates":[[[-96.2942,38.5551],[-96.2381,38.5927],[-96.205,38.6094],[-96.195,38.6051],[-96.1884,38.5902],[-96.1852,38.5647],[-96.1902,38.5423],[-96.2034,38.523],[-96.225,38.5101],[-96.255,38.5036],[-96.2831,38.5094],[-96.3092,38.5273],[-96.2942,38.5551]],[[-96.2849,38.5469],[-96.2483,38.5681],[-96.2232,38.576],[-96.2095,38.5704],[-96.2095,38.5547],[-96.2232,38.5288],[-96.245,38.5163],[-96.275,38.517],[-96.2933,38.5221],[-96.2999,38.5316],[-96.2849,38.5469]]]}},{"type":"Feature","properties":{"c":"#c8f500","v0":0.25,"v1":0.5},"geometry":{"type":"Polygon","coordinates":[[[-95.0795,38.4031],[-95.0598,38.4186],[-95.0389,38.4186],[-95.0168,38.4031],[-95.0168,38.3868],[-95.0389,38.3697],[-95.0598,38.3697],[-95.0795,38.3868],[-95.0795,38.4031]]]}},{"type":"Feature","properties":{"c":"#c8f500","v0":0.25,"v1":0.5},"geometry":{"type":"Polygon","coordinates":[[[-95.9274,38.2558],[-95.9025,38.3219],[-95.875,38.3635],[-95.845,38.3806],[-95.82,38.3851],[-95.8,38.3771],[-95.7848,38.359],[-95.7745,38.331],[-95.784,38.2895],[-95.8133,38.2345],[-95.8435,38.2023],[-95.8745,38.193],[-95.9025,38.1969],[-95.9274,38.2141],[-95.9274,38.2558]],[[-95.9113,38.2502],[-95.8943,38.3051],[-95.8769,38.3396],[-95.859,38.3536],[-95.84,38.3605],[-95.82,38.3604],[-95.8056,38.3495],[-95.7969,38.3278],[-95.8019,38.2944],[-95.8206,38.2494],[-95.84,38.2206],[-95.86,38.2081],[-95.8825,38.207],[-95.9074,38.2175],[-95.9113,38.2502]]]}},{"type":"Feature","properties":{"c":"#c8f500","v0":0.25,"v1":0.5},"geometry":{"type":"Polygon","coordinates":[[[-101.083,38.1559],[-101.0774,38.1795],[-101.0656,38.1952],[-101.0475,38.2031],[-101.035,38.1873],[-101.028,38.148],[-101.0359,38.1272],[-101.0586,38.125],[-101.0739,38.1289],[-101.0818,38.139],[-101.083,38.1559]]]}},{"type":"Feature","properties":{"c":"#c8f500","v0":0.25,"v1":0.5},"geometry":{"type":"Polygon","coordinates":[[[-104.1205,35.7385],[-104.1135,35.7546],[-104.105,35.7617],[-104.095,35.7598],[-104.0914,35.7476],[-104.0943,35.7253],[-104.0993,35.712],[-104.1064,35.7078],[-104.1135,35.7118],[-104.1205,35.7242],[-104.1205,35.7385]]]}},{"type":"Feature","properties":{"c":"#c8f500","v0":0.25,"v1":0.5},"geometry":{"type":"Polygon","coordinates":[[[-104.1598,35.6547],[-104.1533,35.6656],[-104.1479,35.6656],[-104.1436,35.6547],[-104.1469,35.6492],[-104.1576,35.6492],[-104.1598,35.6547]]]}},{"type":"Feature","properties":{"c":"#c8f500","v0":0.25,"v1":0.5},"geometry":{"type":"Polygon","coordinates":[[[-110.6631,32.1335],[-110.6544,32.14],[-110.6425,32.14],[-110.6275,32.1335],[-110.6275,32.1258],[-110.6425,32.1169],[-110.6544,32.1169],[-110.6631,32.1258],[-110.6631,32.1335]]]}},{"type":"Feature","properties":{"c":"#c8f500","v0":0.25,"v1":0.5},"geometry":{"type":"Polygon","coordinates":[[[-111.5916,31.9772],[-111.5639,32.01],[-111.5462,32.0227],[-111.5385,32.0153],[-111.5435,31.9975],[-111.5612,31.9693],[-111.5789,31.9566],[-111.5966,31.9593],[-111.5916,31.9772]]]}},{"type":"Feature","properties":{"c":"#c8f500","v0":0.25,"v1":0.5},"geometry":{"type":"Polygon","coordinates":[[[-109.4292,31.7161],[-109.3897,31.7366],[-109.3621,31.7408],[-109.3462,31.7288],[-109.3362,31.7094],[-109.3321,31.6826],[-109.335,31.6637],[-109.345,31.6527],[-109.3747,31.6619],[-109.4242,31.6912],[-109.4292,31.7161]],[[-109.4042,31.7101],[-109.3874,31.7186],[-109.3755,31.7143],[-109.3685,31.6973],[-109.3769,31.6931],[-109.4007,31.7016],[-109.4042,31.7101]]]}},{"type":"Feature","properties":{"c":"#c8f500","v0":0.25,"v1":0.5},"geometry":{"type":"Polygon","coordinates":[[[-109.9365,31.4752],[-109.8922,31.525],[-109.85,31.5521],[-109.81,31.5565],[-109.7818,31.5529],[-109.7654,31.5413],[-109.7572,31.5227],[-109.7573,31.4971],[-109.7775,31.4716],[-109.8177,31.446],[-109.8459,31.407],[-109.862,31.3545],[-109.8873,31.3332],[-109.9219,31.3429],[-109.944,31.3734],[-109.9538,31.4246],[-109.9365,31.4752]],[[-109.9225,31.4716],[-109.8811,31.5142],[-109.8428,31.5368],[-109.8076,31.5395],[-109.785,31.536],[-109.775,31.5264],[-109.7724,31.5122],[-109.7771,31.4936],[-109.7971,31.4752],[-109.8324,31.457],[-109.86,31.4291],[-109.88,31.3917],[-109.9033,31.3922],[-109.9299,31.4309],[-109.9225,31.4716]]]}},{"type":"Feature","properties":{"c":"#c8f500","v0":0.25,"v1":0.5},"geometry":{"type":"Polygon","coordinates":[[[-110.0445,31.2408],[-110.0215,31.2662],[-110.0075,31.2747],[-110.0026,31.2665],[-110.0142,31.2538],[-110.0421,31.2367],[-110.0445,31.2408]]]}},{"type":"Feature","properties":{"c":"#c8f500","v0":0.25,"v1":0.5},"geometry":{"type":"Polygon","coordinates":[[[-109.7532,31.1001],[-109.7377,31.1178],[-109.7205,31.1221],[-109.7015,31.1129],[-109.7015,31.0998],[-109.7205,31.0826],[-109.7377,31.0784],[-109.7532,31.0869],[-109.7532,31.1001]]]}},{"type":"Feature","properties":{"c":"#c8f500","v0":0.25,"v1":0.5},"geometry":{"type":"Polygon","coordinates":[[[-111.666,30.5385],[-111.642,30.567],[-111.6199,30.5799],[-111.5996,30.5773],[-111.5943,30.5588],[-111.6041,30.5243],[-111.6029,30.4941],[-111.5906,30.4683],[-111.5959,30.4441],[-111.6186,30.4217],[-111.6364,30.4131],[-111.6492,30.4183],[-111.6612,30.4467],[-111.6724,30.4985],[-111.666,30.5385]]]}},{"type":"Feature","properties":{"c":"#ffff00","v0":0.5,"v1":0.75},"geometry":{"type":"Polygon","coordinates":[[[-95.0315,38.7586],[-95.0172,38.7658],[-95.008,38.7619],[-95.004,38.7469],[-95.0111,38.7433],[-95.0295,38.7511],[-95.0315,38.7586]]]}},{"type":"Feature","properties":{"c":"#ffff00","v0":0.5,"v1":0.75},"geometry":{"type":"Polygon","coordinates":[[[-94.952,38.6692],[-94.9441,38.6848],[-94.9326,38.6937],[-94.9175,38.6959],[-94.899,38.692],[-94.877,38.682],[-94.8629,38.6692],[-94.8567,38.6535],[-94.8677,38.6393],[-94.8959,38.6265],[-94.9181,38.6226],[-94.9343,38.6276],[-94.9458,38.6379],[-94.9526,38.6535],[-94.952,38.6692]],[[-94.9338,38.6672],[-94.9179,38.6789],[-94.9006,38.675],[-94.8818,38.6555],[-94.8818,38.6421],[-94.9006,38.6349],[-94.9179,38.6388],[-94.9338,38.6538],[-94.9338,38.6672]]]}},{"type":"Feature","properties":{"c":"#ffff00","v0":0.5,"v1":0.75},"geometry":{"type":"Polygon","coordinates":[[[-96.4174,38.6196],[-96.3991,38.6299],[-96.3807,38.6299],[-96.3621,38.6196],[-96.3621,38.6062],[-96.3807,38.5897],[-96.3991,38.5897],[-96.4174,38.6062],[-96.4174,38.6196]],[[-96.4012,38.6145],[-96.3836,38.6145],[-96.3787,38.6101],[-96.3862,38.6013],[-96.395,38.6013],[-96.4049,38.6101],[-96.4012,38.6145]]]}},{"type":"Feature","properties":{"c":"#ffff00","v0":0.5,"v1":0.75},"geometry":{"type":"Polygon","coordinates":[[[-96.2849,38.5469],[-96.2483,38.5681],[-96.2232,38.576],[-96.2095,38.5704],[-96.2095,38.5547],[-96.2232,38.5288],[-96.245,38.5163],[-96.275,38.517],[-96.2933,38.5221],[-96.2999,38.5316],[-96.2849,38.5469]],[[-96.2668,38.5427],[-96.2423,38.5554],[-96.227,38.5593],[-96.2209,38.5544],[-96.2259,38.5445],[-96.242,38.5296],[-96.2573,38.5257],[-96.2718,38.5327],[-96.2668,38.5427]]]}},{"type":"Feature","properties":{"c":"#ffff00","v0":0.5,"v1":0.75},"geometry":{"type":"Polygon","coordinates":[[[-95.9113,38.2502],[-95.8943,38.3051],[-95.8769,38.3396],[-95.859,38.3536],[-95.84,38.3605],[-95.82,38.3604],[-95.8056,38.3495],[-95.7969,38.3278],[-95.8019,38.2944],[-95.8206,38.2494],[-95.84,38.2206],[-95.86,38.2081],[-95.8825,38.207],[-95.9074,38.2175],[-95.9113,38.2502]],[[-95.8873,38.258],[-95.8765,38.2973],[-95.8608,38.3212],[-95.8403,38.3297],[-95.8337,38.3101],[-95.841,38.2623],[-95.851,38.2338],[-95.8637,38.2247],[-95.8757,38.2247],[-95.8871,38.2338],[-95.8873,38.258]]]}},{"type":"Feature","properties":{"c":"#ffff00","v0":0.5,"v1":0.75},"geometry":{"type":"Polygon","coordinates":[[[-109.4042,31.7101],[-109.3874,31.7186],[-109.3755,31.7143],[-109.3685,31.6973],[-109.3769,31.6931],[-109.4007,31.7016],[-109.4042,31.7101]]]}},{"type":"Feature","properties":{"c":"#ffff00","v0":0.5,"v1":0.75},"geometry":{"type":"Polygon","coordinates":[[[-109.9225,31.4716],[-109.8811,31.5142],[-109.8428,31.5368],[-109.8076,31.5395],[-109.785,31.536],[-109.775,31.5264],[-109.7724,31.5122],[-109.7771,31.4936],[-109.7971,31.4752],[-109.8324,31.457],[-109.86,31.4291],[-109.88,31.3917],[-109.9033,31.3922],[-109.9299,31.4309],[-109.9225,31.4716]],[[-109.9197,31.4624],[-109.8999,31.4869],[-109.8685,31.5039],[-109.8256,31.5136],[-109.8015,31.5142],[-109.7962,31.5057],[-109.8089,31.4929],[-109.8397,31.4758],[-109.8638,31.4522],[-109.8813,31.4222],[-109.8999,31.4179],[-109.9197,31.4394],[-109.9197,31.4624]]]}},{"type":"Feature","properties":{"c":"#ffd700","v0":0.75,"v1":1.0},"geometry":{"type":"Polygon","coordinates":[[[-94.9338,38.6672],[-94.9179,38.6789],[-94.9006,38.675],[-94.8818,38.6555],[-94.8818,38.6421],[-94.9006,38.6349],[-94.9179,38.6388],[-94.9338,38.6538],[-94.9338,38.6672]]]}},{"type":"Feature","properties":{"c":"#ffd700","v0":0.75,"v1":1.0},"geometry":{"type":"Polygon","coordinates":[[[-96.4012,38.6145],[-96.3836,38.6145],[-96.3787,38.6101],[-96.3862,38.6013],[-96.395,38.6013],[-96.4049,38.6101],[-96.4012,38.6145]]]}},{"type":"Feature","properties":{"c":"#ffd700","v0":0.75,"v1":1.0},"geometry":{"type":"Polygon","coordinates":[[[-96.2668,38.5427],[-96.2423,38.5554],[-96.227,38.5593],[-96.2209,38.5544],[-96.2259,38.5445],[-96.242,38.5296],[-96.2573,38.5257],[-96.2718,38.5327],[-96.2668,38.5427]]]}},{"type":"Feature","properties":{"c":"#ffd700","v0":0.75,"v1":1.0},"geometry":{"type":"Polygon","coordinates":[[[-95.8873,38.258],[-95.8765,38.2973],[-95.8608,38.3212],[-95.8403,38.3297],[-95.8337,38.3101],[-95.841,38.2623],[-95.851,38.2338],[-95.8637,38.2247],[-95.8757,38.2247],[-95.8871,38.2338],[-95.8873,38.258]]]}},{"type":"Feature","properties":{"c":"#ffd700","v0":0.75,"v1":1.0},"geometry":{"type":"Polygon","coordinates":[[[-109.9197,31.4624],[-109.8999,31.4869],[-109.8685,31.5039],[-109.8256,31.5136],[-109.8015,31.5142],[-109.7962,31.5057],[-109.8089,31.4929],[-109.8397,31.4758],[-109.8638,31.4522],[-109.8813,31.4222],[-109.8999,31.4179],[-109.9197,31.4394],[-109.9197,31.4624]]]}}]}