{"type":"FeatureCollection","features":[{"type":"Feature","properties":{"c":"#c8f500","v0":0.2,"v1":0.25},"geometry":{"type":"Polygon","coordinates":[[[-115.0202,53.9683],[-115.0001,53.9848],[-114.9755,53.9907],[-114.9465,53.9859],[-114.9331,53.9777],[-114.9354,53.9659],[-114.9449,53.9562],[-114.9616,53.9486],[-114.98,53.9445],[-115.0,53.944],[-115.0151,53.9478],[-115.0252,53.9559],[-115.0202,53.9683]],[[-115.0162,53.9677],[-114.9987,53.9831],[-114.977,53.989],[-114.9511,53.9854],[-114.939,53.9777],[-114.9408,53.9659],[-114.9488,53.9569],[-114.9629,53.9508],[-114.98,53.9475],[-115.0,53.9471],[-115.0137,53.9501],[-115.0212,53.9567],[-115.0162,53.9677]]]}},{"type":"Feature","properties":{"c":"#c8f500","v0":0.2,"v1":0.25},"geometry":{"type":"Polygon","coordinates":[[[-116.6307,52.683],[-116.6169,52.6856],[-116.6003,52.6826],[-116.581,52.6739],[-116.5733,52.6666],[-116.5772,52.6605],[-116.589,52.6575],[-116.6086,52.6575],[-116.6232,52.6635],[-116.6328,52.6757],[-116.6307,52.683]],[[-116.622,52.6723],[-116.614,52.6775],[-116.6058,52.6775],[-116.5974,52.6723],[-116.6014,52.6696],[-116.6178,52.6696],[-116.622,52.6723]]]}},{"type":"Feature","properties":{"c":"#c8f500","v0":0.2,"v1":0.25},"geometry":{"type":"Polygon","coordinates":[[[-115.2232,52.0387],[-115.2144,52.0476],[-115.201,52.0507],[-115.1831,52.048],[-115.1781,52.0412],[-115.186,52.0303],[-115.1994,52.0272],[-115.2182,52.032],[-115.2232,52.0387]],[[-115.2105,52.0374],[-115.1947,52.0436],[-115.1876,52.0425],[-115.1892,52.0343],[-115.1971,52.0312],[-115.2113,52.0333],[-115.2105,52.0374]]]}},{"type":"Feature","properties":{"c":"#c8f500","v0":0.2,"v1":0.25},"geometry":{"type":"Polygon","coordinates":[[[-100.2626,46.0962],[-100.2275,46.1277],[-100.195,46.147],[-100.165,46.1539],[-100.1281,46.1416],[-100.0842,46.1101],[-100.0692,46.0869],[-100.0831,46.0721],[-100.105,46.0626],[-100.135,46.0584],[-100.175,46.0573],[-100.225,46.0592],[-100.2575,46.0652],[-100.2726,46.0753],[-100.2626,46.0962]],[[-100.2585,46.0949],[-100.2262,46.124],[-100.195,46.1421],[-100.165,46.1492],[-100.1297,46.1382],[-100.089,46.1089],[-100.074,46.0879],[-100.0847,46.0753],[-100.1,46.0669],[-100.12,46.0629],[-100.16,46.0616],[-100.22,46.063],[-100.2562,46.0678],[-100.2685,46.0762],[-100.2585,46.0949]]]}},{"type":"Feature","properties":{"c":"#c8f500","v0":0.2,"v1":0.25},"geometry":{"type":"Polygon","coordinates":[[[-81.3622,41.4971],[-81.3541,41.5073],[-81.34,41.5111],[-81.32,41.5084],[-81.32,41.4985],[-81.34,41.4813],[-81.3541,41.4775],[-81.3622,41.4872],[-81.3622,41.4971]]]}},{"type":"Feature","properties":{"c":"#c8f500","v0":0.2,"v1":0.25},"geometry":{"type":"Polygon","coordinates":[[[-79.7143,40.8043],[-79.6848,40.8146],[-79.6628,40.8146],[-79.6484,40.8043],[-79.6484,40.7926],[-79.6628,40.7794],[-79.6848,40.7794],[-79.7143,40.7926],[-79.7143,40.8043]],[[-79.7064,40.8033],[-79.6821,40.8115],[-79.6644,40.8115],[-79.6533,40.8033],[-79.6533,40.7938],[-79.6644,40.783],[-79.6821,40.783],[-79.7064,40.7938],[-79.7064,40.8033]]]}},{"type":"Feature","properties":{"c":"#c8f500","v0":0.2,"v1":0.25},"geometry":{"type":"Polygon","coordinates":[[[-81.7438,40.3847],[-81.7213,40.4061],[-81.7003,40.4061],[-81.6809,40.3847],[-81.6809,40.3684],[-81.7003,40.3574],[-81.7213,40.3574],[-81.7438,40.3684],[-81.7438,40.3847]],[[-81.736,40.382],[-81.7187,40.3982],[-81.7024,40.3982],[-81.6873,40.382],[-81.6873,40.3695],[-81.7024,40.3605],[-81.7187,40.3605],[-81.736,40.3695],[-81.736,40.382]]]}},{"type":"Feature","properties":{"c":"#c8f500","v0":0.2,"v1":0.25},"geometry":{"type":"Polygon","coordinates":[[[-82.4813,39.9818],[-82.4738,39.9923],[-82.4642,39.9962],[-82.4526,39.9933],[-82.4476,39.9866],[-82.4492,39.976],[-82.4588,39.9722],[-82.4763,39.9751],[-82.4813,39.9818]]]}},{"type":"Feature","properties":{"c":"#c8f500","v0":0.2,"v1":0.25},"geometry":{"type":"Polygon","coordinates":[[[-112.8942,34.6619],[-112.8647,34.6826],[-112.8347,34.6785],[-112.804,34.6496],[-112.809,34.6283],[-112.8497,34.6147],[-112.8797,34.6188],[-112.8992,34.6407],[-112.8942,34.6619]],[[-112.8908,34.661],[-112.8636,34.6798],[-112.8371,34.6757],[-112.8114,34.6487],[-112.8164,34.6292],[-112.8521,34.6173],[-112.8786,34.6214],[-112.8958,34.6415],[-112.8908,34.661]]]}},{"type":"Feature","properties":{"c":"#c8f500","v0":0.2,"v1":0.25},"geometry":{"type":"Polygon","coordinates":[[[-112.5295,34.4935],[-112.5165,34.5066],[-112.5001,34.5066],[-112.4803,34.4935],[-112.4803,34.4813],[-112.5001,34.4702],[-112.5165,34.4702],[-112.5295,34.4813],[-112.5295,34.4935]],[[-112.5252,34.4925],[-112.5151,34.5037],[-112.5015,34.5037],[-112.4846,34.4925],[-112.4846,34.4824],[-112.5015,34.4735],[-112.5151,34.4735],[-112.5252,34.4824],[-112.5252,34.4925]]]}},{"type":"Feature","properties":{"c":"#c8f500","v0":0.2,"v1":0.25},"geometry":{"type":"Polygon","coordinates":[[[-109.2152,33.6795],[-109.1984,33.6883],[-109.1846,33.6883],[-109.1739,33.6795],[-109.1789,33.6689],[-109.1996,33.6563],[-109.2134,33.6563],[-109.2202,33.6689],[-109.2152,33.6795]],[[-109.2062,33.6752],[-109.1871,33.6752],[-109.1856,33.6704],[-109.2019,33.6609],[-109.2114,33.6609],[-109.2143,33.6704],[-109.2062,33.6752]]]}},{"type":"Feature","properties":{"c":"#c8f500","v0":0.2,"v1":0.25},"geometry":{"type":"Polygon","coordinates":[[[-95.8678,31.4049],[-95.8559,31.4167],[-95.836,31.421],[-95.8079,31.4177],[-95.8079,31.4079],[-95.836,31.3916],[-95.8559,31.3873],[-95.8678,31.3951],[-95.8678,31.4049]],[[-95.8547,31.4033],[-95.8336,31.4118],[-95.8248,31.4113],[-95.8283,31.4018],[-95.8388,31.3975],[-95.8564,31.3985],[-95.8547,31.4033]]]}},{"type":"Feature","properties":{"c":"#c8f500","v0":0.2,"v1":0.25},"geometry":{"type":"Polygon","coordinates":[[[-110.2002,29.2766],[-110.1667,29.2778],[-110.148,29.2735],[-110.1439,29.2635],[-110.1539,29.2574],[-110.178,29.2554],[-110.1967,29.2598],[-110.2102,29.2705],[-110.2002,29.2766]]]}},{"type":"Feature","properties":{"c":"#c8f500","v0":0.2,"v1":0.25},"geometry":{"type":"Polygon","coordinates":[[[-110.3823,29.1114],[-110.3341,29.1316],[-110.2956,29.136],[-110.2667,29.1245],[-110.2497,29.11],[-110.2444,29.0926],[-110.2514,29.0707],[-110.2706,29.0445],[-110.2927,29.0288],[-110.3176,29.0238],[-110.34,29.0259],[-110.36,29.0353],[-110.3791,29.0553],[-110.3973,29.086],[-110.3823,29.1114]],[[-110.376,29.1104],[-110.332,29.1285],[-110.2977,29.1328],[-110.2732,29.1235],[-110.2577,29.11],[-110.2512,29.0926],[-110.2576,29.0707],[-110.277,29.0445],[-110.2975,29.0297],[-110.3192,29.0264],[-110.34,29.0305],[-110.36,29.0419],[-110.377,29.061],[-110.391,29.0879],[-110.376,29.1104]]]}},{"type":"Feature","properties":{"c":"#c8f500","v0":0.2,"v1":0.25},"geometry":{"type":"Polygon","coordinates":[[[-77.6274,28.3955],[-77.5975,28.4219],[-77.5894,28.4182],[-77.6031,28.3845],[-77.6181,28.3713],[-77.6343,28.3786],[-77.6274,28.3955]],[[-77.6256,28.3928],[-77.6019,28.4138],[-77.595,28.4115],[-77.605,28.3858],[-77.6169,28.3753],[-77.6306,28.3799],[-77.6256,28.3928]]]}},{"type":"Feature","properties":{"c":"#c8f500","v0":0.2,"v1":0.25},"geometry":{"type":"Polygon","coordinates":[[[-99.7656,25.9142],[-99.7552,25.9254],[-99.7435,25.9254],[-99.7306,25.9142],[-99.7306,25.9031],[-99.7435,25.8922],[-99.7552,25.8922],[-99.7656,25.9031],[-99.7656,25.9142]],[[-99.7589,25.9125],[-99.753,25.9202],[-99.7454,25.9202],[-99.7361,25.9125],[-99.7361,25.905],[-99.7454,25.8977],[-99.753,25.8977],[-99.7589,25.905],[-99.7589,25.9125]]]}},{"type":"Feature","properties":{"c":"#c8f500","v0":0.2,"v1":0.25},"geometry":{"type":"Polygon","coordinates":[[[-99.447,25.4353],[-99.4357,25.4623],[-99.42,25.4743],[-99.4,25.4715],[-99.39,25.4416],[-99.39,25.3845],[-99.4057,25.3725],[-99.437,25.4054],[-99.447,25.4353]],[[-99.4428,25.4334],[-99.4343,25.4565],[-99.42,25.4666],[-99.4,25.4636],[-99.39,25.44],[-99.39,25.3961],[-99.4043,25.386],[-99.4328,25.4099],[-99.4428,25.4334]]]}},{"type":"Feature","properties":{"c":"#c8f500","v0":0.2,"v1":0.25},"geometry":{"type":"Polygon","coordinates":[[[-99.5289,25.3857],[-99.5132,25.3857],[-99.5115,25.3805],[-99.5238,25.3701],[-99.5317,25.3701],[-99.535,25.3805],[-99.5289,25.3857]]]}},{"type":"Feature","properties":{"c":"#c8f500","v0":0.2,"v1":0.25},"geometry":{"type":"Polygon","coordinates":[[[-99.453,24.5489],[-99.4377,24.58],[-99.4144,24.5891],[-99.3832,24.5762],[-99.3614,24.5607],[-99.3489,24.5425],[-99.3482,24.5152],[-99.3595,24.4788],[-99.3778,24.4606],[-99.403,24.4606],[-99.4269,24.4788],[-99.4494,24.5152],[-99.453,24.5489]],[[-99.4502,24.5477],[-99.4367,24.5764],[-99.415,24.5847],[-99.385,24.5727],[-99.3643,24.5584],[-99.3529,24.5417],[-99.3529,24.5154],[-99.3643,24.4795],[-99.38,24.4613],[-99.4,24.461],[-99.4217,24.479],[-99.4452,24.5153],[-99.4502,24.5477]]]}},{"type":"Feature","properties":{"c":"#c8f500","v0":0.25,"v1":0.5},"geometry":{"type":"Polygon","coordinates":[[[-115.0162,53.9677],[-114.9987,53.9831],[-114.977,53.989],[-114.9511,53.9854],[-114.939,53.9777],[-114.9408,53.9659],[-114.9488,53.9569],[-114.9629,53.9508],[-114.98,53.9475],[-115.0,53.9471],[-115.0137,53.9501],[-115.0212,53.9567],[-115.0162,53.9677]],[[-114.987,53.9718],[-114.9675,53.9718],[-114.9658,53.9688],[-114.9819,53.9627],[-114.9917,53.9627],[-114.995,53.9688],[-114.987,53.9718]]]}},{"type":"Feature","properties":{"c":"#c8f500","v0":0.25,"v1":0.5},"geometry":{"type":"Polygon","coordinates":[[[-116.622,52.6723],[-116.614,52.6775],[-116.6058,52.6775],[-116.5974,52.6723],[-116.6014,52.6696],[-116.6178,52.6696],[-116.622,52.6723]]]}},{"type":"Feature","properties":{"c":"#c8f500","v0":0.25,"v1":0.5},"geometry":{"type":"Polygon","coordinates":[[[-115.2105,52.0374],[-115.1947,52.0436],[-115.1876,52.0425],[-115.1892,52.0343],[-115.1971,52.0312],[-115.2113,52.0333],[-115.2105,52.0374]]]}},{"type":"Feature","properties":{"c":"#c8f500","v0":0.25,"v1":0.5},"geometry":{"type":"Polygon","coordinates":[[[-100.2585,46.0949],[-100.2262,46.124],[-100.195,46.1421],[-100.165,46.1492],[-100.1297,46.1382],[-100.089,46.1089],[-100.074,46.0879],[-100.0847,46.0753],[-100.1,46.0669],[-100.12,46.0629],[-100.16,46.0616],[-100.22,46.063],[-100.2562,46.0678],[-100.2685,46.0762],[-100.2585,46.0949]],[[-100.1963,46.1143],[-100.1654,46.1265],[-100.1371,46.1231],[-100.1113,46.1039],[-100.1113,46.09],[-100.1371,46.0815],[-100.1654,46.085],[-100.1963,46.1004],[-100.1963,46.1143]]]}},{"type":"Feature","properties":{"c":"#c8f500","v0":0.25,"v1":0.5},"geometry":{"type":"Polygon","coordinates":[[[-79.7064,40.8033],[-79.6821,40.8115],[-79.6644,40.8115],[-79.6533,40.8033],[-79.6533,40.7938],[-79.6644,40.783],[-79.6821,40.783],[-79.7064,40.7938],[-79.7064,40.8033]]]}},{"type":"Feature","properties":{"c":"#c8f500","v0":0.25,"v1":0.5},"geometry":{"type":"Polygon","coordinates":[[[-81.736,40.382],[-81.7187,40.3982],[-81.7024,40.3982],[-81.6873,40.382],[-81.6873,40.3695],[-81.7024,40.3605],[-81.7187,40.3605],[-81.736,40.3695],[-81.736,40.382]]]}},{"type":"Feature","properties":{"c":"#c8f500","v0":0.25,"v1":0.5},"geometry":{"type":"Polygon","coordinates":[[[-112.8908,34.661],[-112.8636,34.6798],[-112.8371,34.6757],[-112.8114,34.6487],[-112.8164,34.6292],[-112.8521,34.6173],[-112.8786,34.6214],[-112.8958,34.6415],[-112.8908,34.661]],[[-112.8716,34.6559],[-112.8572,34.6645],[-112.8459,34.6645],[-112.8376,34.6559],[-112.8426,34.6467],[-112.8609,34.6369],[-112.8722,34.6369],[-112.8766,34.6467],[-112.8716,34.6559]]]}},{"type":"Feature","properties":{"c":"#c8f500","v0":0.25,"v1":0.5},"geometry":{"type":"Polygon","coordinates":[[[-112.5252,34.4925],[-112.5151,34.5037],[-112.5015,34.5037],[-112.4846,34.4925],[-112.4846,34.4824],[-112.5015,34.4735],[-112.5151,34.4735],[-112.5252,34.4824],[-112.5252,34.4925]]]}},{"type":"Feature","properties":{"c":"#c8f500","v0":0.25,"v1":0.5},"geometry":{"type":"Polygon","coordinates":[[[-109.2062,33.6752],[-109.1871,33.6752],[-109.1856,33.6704],[-109.2019,33.6609],[-109.2114,33.6609],[-109.2143,33.6704],[-109.2062,33.6752]]]}},{"type":"Feature","properties":{"c":"#c8f500","v0":0.25,"v1":0.5},"geometry":{"type":"Polygon","coordinates":[[[-95.8547,31.4033],[-95.8336,31.4118],[-95.8248,31.4113],[-95.8283,31.4018],[-95.8388,31.3975],[-95.8564,31.3985],[-95.8547,31.4033]]]}},{"type":"Feature","properties":{"c":"#c8f500","v0":0.25,"v1":0.5},"geometry":{"type":"Polygon","coordinates":[[[-110.376,29.1104],[-110.332,29.1285],[-110.2977,29.1328],[-110.2732,29.1235],[-110.2577,29.11],[-110.2512,29.0926],[-110.2576,29.0707],[-110.277,29.0445],[-110.2975,29.0297],[-110.3192,29.0264],[-110.34,29.0305],[-110.36,29.0419],[-110.377,29.061],[-110.391,29.0879],[-110.376,29.1104]],[[-110.3588,29.1064],[-110.3396,29.1167],[-110.32,29.1192],[-110.3,29.114],[-110.2855,29.1045],[-110.2766,29.0907],[-110.2763,29.0751],[-110.2846,29.0576],[-110.3025,29.0488],[-110.3301,29.0488],[-110.3501,29.062],[-110.3623,29.0882],[-110.3588,29.1064]]]}},{"type":"Feature","properties":{"c":"#c8f500","v0":0.25,"v1":0.5},"geometry":{"type":"Polygon","coordinates":[[[-77.6256,28.3928],[-77.6019,28.4138],[-77.595,28.4115],[-77.605,28.3858],[-77.6169,28.3753],[-77.6306,28.3799],[-77.6256,28.3928]]]}},{"type":"Feature","properties":{"c":"#c8f500","v0":0.25,"v1":0.5},"geometry":{"type":"Polygon","coordinates":[[[-99.7589,25.9125],[-99.753,25.9202],[-99.7454,25.9202],[-99.7361,25.9125],[-99.7361,25.905],[-99.7454,25.8977],[-99.753,25.8977],[-99.7589,25.905],[-99.7589,25.9125]]]}},{"type":"Feature","properties":{"c":"#c8f500","v0":0.25,"v1":0.5},"geometry":{"type":"Polygon","coordinates":[[[-99.4428,25.4334],[-99.4343,25.4565],[-99.42,25.4666],[-99.4,25.4636],[-99.39,25.44],[-99.39,25.3961],[-99.4043,25.386],[-99.4328,25.4099],[-99.4428,25.4334]]]}},{"type":"Feature","properties":{"c":"#c8f500","v0":0.25,"v1":0.5},"geometry":{"type":"Polygon","coordinates":[[[-99.4502,24.5477],[-99.4367,24.5764],[-99.415,24.5847],[-99.385,24.5727],[-99.3643,24.5584],[-99.3529,24.5417],[-99.3529,24.5154],[-99.3643,24.4795],[-99.38,24.4613],[-99.4,24.461],[-99.4217,24.479],[-99.4452,24.5153],[-99.4502,24.5477]],[[-99.4326,24.5416],[-99.4175,24.5581],[-99.4022,24.5626],[-99.3866,24.5553],[-99.3789,24.5334],[-99.379,24.497],[-99.3871,24.4788],[-99.4031,24.4788],[-99.4184,24.4925],[-99.4329,24.5198],[-99.4326,24.5416]]]}},{"type":"Feature","properties":{"c":"#ffff00","v0":0.5,"v1":0.75},"geometry":{"type":"Polygon","coordinates":[[[-114.987,53.9718],[-114.9675,53.9718],[-114.9658,53.9688],[-114.9819,53.9627],[-114.9917,53.9627],[-114.995,53.9688],[-114.987,53.9718]]]}},{"type":"Feature","properties":{"c":"#ffff00","v0":0.5,"v1":0.75},"geometry":{"type":"Polygon","coordinates":[[[-100.1963,46.1143],[-100.1654,46.1265],[-100.1371,46.1231],[-100.1113,46.1039],[-100.1113,46.09],[-100.1371,46.0815],[-100.1654,46.085],[-100.1963,46.1004],[-100.1963,46.1143]]]}},{"type":"Feature","properties":{"c":"#ffff00","v0":0.5,"v1":0.75},"geometry":{"type":"Polygon","coordinates":[[[-112.8716,34.6559],[-112.8572,34.6645],[-112.8459,34.6645],[-112.8376,34.6559],[-112.8426,34.6467],[-112.8609,34.6369],[-112.8722,34.6369],[-112.8766,34.6467],[-112.8716,34.6559]]]}},{"type":"Feature","properties":{"c":"#ffff00","v0":0.5,"v1":0.75},"geometry":{"type":"Polygon","coordinates":[[[-110.3588,29.1064],[-110.3396,29.1167],[-110.32,29.1192],[-110.3,29.114],[-110.2855,29.1045],[-110.2766,29.0907],[-110.2763,29.0751],[-110.2846,29.0576],[-110.3025,29.0488],[-110.3301,29.0488],[-110.3501,29.062],[-110.3623,29.0882],[-110.3588,29.1064]],[[-110.3261,29.0867],[-110.3154,29.0923],[-110.3094,29.088],[-110.3081,29.0735],[-110.3134,29.0707],[-110.3254,29.0794],[-110.3261,29.0867]]]}},{"type":"Feature","properties":{"c":"#ffff00","v0":0.5,"v1":0.75},"geometry":{"type":"Polygon","coordinates":[[[-99.4326,24.5416],[-99.4175,24.5581],[-99.4022,24.5626],[-99.3866,24.5553],[-99.3789,24.5334],[-99.379,24.497],[-99.3871,24.4788],[-99.4031,24.4788],[-99.4184,24.4925],[-99.4329,24.5198],[-99.4326,24.5416]],[[-99.4195,24.5222],[-99.4132,24.5363],[-99.405,24.5417],[-99.395,24.5386],[-99.3889,24.527],[-99.3868,24.507],[-99.395,24.5016],[-99.4134,24.5107],[-99.4195,24.5222]]]}},{"type":"Feature","properties":{"c":"#ffd700","v0":0.75,"v1":1.0},"geometry":{"type":"Polygon","coordinates":[[[-110.3261,29.0867],[-110.3154,29.0923],[-110.3094,29.088],[-110.3081,29.0735],[-110.3134,29.0707],[-110.3254,29.0794],[-110.3261,29.0867]]]}},{"type":"Feature","properties":{"c":"#ffd700","v0":0.75,"v1":1.0},"geometry":{"type":"Polygon","coordinates":[[[-99.4195,24.5222],[-99.4132,24.5363],[-99.405,24.5417],[-99.395,24.5386],[-99.3889,24.527],[-99.3868,24.507],[-99.395,24.5016],[-99.4134,24.5107],[-99.4195,24.5222]]]}}]}